{"type":"FeatureCollection","features":[{"type":"Feature","properties":{"name":"Lagos"},"geometry":{"type":"Polygon","coordinates":[[[3.34900584864107,6.43766519359383],[3.3490353850750125,6.438871461448851],[3.3490369031306386,6.4410944749301375],[3.3490726340948527,6.442961323606254],[3.349176600219948,6.4438401186266105],[3.3494756913501083,6.444540709386274],[3.350188773692992,6.446010741202768],[3.351494311413376,6.4488819554379715],[3.351472555913745,6.450645445930659],[3.3514337510667933,6.4526674393508765],[3.3510547407836953,6.452673444124173],[3.3504690653950884,6.452777242975455],[3.3506704469835995,6.453345782681765],[3.350860072634305,6.4535179785718775],[3.3509181121812053,6.454408293008383],[3.3510217005910476,6.454729897766639],[3.3510336417891726,6.45484920902385],[3.351452459663335,6.454815765035562],[3.352141648818076,6.454918684349876],[3.3530548303162395,6.455061657669432],[3.3542780342039578,6.455089531256929],[3.356148276022168,6.455160985990744],[3.3561201740068896,6.457479011946873],[3.356189727573905,6.458398038139023],[3.3564431538285358,6.4594662852409215],[3.356236834962033,6.460063828083263],[3.3562258803201535,6.460822071681323],[3.356134726836217,6.461867583921901],[3.3561675466949623,6.463142959280218],[3.3561403727800325,6.463533726400384],[3.35603816123222,6.463821009432081],[3.355944202762771,6.464033468869558],[3.355468205992963,6.464967236748636],[3.3554832255704246,6.465915022360434],[3.3555008253028973,6.466446349919184],[3.35552390730254,6.466604299648736],[3.3547791760182117,6.466537596033277],[3.3534822753867393,6.466552859327068],[3.353178470909768,6.466675134749721],[3.352628337627721,6.466989054801106],[3.3520781431918185,6.46721441771126],[3.3509081980549245,6.467430635415553],[3.350933227086784,6.469024637876769],[3.3509000340093844,6.469469838262452],[3.35081701489338,6.470530182122272],[3.3506596946892273,6.471411070764361],[3.3504171205537436,6.472465031236254],[3.350356036801714,6.472717818972225],[3.350386745052276,6.472832682182571],[3.3504633645926556,6.472901560358762],[3.350011087441771,6.472903098199478],[3.349451968133849,6.472689031673497],[3.348831429626841,6.472237580999603],[3.3479581078804017,6.471640780097972],[3.3473376458157422,6.471296551994328],[3.347015926843597,6.471120614924471],[3.346487513088334,6.471013750284386],[3.3459668649788905,6.4710677177010325],[3.3454309607702726,6.471205942600191],[3.3447956535965777,6.471551027757753],[3.3439232392661324,6.472286880035537],[3.3426910385606443,6.473176152157746],[3.3419792836170927,6.4737127587368954],[3.3414664137440586,6.47395053139195],[3.3406088526165254,6.474012378668364],[3.3398508500367257,6.474097135274631],[3.33877777267611,6.474598510013266],[3.3387440148244996,6.474482903063572],[3.3387397205617044,6.474479520713372],[3.3381618881606414,6.474044785738329],[3.337499277569634,6.473546265447851],[3.334580527869093,6.471464956342688],[3.3338987167524006,6.470967571895979],[3.333715507764509,6.47081774034649],[3.330353424670875,6.4684140620593675],[3.328825152758668,6.467358114085755],[3.3279403385757855,6.466703842908086],[3.3252768146733165,6.464837783836688],[3.3237753920207638,6.463827757045408],[3.3210941973393915,6.4618687557385215],[3.3197306650382075,6.460935218985242],[3.3184132706559812,6.4603080084079325],[3.3171573260498235,6.4599871141140826],[3.3161005686863514,6.459834591793026],[3.315561577105143,6.459793440614815],[3.315469131295401,6.45979283267314],[3.3154706691361184,6.459796671878962],[3.315559164224112,6.460017570554497],[3.3158238418968153,6.460844578114857],[3.316076914717883,6.461476287100995],[3.3165944053076264,6.462509928290617],[3.3171117466098394,6.463302311052871],[3.317778373573106,6.464048645828373],[3.318215169794314,6.4645998196260175],[3.3185162691106025,6.464985930956002],[3.3225849612270504,6.469402598651072],[3.3234938088922372,6.4705253383737045],[3.3244593111483596,6.471627614922508],[3.3253330276971265,6.4728831287534385],[3.3261609255862936,6.474322484694937],[3.3268357723530357,6.4758998002356485],[3.3273118410686493,6.4779520981109044],[3.327435077866596,6.479070228808038],[3.3274350796652357,6.479074058121341],[3.3274363818835586,6.481092197047302],[3.3273796823265234,6.4816228402219735],[3.327379684125163,6.481626668635896],[3.327379288423458,6.481628303603372],[3.3272841536408464,6.482516862563213],[3.3270940279670644,6.4835150767594305],[3.3270857362177826,6.4835586111410635],[3.3265507583108733,6.485167340000773],[3.325648382167174,6.487021391324222],[3.3247918246830177,6.488691596939702],[3.323768802688164,6.490501683106231],[3.322889247740648,6.492148922734654],[3.3224976883176964,6.4929648596406055],[3.32241129134809,6.4931448940216665],[3.321914200080301,6.49416002356628],[3.321505119165977,6.495769703908762],[3.3214352418430053,6.496269176581279],[3.321380165562232,6.497465926011729],[3.3214765081343667,6.49844717000093],[3.3216846040612613,6.4995559927149325],[3.321980368599157,6.500545088684929],[3.3222886490020187,6.501563548419083],[3.322803698831706,6.5032650936092296],[3.3236966707647753,6.5061034466168035],[3.323928274969944,6.506803195611042],[3.324127589916373,6.5074053852503635],[3.3244116902473597,6.508263735083344],[3.324945266111172,6.509281979879516],[3.324958333260497,6.509307865965297],[3.325296549396285,6.50986835673933],[3.3256767530797333,6.510282426193044],[3.32625124360004,6.510908083641196],[3.326975901117009,6.511469273188481],[3.327802630786835,6.511979335378101],[3.3285474726877746,6.512337915762257],[3.3297687376371528,6.512925851147143],[3.3302150990476203,6.513147134732549],[3.3307412114377826,6.513407954313664],[3.3311316242251223,6.513601501008509],[3.3321467133002334,6.51426141902931],[3.3326255807060075,6.51465043516947],[3.333146014776787,6.515170262197898],[3.3334027694223205,6.5155103830977605],[3.333586267991905,6.515753462652242],[3.333752789159917,6.515974051960994],[3.3343692888116716,6.517007603218357],[3.334574863938883,6.517668925080898],[3.334768986199776,6.518293404417133],[3.334896991203209,6.51885816697086],[3.334995383330352,6.519674206399543],[3.3351351649559438,6.52101513693907],[3.335329352867405,6.52287798003482],[3.335440262658039,6.523985081446426],[3.3357929731672016,6.527505805848306],[3.3360690569414833,6.530013927800552],[3.3362621953440907,6.531618135768384],[3.3363296615846707,6.53230580057226],[3.3364837793030233,6.5337369636899885],[3.336803250869366,6.536697572335127],[3.3371051667700726,6.539642873619755],[3.337112942308465,6.539817640671627],[3.3372350162830458,6.541039800446468],[3.3373184670736573,6.541767342988523],[3.337376223334104,6.5422427983664875],[3.337453523661224,6.543314997988828],[3.3374926774451414,6.544597844914676],[3.3374866483901537,6.545124401569918],[3.337493560579389,6.545915821158248],[3.3374970049828216,6.546292384386107],[3.3375356272674144,6.546783807226971],[3.337625322950316,6.547303915743157],[3.337762620648448,6.547830376170964],[3.3378585198548762,6.548083615366579],[3.3380394427661026,6.548518371925354],[3.338298218188242,6.54897454314073],[3.3385665336186885,6.549382838946881],[3.3388986613442175,6.54977832840717],[3.3393233481939997,6.550205664659756],[3.339846943381758,6.550613787796122],[3.3410982582780657,6.55128309743702],[3.341816427186416,6.551576200881016],[3.343587935135133,6.55233131214038],[3.346371280210463,6.55350696077767],[3.3488258817091032,6.554561556170938],[3.350424986923656,6.55516039133903],[3.351813450230566,6.555701927102291],[3.351942905840474,6.555511392237006],[3.352117000199428,6.555618818054087],[3.3539885388400426,6.556652695765365],[3.3560473603974406,6.557532015989804],[3.3572539358205518,6.558057709295893],[3.3582592546609358,6.558267611960787],[3.35997286155839,6.558314254399361],[3.364070168303669,6.558378312209413],[3.366291145719857,6.5584245643422046],[3.3668617457730075,6.5584837550213155],[3.3669259150989315,6.55847896343346],[3.3676198706605764,6.558402781862923],[3.3682286055657182,6.558252986286335],[3.368825827350122,6.558068734084887],[3.3695263101911337,6.557712079149153],[3.3700430066794524,6.55737853499147],[3.3705596348193585,6.55695308371787],[3.372132260395574,6.555366524945213],[3.3742099317429957,6.553251119843367],[3.3760006321235214,6.551446108551088],[3.377662158381952,6.549813157351365],[3.3778372689748153,6.549641056789371],[3.378258372026323,6.549322614047467],[3.3787559858001264,6.548946311623011],[3.37899301111861,6.548767070443999],[3.380115000806711,6.548258517316753],[3.3809048330916194,6.548046371742714],[3.381165882899211,6.547976255200071],[3.3821306917780585,6.547803196860116],[3.3830094544228477,6.547773807015628],[3.3844685208056267,6.547996715675934],[3.38590472912,6.548368986439641],[3.387180107176278,6.54872988797399],[3.3877890759051756,6.54890748789029],[3.391395512892643,6.549852240088852],[3.392726428581853,6.550224572006414],[3.393578539817782,6.55038665681883],[3.393837029255564,6.550415175220223],[3.395100636984864,6.550404609085488],[3.3960674792308505,6.550384699894039],[3.3964025135651923,6.550365288027649],[3.3967757412075343,6.5502213893057055],[3.3969610797900596,6.550072866269829],[3.3969672086697646,6.550055827714344],[3.396964773305683,6.550000782010556],[3.3969288381953784,6.549954377892278],[3.396957370086625,6.549718845448409],[3.3970429936392748,6.549046709238269],[3.3974035965987355,6.547466776670433],[3.3979136929626175,6.546087773332145],[3.3985042192943533,6.544737425092137],[3.3985812066574113,6.544565516985075],[3.3987484068135814,6.544158506310054],[3.399168644717236,6.5429471096214815],[3.3992689227226265,6.542650247910672],[3.3992965130237285,6.542519434324502],[3.3993144796795605,6.542367340080714],[3.3993475027850764,6.542164893694918],[3.3994026348237867,6.5418255318228935],[3.399626991392608,6.54056482800445],[3.399762032691683,6.539846698666281],[3.399818419284657,6.539530086944011],[3.399989977555492,6.538588545325182],[3.400267961597194,6.53705814112038],[3.400162585335067,6.536959296634277],[3.4001002883976525,6.536863609667875],[3.4000969788925204,6.5367152224296206],[3.4000872293422044,6.5364918452225425],[3.400130106319409,6.536241302194412],[3.4002304373848347,6.536013050661781],[3.4003290993085216,6.535693851590052],[3.4003687737999253,6.5354289499861125],[3.400381420066537,6.535280549258002],[3.400355827159729,6.535197597591093],[3.4003589612970586,6.535125793020993],[3.40037325062508,6.535039619083189],[3.4004082810174054,6.534951832661019],[3.4004784038552884,6.534857636770596],[3.4004543757689025,6.534736390172327],[3.4004638447307225,6.534605543311214],[3.4005020290454695,6.5344714822731484],[3.40059921877895,6.534307058324144],[3.4007361180774183,6.533920812995177],[3.400995544608747,6.533133973654003],[3.401089432031711,6.53282913855395],[3.401227787332573,6.5322689724351894],[3.4013151978381306,6.5318460680416575],[3.401424782927449,6.5312205041230404],[3.4014786334322475,6.530725823937701],[3.4014881293737176,6.530630080313986],[3.4011177777632606,6.53035912267541],[3.4008719076124976,6.530137529723275],[3.4004823168055505,6.529745320989832],[3.400373720071172,6.52960818606897],[3.4003828751696115,6.529083224811018],[3.4003584073146835,6.5284067080032155],[3.4003359413506473,6.528242379382334],[3.400351954679024,6.528159374655447],[3.4003356562655545,6.527725384319069],[3.4002457708257334,6.527042537183377],[3.400260462150641,6.526523847797366],[3.4002456871887716,6.526133042905655],[3.4003665884473544,6.525692560363437],[3.4004172040907292,6.525143632172956],[3.4002507917406883,6.524524670177412],[3.400173891611871,6.524488199970506],[3.399848308252899,6.523963336738632],[3.4003201609467055,6.523885985150117],[3.401887260188971,6.5199717488971505],[3.402865576884892,6.51761202857233],[3.4046409878912978,6.516124781933172],[3.405084522732579,6.515358537066902],[3.4042508098270337,6.507011005553521],[3.4037596828630963,6.505709386179263],[3.3995395332229355,6.494974952332257],[3.3978670262422956,6.4909170466843875],[3.3971167362484493,6.491086131819599],[3.3898936028075464,6.492842442125039],[3.390436713283748,6.492107916347322],[3.3915688131502293,6.490559942087713],[3.39306805404749,6.488490873654942],[3.392868428834958,6.487801725869018],[3.3933580593269994,6.487234587306431],[3.3934496255997715,6.4868209351381],[3.3932501316882626,6.486300283431375],[3.39329575519497,6.485886666336626],[3.393785061031792,6.484905944853496],[3.393739022038289,6.484783438305098],[3.392967428903774,6.48330727041423],[3.3926801332816012,6.483116019688623],[3.392029206682594,6.483039934345527],[3.3913774401167984,6.481872451552419],[3.3913962584306314,6.481451197414851],[3.390993914337742,6.481011118668221],[3.390630284260284,6.481126283151468],[3.390687447867493,6.480781588299694],[3.3901503979225827,6.479422541816916],[3.389767243563483,6.479039891078173],[3.3898706566055807,6.478622527407763],[3.388905275757906,6.477872694269479],[3.388169514311699,6.476992480118896],[3.387871088679845,6.477260771267649],[3.387748468816824,6.477123004123368],[3.387794359422173,6.477054037813617],[3.3879932471906504,6.476793482633186],[3.3878706965754195,6.476747622604763],[3.387748311435473,6.476916213112811],[3.3876334770034195,6.476946935752548],[3.3876640179801143,6.476832029374691],[3.387518472599482,6.476755551027906],[3.3873959876347612,6.476793938589421],[3.387304293658247,6.477046754204368],[3.387189418756691,6.477023863760337],[3.387135707646849,6.47687838582891],[3.3871661793757544,6.476671572335249],[3.3870129888583738,6.47661041663747],[3.3867986183615812,6.4766488752454165],[3.3866530972626947,6.476603032304125],[3.386675940042664,6.476434518238477],[3.3865686985866432,6.476380987892296],[3.386515006362515,6.476258485840502],[3.3862164233493104,6.476319984179953],[3.3861320201766607,6.476090281141637],[3.3857949587703615,6.475899063690861],[3.3856569622990382,6.475677059748534],[3.385526667621661,6.475516321221279],[3.3852585869142904,6.475409300099156],[3.38515907872852,6.475455329200142],[3.38505273299728,6.475319224003043],[3.384832568168519,6.475290669628749],[3.384631459074627,6.475147216970527],[3.3843345416058805,6.474879379979427],[3.384267346960542,6.474620941803096],[3.384362764130287,6.474228349059102],[3.384649746788455,6.474017511998625],[3.3846783668132043,6.473893032337627],[3.3847259265602934,6.473500475566541],[3.384840493893705,6.473117442615944],[3.384935222182832,6.471815353795591],[3.384829791961352,6.471623960977069],[3.384647609999263,6.471193283743105],[3.384676186856609,6.471011362584363],[3.384819510012449,6.470685750447047],[3.383976617726774,6.469872625721166],[3.3839570628682054,6.469326942284624],[3.383688957879144,6.469183539988423],[3.3838323538800528,6.468953663380887],[3.383382048043132,6.468350863101874],[3.3831138126523683,6.468035133614594],[3.3825298064055005,6.4678249530591625],[3.3822521811932806,6.467748571839198],[3.3819745200081575,6.467624323303937],[3.381802315124787,6.467729763417878],[3.3813043775949723,6.467423778984255],[3.3809691831813207,6.4671559680735395],[3.3807678780352144,6.46674445089576],[3.3809112173788094,6.466437986224153],[3.3806813056977494,6.466170096173071],[3.3804133472982016,6.466218164936434],[3.380193043074542,6.465998135005975],[3.379361278100532,6.466226934225685],[3.381493660604008,6.46354471341783],[3.3815730473583017,6.462282436685143],[3.381946435079954,6.46243150560957],[3.3823477944152387,6.462439820741165],[3.3824436072866884,6.462573780155878],[3.3830897809686458,6.462731260439339],[3.3833243331515064,6.462807672236352],[3.3841668657083237,6.463161262282483],[3.384832321754288,6.463500625053825],[3.3853398235740424,6.463801810705036],[3.385794660195472,6.4640695289856485],[3.386067581054079,6.464256007908487],[3.3861280316833704,6.464287555226518],[3.3867026508067397,6.464741868442501],[3.3874973942893694,6.465176865120266],[3.3882393988292283,6.465482656199694],[3.388899949972768,6.465659264163778],[3.3898811283114583,6.465821265339171],[3.3903453772373946,6.465878350705396],[3.390795247802487,6.465906726114554],[3.391455653255832,6.465891857623204],[3.39207776557646,6.465867444626893],[3.39239139604615,6.46534456080286],[3.3927928776892027,6.464683668816289],[3.393074001264211,6.464333057324778],[3.393360845426741,6.463953717889807],[3.393693607174271,6.463545622632409],[3.3939288896066273,6.4633271620189685],[3.39405788566296,6.463172607230092],[3.3945858362673675,6.462682027053972],[3.3951099683504253,6.462206766828898],[3.39635340698419,6.461160357964218],[3.3965982860821105,6.460976353076261],[3.3973750206407662,6.460408986985213],[3.397794866439995,6.4601237948772905],[3.39868933304632,6.459567824095869],[3.3987212212074382,6.459547853750507],[3.3992732187840606,6.459255916727216],[3.3994685479352147,6.459152048628195],[3.399707737921801,6.459040169368392],[3.399984829836058,6.458948203796638],[3.400026699572549,6.458944182028404],[3.4002930967490665,6.458852616655007],[3.4009071160705844,6.4586905786073885],[3.401403537343413,6.458588467783613],[3.4020494951881237,6.458472277173883],[3.4028530070606853,6.4583938562914796],[3.4037123776241742,6.458351289580376],[3.4041127737855277,6.458433403978461],[3.4040900218370784,6.458709143312376],[3.403998303578874,6.458916007168057],[3.4039755938985645,6.459245357787097],[3.403876442743694,6.4597356070127026],[3.403823481668383,6.460539834745646],[3.403747277614798,6.460999429679987],[3.403747557303973,6.461351739990846],[3.4040769807680813,6.461573586551822],[3.405064742144191,6.4615957791219785],[3.4051490778676903,6.46173357234653],[3.4053174822161054,6.461672166637243],[3.405370999971695,6.461572558626753],[3.4055777675999366,6.461610688082828],[3.405677387301637,6.4617101746848675],[3.4058074688396696,6.461602845994607],[3.405952944073135,6.461595071355531],[3.4060755891171657,6.461763470307972],[3.406198209879505,6.461901232056278],[3.406198314200878,6.4620314341034355],[3.4064050521514555,6.462031268628209],[3.406496806382563,6.4618703583304296],[3.406718729385887,6.461709343711275],[3.4067569092040344,6.461579111087133],[3.407476677107013,6.461601512299977],[3.4076145755522593,6.4616933087992265],[3.4086252894256286,6.461692499409367],[3.408931522971443,6.461638639911371],[3.4090922390156497,6.461538944666586],[3.409314393144768,6.461668968648044],[3.4094829386867214,6.461783715845854],[3.4097356841545547,6.4618677601890235],[3.4098201385886,6.46215107271388],[3.4100040103768383,6.462281124574304],[3.41014160035462,6.461989976256461],[3.410172042405861,6.461760185084528],[3.4103865217206257,6.461867235884255],[3.4104019909591448,6.46205869615193],[3.410562933632548,6.462242380881207],[3.4108461912987313,6.462180879843799],[3.4108612954124737,6.461920465856852],[3.4108994185733645,6.461721302895853],[3.411075434783527,6.461606277807504],[3.4113664347132158,6.461651995743068],[3.4113053338741106,6.461843518063974],[3.4118644747657636,6.462072832595196],[3.4126151271864273,6.4624092168119756],[3.413021105439725,6.462608019144796],[3.413404188752338,6.462898746579924],[3.413281838685976,6.463097976990069],[3.4135040575662288,6.463304587236962],[3.4137491857763393,6.46343458963463],[3.4139022000265413,6.463281286702056],[3.414109080070034,6.463457274133929],[3.414185774254122,6.463610389108225],[3.414415440420271,6.463556588965448],[3.414514942310802,6.463510555367861],[3.4148978952217135,6.463640443551695],[3.4154186053843887,6.463685972629605],[3.4155103200452577,6.463479107874603],[3.415793657751181,6.463517170780846],[3.416253073720441,6.463516794864232],[3.416643696949109,6.463661994005861],[3.4169196098521866,6.463983443181405],[3.417402293081409,6.464343014618465],[3.417601411076305,6.464388805399097],[3.4177546888278703,6.464557174673928],[3.41841348269611,6.464916602219488],[3.41883498684524,6.4653681293357295],[3.419447835249457,6.465719934227648],[3.4199455245663444,6.465704205984368],[3.420206122014975,6.466018006425883],[3.420444526893448,6.466347953295442],[3.4204678930788655,6.466425931711454],[3.4206158702262996,6.466814653773327],[3.420639059245218,6.4670788673958555],[3.4213976427870416,6.467733074721651],[3.4221100110681846,6.468054157873154],[3.4226611812685523,6.467892862665508],[3.4230056216122193,6.467743228067548],[3.4234077768474545,6.467938194791883],[3.4258882401501864,6.467453613993146],[3.4258654998929496,6.467729353327058],[3.426290452942112,6.467717508356372],[3.426577678417175,6.467820662393704],[3.427312527051527,6.467555813849797],[3.42727784020019,6.46728012307926],[3.428161523935216,6.466452218894858],[3.4291139167738725,6.465383002323733],[3.430399575879789,6.464543267557813],[3.4314104003697135,6.46466878323781],[3.4322260683783843,6.464909345589888],[3.434947493332175,6.4641832617481905],[3.4355443311060294,6.463711730112322],[3.4360956290101394,6.4637112579682094],[3.4361879749951076,6.464251129985712],[3.4367860934035543,6.465273078190078],[3.4383923689127305,6.46331868231141],[3.4392774367044012,6.464122099755174],[3.4400019197528304,6.465166912323183],[3.4405192412700103,6.465717902659152],[3.4416446223015105,6.465498648843608],[3.4420349874247904,6.465337473245827],[3.4423681637597956,6.465452066659623],[3.444285816037621,6.4649793748982916],[3.4446184608733,6.464485086817377],[3.4446755768164503,6.464128898629837],[3.4462259423734167,6.463943729119875],[3.446180343148342,6.464334372133631],[3.44581304203831,6.464598923901291],[3.4454571362379056,6.464760073418688],[3.444515825744816,6.4653238233358366],[3.4439649262404255,6.465783837354251],[3.4437011829632524,6.466266576341466],[3.4442758452540834,6.466714117662434],[3.4442188093506156,6.467162212066457],[3.44426500212819,6.46744937998494],[3.4445181244119563,6.467954644291467],[3.4447712655814935,6.468482885376886],[3.445299908663912,6.468838560051552],[3.4457133458942626,6.468792244066831],[3.4458972149845413,6.4689069660836935],[3.4461498354465903,6.468837815412881],[3.4474359370189522,6.468526499798202],[3.448561280278909,6.468261277136263],[3.4495486036851726,6.4677778969324295],[3.4508463280956225,6.467627399884633],[3.452856015192993,6.467326918402587],[3.455393783296529,6.466750238033116],[3.4572999809094536,6.466323461158879],[3.4583907731157524,6.465966342172978],[3.4590223669886773,6.465850889906676],[3.4593551835948797,6.465563382943799],[3.4602394240102394,6.465413234832964],[3.460353996739627,6.465102947143352],[3.4607902956356615,6.464941716686951],[3.4610424430543385,6.464355586241368],[3.461547194747311,6.4636888072926695],[3.461501035244624,6.4634475956301],[3.461833629718285,6.462918832937814],[3.462682281262346,6.461527980132247],[3.462796872877448,6.461240669221579],[3.4632564408321396,6.461412573731364],[3.4659081233612596,6.461007912085506],[3.4693762940807464,6.4605911482629494],[3.4715362542947337,6.46137801278513],[3.473817496180573,6.46083977573511],[3.4756470355822557,6.46036322138559],[3.4778170448208243,6.4636927840947465],[3.478621399358133,6.464097946662946],[3.4791194789808064,6.464503396114878],[3.479127524315856,6.464916966444887],[3.479587889969196,6.465927497755843],[3.4807535930039535,6.467887059340339],[3.4826775702137525,6.470083320688728],[3.4868935083288184,6.466893229339119],[3.4866175081915003,6.4665258688738145],[3.486371915931215,6.465928715437938],[3.4858811361056046,6.465155642918658],[3.4831512629205013,6.460922909065061],[3.479509236162357,6.46371416907368],[3.478230191570106,6.46334774839994],[3.477801034190407,6.462949891924036],[3.4772796989989843,6.462238109101519],[3.4768423982581,6.461319457926661],[3.476344136972387,6.46071487699004],[3.4762748253230034,6.460286046064198],[3.482007909837194,6.4582970118976295],[3.483506678590402,6.456227706043817],[3.4848453077647723,6.454855501580198],[3.4847528799414818,6.45428117833376],[3.484675970819467,6.453921285838702],[3.485258173026295,6.454227085012008],[3.4857486192034344,6.454663170768752],[3.4861626086175197,6.455214213265378],[3.4861710766339233,6.456064334301628],[3.4861034080458926,6.457366400638932],[3.486333300841181,6.457565309991137],[3.486493910765432,6.45737368604682],[3.4866390676389187,6.45703655899007],[3.486967634948429,6.456331632598791],[3.487640594038226,6.455457881875816],[3.48859684316983,6.454576200930998],[3.4898058854333276,6.453824474719795],[3.489422599773206,6.4533576546321],[3.488924562418675,6.4529905091047794],[3.4883960290535474,6.452761251230809],[3.4878907170829616,6.45279237137089],[3.4875382152164893,6.452486353662326],[3.4874536258841995,6.452103494280889],[3.4875374391015725,6.451674518564232],[3.4878357496202166,6.451360221696914],[3.488226108448203,6.451221988703876],[3.4890982206064223,6.450439952641773],[3.4902455127202647,6.449182802944049],[3.490643157855516,6.448661619738002],[3.490780321554666,6.447979851788773],[3.4906340953872355,6.4471987923903935],[3.491154605001044,6.447052773067069],[3.4919049750346285,6.44707502679108],[3.492816489189693,6.447464747100471],[3.4933913574252524,6.448107533036248],[3.4919687531555046,6.449694284263839],[3.4918022625644194,6.451724033437413],[3.4917509337586243,6.45407534330252],[3.491858852404164,6.454825803268248],[3.491637332297102,6.455369794180686],[3.4917832311112984,6.455806206391343],[3.4917837698051812,6.456365299618935],[3.491975462097969,6.456648490735289],[3.4924885316204946,6.456716924646399],[3.4934375987662065,6.456333065218814],[3.494164649379115,6.455980055235386],[3.494853673058629,6.455895139449181],[3.495159718646164,6.455665076682011],[3.4953049141905126,6.455373901384463],[3.494967936421176,6.455289981147756],[3.4944855328810718,6.455259814289035],[3.4945236155724615,6.455052989104217],[3.4947301250952596,6.4548230243631215],[3.495166483346565,6.454746011819054],[3.495649020885651,6.45491403665352],[3.4960780577562223,6.455181676693087],[3.4966676487929926,6.455204079704572],[3.498114261364094,6.454681867674082],[3.4981981708089616,6.454360115427049],[3.4994391740786455,6.45498692310804],[3.5017976470438152,6.4551913938677785],[3.5027317737524304,6.455198131588531],[3.5031065761076543,6.454814820747401],[3.5035352838263516,6.454745467729195],[3.5044688880287818,6.4542237458292675],[3.5046298981513355,6.454445693114281],[3.50528164493204,6.45537942142323],[3.5059327316103004,6.455646833034959],[3.5068141463557945,6.456542037984714],[3.5074033488854757,6.456173827660052],[3.5090518070952617,6.457669863373553],[3.5092525213868275,6.459308645777413],[3.5093941727029683,6.463137905989638],[3.5100384829896707,6.464270763085324],[3.5102998763382516,6.465327416127421],[3.510285159832335,6.46592481687685],[3.5114041259996616,6.466980606569791],[3.5127995788375297,6.468863266226775],[3.5144838210715075,6.468585848757982],[3.5180671751600694,6.468505622036901],[3.519260526052505,6.467401538750036],[3.520882734850375,6.4663736019601865],[3.522076342049615,6.465529911975921],[3.5223666890714758,6.464932227940039],[3.5218296256367694,6.463875867177592],[3.5212162493305077,6.463064664302864],[3.5199749061170564,6.462146880074497],[3.5186274635865975,6.462301430366777],[3.5178312497124575,6.462394145973122],[3.517570512868929,6.461996153699602],[3.517600673432355,6.461536595637425],[3.518626683874402,6.461535552423866],[3.520908503124985,6.461625126698268],[3.5215065486883073,6.462421027608398],[3.5225797276723374,6.463614698659454],[3.5230860073134527,6.464517914769999],[3.523668604322665,6.465175971194182],[3.5248928145517766,6.464316926185234],[3.5256123198527125,6.4640864191529745],[3.5263315859339746,6.463626148827756],[3.527142892230756,6.463318958403249],[3.528152034089146,6.461816790212765],[3.5311522650650313,6.460634216795708],[3.5340461691953915,6.460294202915181],[3.533005490810808,6.460907994708236],[3.532118010138106,6.461582896333653],[3.5316900137831344,6.4623339030872],[3.5312787214359105,6.464417519852705],[3.5314634116072052,6.465305746063392],[3.5338086861220286,6.467478381322279],[3.534575001135465,6.468074960091371],[3.5382977969058516,6.469541516028188],[3.5434274390251512,6.469091851407882],[3.550563629607893,6.469068854843841],[3.550915349064155,6.4686089478447],[3.5515880401559907,6.467078407842277],[3.5525994420107168,6.467720646090981],[3.553610978763686,6.46848541966642],[3.558546417683089,6.472508519752409],[3.5623935591154923,6.475552453283115],[3.5654898313906633,6.47812234786812],[3.566731852692897,6.479545486335155],[3.571040430871222,6.484289064788584],[3.574950198392969,6.48891963623225],[3.576668916137635,6.492011802202967],[3.5795063653265515,6.495761331220535],[3.5797553066620935,6.4991768277484425],[3.5788387104381627,6.501169140843215],[3.5777822966157373,6.501430743733863],[3.5742621172029767,6.503364746585814],[3.5743413519718383,6.505708223355896],[3.573027682581539,6.508711928412824],[3.5727555036635863,6.511791038026048],[3.5783467641918496,6.512918154749116],[3.586925040158519,6.514531900926556],[3.5911218011302704,6.514909939941845],[3.5959312567221673,6.515363806194728],[3.60117039399853,6.516537030259769],[3.6037124149959823,6.516304235352209],[3.6067444945628044,6.516055524243086],[3.6161905938208743,6.513378871138057],[3.62402721508397,6.508602286666244],[3.626957527368063,6.5053162160705815],[3.628993999873216,6.498905954646145],[3.6289776403058913,6.4980635264106485],[3.6284550298757945,6.496517129561935],[3.627152076806965,6.495523123293534],[3.6253594311928627,6.494820744681649],[3.621881576573571,6.493599644308176],[3.619858647858335,6.4924226907546085],[3.619122384590412,6.49145860133342],[3.6188605838489143,6.490264172153843],[3.618966363007303,6.489099926920119],[3.618968568144964,6.48860403894531],[3.6202096631454883,6.4882273138394995],[3.6215246653310946,6.487419734333341],[3.624985818640653,6.486720353161842],[3.630620325767495,6.485855609149098],[3.632104190056396,6.484960174872241],[3.639943676559483,6.480210634812974],[3.642959591711815,6.482231418645085],[3.644360557393838,6.485044183242506],[3.6449374841776034,6.487130423330429],[3.646528508983579,6.488851585432371],[3.6484634291439875,6.490036197612481],[3.6515289787793677,6.492157529246638],[3.654317411319539,6.493403397848566],[3.656900809225021,6.492729927044534],[3.65905485999383,6.493110057882914],[3.6614397343562914,6.4924632276958505],[3.664185690117563,6.492686878296865],[3.665477003261117,6.492141579770133],[3.667007243789328,6.491511750367012],[3.6700297123014147,6.488725090390631],[3.6734415926554225,6.482332138217657],[3.6738035751749294,6.478150074866107],[3.6734458590391914,6.473999601100786],[3.665655201226628,6.467893252071972],[3.6524564271224444,6.454886981449078],[3.649282491194072,6.45085136819614],[3.6456028835662555,6.447294779730329],[3.642478942749051,6.444158684575654],[3.630498591736682,6.430177440036855],[3.6289801458171396,6.425009716125542],[3.628235537739897,6.421851465272939],[3.627821542929894,6.42189828397869],[3.616250207181337,6.4217301871984205],[3.6030242159948207,6.421650198797692],[3.5962294341410943,6.421658155099804],[3.5887644694047935,6.421437030694449],[3.576093449852863,6.421317414567055],[3.5709062547199433,6.4211700480593095],[3.5630392642506763,6.420891555001332],[3.56001488198126,6.420703402440097],[3.550320231693376,6.420551458383156],[3.5434446862233244,6.420252448192005],[3.5240892873907232,6.419659914573455],[3.5199212291814206,6.419482073638843],[3.5171075014101234,6.419398761343812],[3.5087431786548113,6.419455004045232],[3.502211262339927,6.4195454398702045],[3.4974739746442642,6.419530915819167],[3.4966509160070127,6.4195125678508],[3.491797652639605,6.4183205560488545],[3.4848024199957313,6.418968651582075],[3.4818263600984665,6.419277814219811],[3.477336454313957,6.417721525727871],[3.4712973421986253,6.417411187676237],[3.467794528694583,6.417299515260481],[3.460916052333971,6.420120381850213],[3.4579681151364525,6.419807097619528],[3.45724359701444,6.419728772065243],[3.4534062509977157,6.419288331791108],[3.4486397641138637,6.418746832900069],[3.446652939581554,6.4187141038728415],[3.4429492193310693,6.418700087039441],[3.4399517456765802,6.418639484424716],[3.4395042151474517,6.4190591917283655],[3.437392741881581,6.420996784673945],[3.4346946867104866,6.421923893972574],[3.4339656189182506,6.4221542786970645],[3.433586723748362,6.422263739679863],[3.430424059023153,6.423817334702278],[3.430112604013516,6.422180505625873],[3.428616806620368,6.421712876148378],[3.4266542979575547,6.421015639859943],[3.4239607726715917,6.420244377675941],[3.4216404399543876,6.419664216930131],[3.418676909411886,6.418992662581384],[3.4159737047227163,6.41832854022999],[3.413224463738061,6.417534237415168],[3.4122857037223184,6.417237808278287],[3.4101835330436647,6.416576998129985],[3.408751440027004,6.416107119448043],[3.407582917617617,6.414917087053991],[3.405199896757892,6.4124681189086346],[3.4046175983235685,6.411924796192466],[3.403799953605016,6.409049511625709],[3.4027443788500595,6.405408519987246],[3.401935285784873,6.402505922110663],[3.401715577811728,6.401717720296629],[3.401726338199978,6.400790982417958],[3.401716955573079,6.3985813859222835],[3.3770915070674614,6.39804402301331],[3.359591686607075,6.397662151986765],[3.3544554686450287,6.424548690369814],[3.3542750727364705,6.4247115872699965],[3.3425277189791136,6.42755361760544],[3.3320508743483974,6.4298963011734145],[3.33188235308819,6.434203631092772],[3.331724600310111,6.437407102555768],[3.331973490384314,6.43748233444222],[3.334546242115437,6.437675960277377],[3.334649704620233,6.437825242341089],[3.334879282652821,6.437641276124049],[3.3356258557486744,6.437721205169511],[3.335901744370062,6.438100144406178],[3.336498885215406,6.437984865709041],[3.336820396444182,6.43788125841337],[3.3370500716035854,6.43784664080988],[3.337079658399546,6.438062606703966],[3.3376757488367734,6.437980634398798],[3.3385990108357073,6.437887128288365],[3.339398394820137,6.437835886716869],[3.3399555625991866,6.438059540915106],[3.3409546338493215,6.437880804255768],[3.341885319751725,6.437582145699536],[3.3438106252601756,6.436847800685484],[3.3450737581474637,6.436540591375262],[3.3477248354328712,6.436510071982298],[3.348471502957523,6.43672975927103],[3.349059825050915,6.436973870347913],[3.34906026571872,6.437199610973323],[3.34900584864107,6.43766519359383]]]}}]}