{"type":"FeatureCollection","features":[{"type":"Feature","properties":{"name":"Ijora","label":"Ijora","place":"suburb","rank":10,"pinned":1,"priority":10,"always":0},"geometry":{"type":"Point","coordinates":[3.36782,6.4667]}},{"type":"Feature","properties":{"name":"Mushin","label":"Mushin","place":"suburb","rank":10,"pinned":1,"priority":10,"always":0},"geometry":{"type":"Point","coordinates":[3.35043,6.52889]}},{"type":"Feature","properties":{"name":"Yaba","label":"Yaba","place":"suburb","rank":10,"pinned":1,"priority":10,"always":0},"geometry":{"type":"Point","coordinates":[3.37545,6.50646]}},{"type":"Feature","properties":{"name":"Obalende","label":"Obalende","place":"suburb","rank":10,"pinned":1,"priority":10,"always":0},"geometry":{"type":"Point","coordinates":[3.41289,6.44618]}},{"type":"Feature","properties":{"name":"Abraham Adesanya","label":"Adesanya","place":"suburb","rank":10,"pinned":1,"priority":10,"always":1},"geometry":{"type":"Point","coordinates":[3.37814,6.42238]}},{"type":"Feature","properties":{"name":"Harvey","label":"Harvey","place":"ward","rank":10,"pinned":1,"priority":10,"always":0},"geometry":{"type":"Point","coordinates":[3.37312,6.51554]}},{"type":"Feature","properties":{"name":"Ilaje","label":"Ilaje","place":"ward","rank":10,"pinned":1,"priority":10,"always":0},"geometry":{"type":"Point","coordinates":[3.39712,6.53455]}},{"type":"Feature","properties":{"name":"Adeniran Ogunsanya","label":"Adeniran Ogunsanya","place":"ward","rank":10,"pinned":1,"priority":10,"always":0},"geometry":{"type":"Point","coordinates":[3.35505,6.49432]}},{"type":"Feature","properties":{"name":"Abule Oja","label":"Abule Oja","place":"ward","rank":10,"pinned":1,"priority":10,"always":0},"geometry":{"type":"Point","coordinates":[3.38527,6.52068]}},{"type":"Feature","properties":{"name":"Apelehin","label":"Apelehin","place":"ward","rank":10,"pinned":1,"priority":10,"always":0},"geometry":{"type":"Point","coordinates":[3.3875,6.54432]}},{"type":"Feature","properties":{"name":"Ilupeju Industrial","label":"Ilupeju Industrial","place":"ward","rank":10,"pinned":1,"priority":10,"always":0},"geometry":{"type":"Point","coordinates":[3.35974,6.55206]}},{"type":"Feature","properties":{"name":"Ajiran\u2013Osapa","label":"Ajiran\u2013Osapa","place":"ward","rank":10,"pinned":1,"priority":10,"always":0},"geometry":{"type":"Point","coordinates":[3.51583,6.44262]}},{"type":"Feature","properties":{"name":"Babatunde Ayilara","label":"Babatunde Ayilara","place":"ward","rank":10,"pinned":1,"priority":10,"always":0},"geometry":{"type":"Point","coordinates":[3.35445,6.5084]}},{"type":"Feature","properties":{"name":"Igbo-Efon\u2013Maiyegun","label":"Igbo\u2011Efon\u2013Maiyegun","place":"ward","rank":10,"pinned":1,"priority":10,"always":0},"geometry":{"type":"Point","coordinates":[3.54688,6.43254]}},{"type":"Feature","properties":{"name":"Okun Ajah\u2013Okunmopo","label":"Okun Ajah","place":"ward","rank":10,"pinned":1,"priority":10,"always":0},"geometry":{"type":"Point","coordinates":[3.60692,6.44011]}},{"type":"Feature","properties":{"name":"Ikoyi 1","label":"Ikoyi 1","place":"ward","rank":10,"pinned":1,"priority":10,"always":0},"geometry":{"type":"Point","coordinates":[3.44216,6.45977]}},{"type":"Feature","properties":{"name":"Ilasan\u2013Orile","label":"Ilasan\u2013Orile","place":"ward","rank":10,"pinned":1,"priority":10,"always":0},"geometry":{"type":"Point","coordinates":[3.4826,6.42496]}},{"type":"Feature","properties":{"name":"Addo\u2013Okeira","label":"Addo\u2013Okeira","place":"ward","rank":10,"pinned":1,"priority":10,"always":0},"geometry":{"type":"Point","coordinates":[3.60563,6.49065]}},{"type":"Feature","properties":{"name":"Anjorin","label":"Anjorin","place":"ward","rank":10,"pinned":1,"priority":10,"always":0},"geometry":{"type":"Point","coordinates":[3.37791,6.45254]}},{"type":"Feature","properties":{"name":"Bariga","label":"Bariga","place":"neighbourhood","rank":8,"pinned":1,"priority":10,"always":0},"geometry":{"type":"Point","coordinates":[3.38544,6.53451]}},{"type":"Feature","properties":{"name":"Lekki","label":"Lekki","place":"locality","rank":8,"pinned":1,"priority":10,"always":0},"geometry":{"type":"Point","coordinates":[3.46707,6.44301]}},{"type":"Feature","properties":{"name":"Shomolu","label":"Shomolu","place":"locality","rank":8,"pinned":1,"priority":10,"always":0},"geometry":{"type":"Point","coordinates":[3.3824,6.53853]}},{"type":"Feature","properties":{"name":"Tarkwa Bay","label":"Tarkwa Bay","place":"locality","rank":8,"pinned":1,"priority":10,"always":1},"geometry":{"type":"Point","coordinates":[3.40028,6.41237]}},{"type":"Feature","properties":{"name":"Eko Atlantic","label":"Eko Atlantic","place":"locality","rank":8,"pinned":1,"priority":10,"always":1},"geometry":{"type":"Point","coordinates":[3.415,6.42]}},{"type":"Feature","properties":{"name":"Ilado","label":"Ilado","place":"locality","rank":8,"pinned":1,"priority":10,"always":1},"geometry":{"type":"Point","coordinates":[3.36235,6.41802]}},{"type":"Feature","properties":{"name":"Oko Agbo","label":"Oko Agbo","place":"locality","rank":8,"pinned":1,"priority":10,"always":1},"geometry":{"type":"Point","coordinates":[3.38109,6.40882]}},{"type":"Feature","properties":{"name":"Sangotedo","label":"Sangotedo","place":"town","rank":5,"pinned":1,"priority":10,"always":0},"geometry":{"type":"Point","coordinates":[3.5856,6.4684]}},{"type":"Feature","properties":{"name":"Falomo","label":"Falomo","place":"village","rank":5,"pinned":1,"priority":10,"always":0},"geometry":{"type":"Point","coordinates":[3.43586,6.44074]}},{"type":"Feature","properties":{"name":"Victoria Island","label":"Victoria Island","place":"town","rank":5,"pinned":1,"priority":10,"always":0},"geometry":{"type":"Point","coordinates":[3.41706,6.44075]}},{"type":"Feature","properties":{"name":"Ajah","label":"Ajah","place":"town","rank":5,"pinned":1,"priority":10,"always":0},"geometry":{"type":"Point","coordinates":[3.5663,6.4686]}},{"type":"Feature","properties":{"name":"Surulere","label":"Surulere","place":"town","rank":5,"pinned":1,"priority":10,"always":0},"geometry":{"type":"Point","coordinates":[3.3471,6.49536]}},{"type":"Feature","properties":{"name":"Gbagada","label":"Gbagada","place":"town","rank":5,"pinned":1,"priority":10,"always":0},"geometry":{"type":"Point","coordinates":[3.37226,6.54819]}},{"type":"Feature","properties":{"name":"Ikoyi","label":"Ikoyi","place":"town","rank":5,"pinned":1,"priority":10,"always":0},"geometry":{"type":"Point","coordinates":[3.41863,6.44502]}},{"type":"Feature","properties":{"name":"Apapa","label":"Apapa","place":"town","rank":5,"pinned":1,"priority":10,"always":1},"geometry":{"type":"Point","coordinates":[3.3612,6.45445]}},{"type":"Feature","properties":{"name":"Lagos Island","label":"Lagos Island","place":"town","rank":5,"pinned":1,"priority":10,"always":0},"geometry":{"type":"Point","coordinates":[3.39445,6.45425]}},{"type":"Feature","properties":{"name":"Ikeja","label":"Ikeja","place":"city","rank":1,"pinned":1,"priority":10,"always":0},"geometry":{"type":"Point","coordinates":[3.3635,6.55817]}}]}