{"type":"FeatureCollection","features":[{"type":"Feature","properties":{"name":"Kano"},"geometry":{"type":"Polygon","coordinates":[[[8.475277316994607,11.878876393430852],[8.474144581307428,11.879523668782321],[8.473073572387477,11.879370668021977],[8.471749226245834,11.879120741029393],[8.470330204875097,11.878780282883781],[8.469480838370032,11.878476705935267],[8.468457669785664,11.878381527985194],[8.467029993339565,11.877810456687257],[8.465459548619322,11.877810456687254],[8.463460801774659,11.878524295359968],[8.46275886922649,11.878902260630866],[8.461604822304764,11.879523668782323],[8.460850757856237,11.880512548015702],[8.460304249741398,11.881366147629652],[8.459891610209695,11.881950720449426],[8.458321164590132,11.882664557323494],[8.456179651269963,11.88280732469832],[8.454466439174894,11.882093486924925],[8.45332429657907,11.882950092972466],[8.453181530103564,11.88452053679339],[8.453467065752534,11.886233749787781],[8.45332429657907,11.887946960983527],[8.452039389306435,11.88923187095412],[8.44989787418757,11.89023124257784],[8.448206656811806,11.89030477474563],[8.446614217372257,11.89037401085199],[8.445067818724908,11.890283440128709],[8.443649115714152,11.89009689285734],[8.442343166104308,11.88984707738075],[8.440760743313717,11.889517404804447],[8.438333693445259,11.888803567031056],[8.436445395938335,11.887605662871065],[8.435358351207014,11.886948977913047],[8.434917660022052,11.886210053551164],[8.434050664106906,11.88452053679339],[8.433575517196402,11.884043753116767],[8.433051289785226,11.883235627722112],[8.431338077690159,11.88323562772211],[8.430097579839469,11.883831483436266],[8.428246179717462,11.885328401384637],[8.426626745328065,11.886662051912193],[8.425147154617548,11.888043004081393],[8.424592322377805,11.889637353680993],[8.42448946241882,11.891007047237508],[8.424132943280767,11.892402519860466],[8.423211934083554,11.893158398241557],[8.422290924886342,11.894030562560486],[8.421607595714022,11.894844581212507],[8.420716297419233,11.89580395458887],[8.419973547341385,11.89711218937606],[8.419141758985063,11.89846241890558],[8.418533887429021,11.89989656597379],[8.416940359809814,11.902226103252133],[8.416347473657027,11.902937565016657],[8.413583570125695,11.904255754399571],[8.411358102394559,11.905005613618245],[8.41027533393958,11.90519016169668],[8.410178098340623,11.905225192089006],[8.410117005595396,11.90524575598692],[8.410006604820978,11.905286983607485],[8.4099742193348,11.905298651411671],[8.409898718551062,11.905325843313047],[8.409815708428255,11.905355815918195],[8.40977296994663,11.905371146661139],[8.409761107888869,11.905375421138842],[8.409747956203262,11.905380004083947],[8.40973727315668,11.905383741666414],[8.409724974028393,11.905387973875918],[8.409504148197925,11.905463915327456],[8.409229365742704,11.905557324311129],[8.409076729207754,11.905610902321316],[8.408513872317428,11.90580446790193],[8.4067805037173,11.905706529932443],[8.406065277390667,11.906935502071798],[8.404952544424418,11.908212739026737],[8.403807319851978,11.910249544281097],[8.40443122901803,11.912284461858459],[8.405638932191039,11.914814731414761],[8.40508949858156,11.91817126838936],[8.40484261489479,11.919736339660403],[8.40472391427727,11.920743826766223],[8.404451111229832,11.922972373776076],[8.404430737088887,11.923166020295637],[8.404929245688209,11.92489716217432],[8.404960959380844,11.926183912157853],[8.40499028897068,11.926638326097933],[8.405062133111016,11.927751438578067],[8.405033962747211,11.928997211851875],[8.404515234690393,11.930841401209763],[8.403312458003597,11.935117507566986],[8.402877681659731,11.9366632056425],[8.401787325624639,11.940539550759697],[8.402856982863511,11.947493617836246],[8.402848075978,11.947535030717116],[8.402824884261065,11.947621344049818],[8.402748093849482,11.947928994027905],[8.40097596536856,11.954502345706715],[8.400964525092832,11.95844871023985],[8.405457619873289,11.9576702435869],[8.405501711834575,11.957662604745451],[8.407549933082976,11.959578172394796],[8.408267217058494,11.960232815891803],[8.410544364330974,11.962311100576866],[8.411242793120437,11.965031815965574],[8.41191939086724,11.966465661760939],[8.411806750780954,11.967954627004474],[8.412890003970574,11.970971402808066],[8.414343904647524,11.974020561399811],[8.415468227176973,11.974929169845383],[8.416317026209867,11.975619660319126],[8.4171064034378,11.978928258932054],[8.416204537209694,11.98146496133893],[8.41440064737202,11.986483375307552],[8.413394529034349,11.994047599117433],[8.409921811342542,11.999321184025462],[8.406970720222603,12.00474711588674],[8.402296654866802,12.005506766923816],[8.402270085296266,12.005906427439696],[8.402041656597248,12.006431812278379],[8.40185891525681,12.006797296757892],[8.401995971936628,12.007231311375957],[8.402258663906252,12.007631060025458],[8.402498513995283,12.00819070993339],[8.402475671215313,12.00867040921207],[8.402226302701763,12.009550174600916],[8.40274026704975,12.011025441371087],[8.401527879308219,12.011417785002834],[8.40010572829675,12.01167328869138],[8.397836674023324,12.01162760313144],[8.396070161808552,12.011307804211862],[8.393768567365555,12.011395666177117],[8.393457261643334,12.012553921026665],[8.38961328582451,12.016354597186933],[8.388329814769179,12.01907450228651],[8.387695256730751,12.022203651077685],[8.392202290103626,12.021696964043713],[8.39776461494506,12.019721767745407],[8.398270048324093,12.020351635819392],[8.398136946862678,12.020853765988534],[8.397946803202444,12.021207116815049],[8.397160299308439,12.021196956274538],[8.39695805527009,12.021690649903633],[8.397167214195633,12.022322958737618],[8.397604543714749,12.022787891148312],[8.398631008314453,12.022831962425181],[8.398022860666515,12.023401601103041],[8.398232018692738,12.023643365848727],[8.399486967749397,12.0238665317151],[8.399692309952172,12.02423444526346],[8.399604143116733,12.025661218790276],[8.399429924651372,12.027306996121007],[8.399867255069807,12.027269801959847],[8.400652519698099,12.026981452332226],[8.400856003002161,12.027492966027634],[8.40166387029143,12.029159463738319],[8.402377153183124,12.02957581836938],[8.403080684725865,12.029334059918995],[8.403230200613336,12.029893692739789],[8.40309969999123,12.030654432855837],[8.402770049897924,12.03163161820464],[8.402520649008808,12.032669326128541],[8.402776454869526,12.032923226325861],[8.40327003608337,12.033003226417804],[8.403905116627868,12.03346764171834],[8.404453167080021,12.033158683226702],[8.405402498626472,12.03299342830411],[8.40577328011284,12.03296553313288],[8.405922317560965,12.033073503939077],[8.406070030307717,12.03427277506859],[8.4061999994305,12.035200000379746],[8.405516585721898,12.03565737578731],[8.404775025447123,12.035866585974185],[8.404632417252287,12.036326846406899],[8.405830323210921,12.036731317396406],[8.406215364347645,12.036898683027855],[8.406545858005018,12.037284887887324],[8.406899882423659,12.0377913051247],[8.406999707170826,12.038084196328663],[8.406828577876638,12.039283650919797],[8.406258145996674,12.039632327969628],[8.4059729314057,12.039925217374957],[8.405730496665115,12.040343628755517],[8.405416760075468,12.040929405767487],[8.406044235053457,12.04126413433238],[8.406362106725908,12.041567179781563],[8.40685709897599,12.042365946831016],[8.407413270306222,12.043453806348111],[8.407657376886505,12.044182059354625],[8.407698484897196,12.04508558842923],[8.408233184913627,12.04538647190821],[8.408796566108663,12.04549004502962],[8.409074527667372,12.045353526144368],[8.409309953991226,12.045587672732948],[8.408383002973267,12.047805203047744],[8.40856839281713,12.048181763577588],[8.409008689199709,12.04822340398698],[8.409637952029925,12.048014403342108],[8.410051515165321,12.047972563283226],[8.410251165558918,12.048209656950176],[8.410322470105939,12.048739628331248],[8.410099050630722,12.049553180235135],[8.41031223222376,12.049676709312731],[8.411163856027201,12.049813516880363],[8.411943445034012,12.049813516880366],[8.413274451554742,12.050780476937517],[8.413730797238543,12.051152384375087],[8.413787840336624,12.051617266423758],[8.413164525622392,12.051997683246551],[8.413265387287822,12.052401266605214],[8.413903402320216,12.053344131126769],[8.414685118223701,12.053786823303312],[8.41546110544573,12.05379290811629],[8.416069565158352,12.053699931706543],[8.416147355616033,12.05522992582047],[8.416578200123865,12.05655892235643],[8.41724744411431,12.05742464213358],[8.418042307206747,12.057432882621468],[8.418403580161169,12.058102299281755],[8.419069083871193,12.058269652322622],[8.418688795651462,12.059125012809147],[8.418004277575392,12.059571287884694],[8.417838199773144,12.060204774830535],[8.419190887149796,12.060150596073182],[8.42115781598045,12.06038662764081],[8.425249028919609,12.0619601714248],[8.427963392396691,12.063887762110598],[8.431031801876202,12.066444770309941],[8.443168261705978,12.075999031030502],[8.444653691714564,12.083199362160887],[8.442547456999591,12.085058680813518],[8.441910342188578,12.088258289688383],[8.440443585702951,12.09090681379848],[8.441149372745429,12.092843573971834],[8.443550251443014,12.094633525217091],[8.44604867510634,12.095500023807118],[8.446362411695986,12.094788868711364],[8.451140912623089,12.097127884844037],[8.4523236326296,12.097379626668499],[8.453506352636111,12.097631367593575],[8.455184168314759,12.099014022179402],[8.465092691774373,12.10717944097848],[8.468929345313086,12.110341148825],[8.475805070647539,12.115337730851655],[8.478372011858937,12.118730542880314],[8.480606202114586,12.121751505927302],[8.481822330136481,12.123969952651237],[8.484569907375375,12.125271268953952],[8.485606190773126,12.125801088349586],[8.493972283394214,12.129969183431115],[8.499534397794264,12.129671211057595],[8.5074999998252,12.131499997726737],[8.510608196211308,12.132141333955477],[8.513531656560758,12.133140526614056],[8.515126668061328,12.132815154595733],[8.5203628528634,12.133825228151805],[8.528031350366575,12.133712158189605],[8.52928982296703,12.135417746731662],[8.533686898031988,12.135928957355526],[8.536301374708728,12.136579588077552],[8.53971182873795,12.135556372728447],[8.541114138906437,12.136323186865638],[8.541637035320946,12.137043525838127],[8.543063112772472,12.13662526644293],[8.545644497995227,12.13125382180647],[8.547412652372032,12.130862491710673],[8.550169737243607,12.130955441140776],[8.551358135569558,12.130444222422964],[8.551597884934495,12.129110445990364],[8.552712910272646,12.127818398100663],[8.553473484913468,12.127888109049024],[8.554614347773963,12.127981059378444],[8.555660138804399,12.127748685353598],[8.556099558347967,12.124883555032111],[8.556413845322766,12.124666209577976],[8.557512370799316,12.123906548648334],[8.557418969010257,12.122892000065804],[8.557267765994652,12.122119450951974],[8.557514040840374,12.12147448326084],[8.55811568638984,12.121552420307983],[8.560960396705013,12.12193924390101],[8.561500001623813,12.120599999590357],[8.564335448921895,12.118918285350624],[8.564528811255686,12.117573826770752],[8.56711630197583,12.115943768690045],[8.568516234336812,12.115063870201482],[8.567573814979653,12.113135658983536],[8.567363155984935,12.111826040139702],[8.567335261713026,12.11162249658099],[8.567306444736687,12.111412216200845],[8.567449052931522,12.110761524324914],[8.567579183032933,12.110280767443493],[8.56801948481143,12.109739005950416],[8.56855367041561,12.10930472603235],[8.569278593232525,12.109235007889367],[8.569899998686026,12.109299999195633],[8.570403229625413,12.109151951001765],[8.570752800601326,12.108553811908964],[8.570990480626222,12.107368609773575],[8.570471401833801,12.105926248297743],[8.57103801699094,12.104696079160762],[8.572273951681552,12.103464381176313],[8.573985246422012,12.101000969918854],[8.575173643848643,12.10000165495245],[8.576290739426156,12.099002336388764],[8.577265225909514,12.098816415944894],[8.57788319325482,12.097607932160367],[8.57828724875759,12.096724806005055],[8.580378829919141,12.095795194792455],[8.585023042279602,12.09565313968068],[8.591471265886241,12.094257942250291],[8.59363313356232,12.09379017877376],[8.594649273045547,12.093749687697992],[8.601218728861284,12.094631869565209],[8.602657230446882,12.094824424307774],[8.603264572302237,12.094796913147094],[8.604945817095825,12.094637610837138],[8.608581496438944,12.094293121030766],[8.611884003044338,12.0937475419156],[8.616695281562045,12.093810724685225],[8.620219428783685,12.093857005596359],[8.624488161599402,12.093913063936778],[8.634435169747348,12.097576366855888],[8.63735515781434,12.098652649400321],[8.639133051848887,12.097782904257656],[8.640705728686498,12.097178341307426],[8.640911048406224,12.097099413207388],[8.641201118436925,12.09665345109596],[8.64224405142187,12.095050012048484],[8.642814764789591,12.09237989791398],[8.643191006959455,12.091594183624748],[8.644839130621449,12.08815236663844],[8.64506906478556,12.087672186222445],[8.646022356046958,12.08631034914333],[8.64726419568615,12.084747022557108],[8.647971473804546,12.083200840646326],[8.646762524171208,12.08058038257866],[8.64566853217707,12.078652842254936],[8.644253164751774,12.076844597000616],[8.643416635169615,12.075440872198556],[8.641871364272106,12.073232390862188],[8.640842151344259,12.07218502242091],[8.639311509718425,12.070208805392099],[8.63441126306941,12.06114537665786],[8.623685965435016,12.048884257302689],[8.618367881172844,12.0429859358523],[8.613461385134883,12.039412682049655],[8.611721569295014,12.038701377666483],[8.610537923886113,12.038073755199719],[8.608712543848867,12.037613498364294],[8.607429072793536,12.037585604092387],[8.606254935017262,12.037422886157348],[8.604945826988398,12.037291093209436],[8.604565539667988,12.03682618508043],[8.604527510935952,12.036175313340092],[8.604736668962175,12.035357070572385],[8.6046825027953,12.0341458375604],[8.604462222853329,12.033223401139082],[8.603862008125247,12.031972501729625],[8.603900036857283,12.031526180788662],[8.604147222716223,12.031228632895141],[8.604511448144876,12.030999632227296],[8.60426130981165,12.030317393033327],[8.60407116615147,12.02987107029372],[8.603938064689999,12.029517730259103],[8.604082376200722,12.028970803959512],[8.60409017961814,12.028941227955329],[8.604337367275718,12.028476306336525],[8.604546525301942,12.027881204254243],[8.604755684227484,12.02737908667558],[8.604831740792235,12.026914162358764],[8.604831740792235,12.02656081782754],[8.604660612397367,12.02613308677257],[8.60431835290973,12.025872726744979],[8.603842992859882,12.025668158858474],[8.603025946190485,12.025526611863711],[8.601874370605742,12.02544623405652],[8.600961681036779,12.025204471109475],[8.599763775078202,12.025018500303592],[8.59852784128691,12.024906916920713],[8.598090509969097,12.027417520102517],[8.593916795024143,12.026590990082184],[8.593128390862603,12.026560817827539],[8.59292557125815,12.02819463957098],[8.592093692070307,12.030071760303546],[8.591950311357834,12.030724848872751],[8.591798566051011,12.031416037220371],[8.592126966985973,12.03147930092905],[8.593113293044098,12.031515346655965],[8.593751507725926,12.03159436828554],[8.593755074437183,12.031328203134137],[8.593743189896372,12.031002760968704],[8.59374829175033,12.030804859756532],[8.593769683024505,12.03060959535657],[8.59421176725931,12.03065143811341],[8.594660982218613,12.030853676755838],[8.595110196278597,12.030937362269523],[8.595381151219215,12.031160522739977],[8.59555929792333,12.03146159507662],[8.59572340980759,12.031753291980857],[8.595921286738019,12.032128713969026],[8.59566730740039,12.032176660424568],[8.59543404304668,12.032268187127155],[8.595160711197934,12.032489021950825],[8.593354286171405,12.036733176295115],[8.592760087008458,12.036454231777435],[8.59218965512855,12.03587309526716],[8.591666759613304,12.035477920569628],[8.591264735679033,12.03504841515229],[8.590610165027158,12.034775647178433],[8.590359522174253,12.034487079015543],[8.590157493973209,12.034463833339256],[8.59010995760849,12.03427786792929],[8.589967350313032,12.034277867929287],[8.58967025028187,12.034370850634275],[8.589503874804052,12.034501606663863],[8.588979864129499,12.03430038605404],[8.590386979375637,12.031436300744755],[8.590467520859479,12.031456421276857],[8.590775519774468,12.029664645307209],[8.590858707963037,12.028281503288781],[8.590872817426657,12.023949931244376],[8.592215561898684,12.024083959906879],[8.593363982661742,12.024200000329815],[8.594333164044315,12.024219476048017],[8.594599999190677,12.024200000329813],[8.595082579897166,12.02426894055918],[8.595299999995063,12.024300002243367],[8.59595560216934,12.024504550344771],[8.597372243933933,12.023899563813865],[8.597703844656735,12.02389235484833],[8.598024712870256,12.023810993182849],[8.598511955662275,12.023752876294278],[8.59893561998291,12.02377728479388],[8.599313531294456,12.02369359838093],[8.599741354080265,12.023421612817229],[8.59982691917702,12.022835798933047],[8.600353221324156,12.020964292667994],[8.600828581374003,12.020778318264831],[8.601189854328368,12.02061094184154],[8.601360982723236,12.020387773277145],[8.601684227844885,12.020220395954544],[8.601931414603143,12.019941432551098],[8.60204550079925,12.019662470047024],[8.601665212579519,12.019346311583035],[8.601379997988545,12.01917893426048],[8.60132295489052,12.018825581635324],[8.601570140749459,12.01845362923165],[8.601551127282733,12.018100274807864],[8.601665212579519,12.017486553161975],[8.601464001862269,12.01709294778135],[8.601437041086628,12.017040207939312],[8.601134633256777,12.016860422670447],[8.601106111258105,12.016672120821799],[8.601049068160023,12.016483818973139],[8.600984895236763,12.016351310164907],[8.600892200314831,12.016142085588854],[8.600778113219405,12.015925887669654],[8.600692549021971,12.015828249174431],[8.60067115684848,12.015639946426464],[8.600543364984333,12.015329215371024],[8.600048990568496,12.014752683389702],[8.599972934003745,12.014027364871028],[8.59999194836979,12.013469428171621],[8.60033420695811,12.011962990899345],[8.6012846257849,12.012097310042867],[8.613833708958566,12.012969150605837],[8.613819749681738,12.012574600037789],[8.61378729404845,12.011657210611812],[8.61377124474717,12.010475373739553],[8.613601121794375,12.009542723717795],[8.613629675269351,12.009009725218672],[8.613705818169024,12.008752743044681],[8.613981835393417,12.008543351194762],[8.614086531768066,12.007534459347879],[8.614179468607631,12.00652238659893],[8.614202169294742,12.005481754079705],[8.613945669157374,12.004803706625806],[8.618221499422702,12.004033868068628],[8.619579923574634,12.003639897563291],[8.619986339797777,12.003522028818622],[8.619707761304198,12.00185078718414],[8.619569140703334,12.001025044969875],[8.618692945622968,11.999421381991223],[8.616999660705801,11.998103450713757],[8.614393980298019,11.996609847666377],[8.608750825290429,11.996522629615693],[8.60625780205595,11.997160003431475],[8.603719857685348,11.997577660280854],[8.601370300598944,11.99827739038932],[8.601318228053856,11.99676196888981],[8.602141034880901,11.991736693993293],[8.602809742875365,11.989219729906665],[8.6036124129825,11.986037977071016],[8.603804176321717,11.985277831406846],[8.60383832717713,11.983981597173003],[8.603871038217903,11.982739982364365],[8.603871038217903,11.982676188954997],[8.60359780259654,11.980934366727697],[8.603134560011995,11.980179325615438],[8.602671351601657,11.979424340261115],[8.601882183915677,11.978233101876187],[8.601462499994454,11.975995013059446],[8.601325964921386,11.974965006929551],[8.600981389679418,11.973350239122283],[8.59972889397335,11.972085505441779],[8.598800000419715,11.970300001344015],[8.599701177767201,11.97027875306208],[8.602299999045783,11.970199999430461],[8.603300001094226,11.970199999430463],[8.605700001154162,11.969999999200644],[8.607077894729116,11.969661880191662],[8.60829999964534,11.969400000309799],[8.609691580002448,11.968722010412478],[8.610970817948953,11.968114590316134],[8.612100001314047,11.96750000082443],[8.613742490723439,11.966821429065758],[8.615200002178426,11.966200002028529],[8.615600000839436,11.966100000114979],[8.61619999973027,11.966100000114974],[8.617411727369358,11.96564843522713],[8.618599999790206,11.965100001663814],[8.620799999620319,11.964400001758747],[8.621899999985033,11.964099999615318],[8.623000000349805,11.963700000054985],[8.623799997671824,11.963700000054981],[8.624400001059257,11.963399998810928],[8.625900000084982,11.962900002732962],[8.626600000889368,11.962499998676039],[8.627199999780203,11.962299999345532],[8.627700001254084,11.962099999115708],[8.628500000374743,11.962099999115708],[8.629320346656698,11.96191770024171],[8.629631848431131,11.961913025565702],[8.630499999975086,11.9618999997852],[8.631000001448967,11.96200000079943],[8.631200000779472,11.962000000799438],[8.63149999842625,11.96220000102926],[8.631900000684539,11.962400001259084],[8.632039855155256,11.958666249947504],[8.633040725049455,11.954862962156028],[8.63336142868701,11.952530202606795],[8.633397819753611,11.949920327760992],[8.633195681835275,11.945279854781518],[8.633106377357478,11.942595516969561],[8.63232867962489,11.939130974115182],[8.631709715830766,11.937046673864984],[8.631286403145054,11.9356212097511],[8.630382883962966,11.927565564898938],[8.634073713331247,11.920064289135665],[8.635491672602654,11.91802672215556],[8.631739545443736,11.915936702217092],[8.630425330164883,11.91534175391888],[8.628106440859597,11.913826770389164],[8.626348638578861,11.913430020978755],[8.615112555699909,11.912019616012515],[8.611684576581979,11.911402781812967],[8.6091408531679,11.911060298394087],[8.610537220616266,11.900071508393465],[8.611725619841536,11.894460657933049],[8.613066284181741,11.893601969055679],[8.613739948339969,11.892368592936236],[8.613200000779443,11.892299999845195],[8.612399998960825,11.891800001069269],[8.611699998156439,11.891199998581099],[8.610699999705275,11.890500002273313],[8.607700000754505,11.889199998980814],[8.606400001958548,11.88870000110421],[8.60559999924061,11.888199999630332],[8.605300001593832,11.888099997716779],[8.604619256173805,11.888031925333111],[8.603700000654555,11.888000000299828],[8.601700000154949,11.88730000039476],[8.600499998775945,11.886799998920878],[8.600200001129224,11.886799998920875],[8.5989999988509,11.886599998691052],[8.597096418265153,11.88609398165198],[8.595699998656073,11.885799999570391],[8.594146228265856,11.885411558096962],[8.592500001274061,11.885000002248374],[8.591435071771173,11.88481275080784],[8.590399998860903,11.884500000774434],[8.588599998591121,11.884100001214108],[8.586287203092013,11.884070820012363],[8.583099998566126,11.884000000199876],[8.582178346353658,11.884060236790559],[8.580400000859413,11.884500000774437],[8.57984065762031,11.884615946768575],[8.581284459810036,11.882061854171296],[8.572034694245815,11.88121533402051],[8.566066041314798,11.88078388426891],[8.559624032023521,11.88091956588528],[8.558455650807673,11.880796446898557],[8.55637595418699,11.886989036414946],[8.553225758561952,11.890158605235513],[8.55154477187375,11.889964861589133],[8.545365099319952,11.890011378122669],[8.542828208954745,11.89091384419862],[8.541454876741227,11.8913506260306],[8.536232597256628,11.891379002339132],[8.535360703633614,11.887106076883981],[8.534897681382915,11.887209369416894],[8.522531770324974,11.889967952559001],[8.52171865998821,11.88547794335244],[8.517926205430058,11.879890120932375],[8.510231221094045,11.876947047268464],[8.509195533946809,11.874373639032282],[8.505883957678577,11.866313902264835],[8.501721833196086,11.864277078124701],[8.50127043738081,11.866103508570122],[8.498115186666553,11.868933187616562],[8.497177763942716,11.869815468409174],[8.495334115976732,11.870771434254323],[8.493180269354013,11.871814215253888],[8.491317032355198,11.87127977424222],[8.490134559662238,11.870862430356908],[8.488914908096604,11.870817258309899],[8.487564742418954,11.870767252406836],[8.486277613820846,11.870845106716331],[8.484724842577464,11.870980756856511],[8.484109925732525,11.871081265088378],[8.483477054822288,11.871525912391007],[8.482615462933325,11.872004572053408],[8.482380910750464,11.872239124236213],[8.482005593083727,11.87261444280233],[8.480972246871772,11.873647788114967],[8.479078486882713,11.875305833097741],[8.477540798169343,11.876744401233168],[8.477155108621389,11.877072192427763],[8.476746609568409,11.877419367609775],[8.47561509066395,11.878624230723748],[8.475277316994607,11.878876393430852]]]}}]}