{"type":"FeatureCollection","features":[{"type":"Feature","properties":{"name":"Fagge","label":"Fagge","place":"suburb","rank":10,"pinned":1,"priority":10,"always":0},"geometry":{"type":"Point","coordinates":[8.48553,12.05084]}},{"type":"Feature","properties":{"name":"Sabon Gari","label":"Sabon Gari","place":"suburb","rank":10,"pinned":1,"priority":10,"always":0},"geometry":{"type":"Point","coordinates":[8.53528,12.02055]}},{"type":"Feature","properties":{"name":"Tarauni","label":"Tarauni","place":"suburb","rank":10,"pinned":1,"priority":10,"always":0},"geometry":{"type":"Point","coordinates":[8.56708,11.96549]}},{"type":"Feature","properties":{"name":"Dala","label":"Dala","place":"suburb","rank":10,"pinned":1,"priority":10,"always":0},"geometry":{"type":"Point","coordinates":[8.49922,12.0156]}},{"type":"Feature","properties":{"name":"Dan Maliki","label":"Dan Maliki","place":"ward","rank":10,"pinned":1,"priority":10,"always":0},"geometry":{"type":"Point","coordinates":[8.53199,11.9525]}},{"type":"Feature","properties":{"name":"Zango (Ungogo)","label":"Zango (Ungogo)","place":"ward","rank":10,"pinned":1,"priority":10,"always":0},"geometry":{"type":"Point","coordinates":[8.56985,12.04118]}},{"type":"Feature","properties":{"name":"Bachirawa","label":"Bachirawa","place":"ward","rank":10,"pinned":1,"priority":10,"always":0},"geometry":{"type":"Point","coordinates":[8.46631,12.06671]}},{"type":"Feature","properties":{"name":"Chiranchi","label":"Chiranchi","place":"ward","rank":10,"pinned":1,"priority":10,"always":0},"geometry":{"type":"Point","coordinates":[8.47931,11.95738]}},{"type":"Feature","properties":{"name":"Gawuna","label":"Gawuna","place":"ward","rank":10,"pinned":1,"priority":10,"always":0},"geometry":{"type":"Point","coordinates":[8.54893,12.02532]}},{"type":"Feature","properties":{"name":"Gwagwarwa","label":"Gwagwarwa","place":"ward","rank":10,"pinned":1,"priority":10,"always":0},"geometry":{"type":"Point","coordinates":[8.54394,12.02911]}},{"type":"Feature","properties":{"name":"Gayawa","label":"Gayawa","place":"ward","rank":10,"pinned":1,"priority":10,"always":0},"geometry":{"type":"Point","coordinates":[8.56616,12.07479]}},{"type":"Feature","properties":{"name":"Mariri","label":"Mariri","place":"ward","rank":10,"pinned":1,"priority":10,"always":0},"geometry":{"type":"Point","coordinates":[8.61882,11.93787]}},{"type":"Feature","properties":{"name":"Rangaza","label":"Rangaza","place":"ward","rank":10,"pinned":1,"priority":10,"always":0},"geometry":{"type":"Point","coordinates":[8.61399,12.05627]}},{"type":"Feature","properties":{"name":"Panshekara","label":"Panshekara","place":"ward","rank":10,"pinned":1,"priority":10,"always":0},"geometry":{"type":"Point","coordinates":[8.4628,11.89951]}},{"type":"Feature","properties":{"name":"Danbare","label":"Danbare","place":"ward","rank":10,"pinned":1,"priority":10,"always":0},"geometry":{"type":"Point","coordinates":[8.41774,11.94676]}},{"type":"Feature","properties":{"name":"Kureken Sani","label":"Kureken Sani","place":"ward","rank":10,"pinned":1,"priority":10,"always":0},"geometry":{"type":"Point","coordinates":[8.58977,11.93187]}},{"type":"Feature","properties":{"name":"Garun Gawa","label":"Garun Gawa","place":"ward","rank":10,"pinned":1,"priority":10,"always":0},"geometry":{"type":"Point","coordinates":[8.49387,11.92511]}},{"type":"Feature","properties":{"name":"Naibawa","label":"Naibawa","place":"ward","rank":10,"pinned":1,"priority":10,"always":0},"geometry":{"type":"Point","coordinates":[8.5425,11.91423]}},{"type":"Feature","properties":{"name":"Ungogo","label":"Ungogo","place":"locality","rank":8,"pinned":1,"priority":10,"always":0},"geometry":{"type":"Point","coordinates":[8.47995,12.03877]}},{"type":"Feature","properties":{"name":"Gwale","label":"Gwale","place":"locality","rank":8,"pinned":1,"priority":10,"always":0},"geometry":{"type":"Point","coordinates":[8.50118,11.99394]}},{"type":"Feature","properties":{"name":"Kumbotso","label":"Kumbotso","place":"locality","rank":8,"pinned":1,"priority":10,"always":0},"geometry":{"type":"Point","coordinates":[8.52513,11.95524]}},{"type":"Feature","properties":{"name":"Nassarawa","label":"Nassarawa","place":"locality","rank":8,"pinned":1,"priority":10,"always":0},"geometry":{"type":"Point","coordinates":[8.5755,11.99297]}}]}