{"type":"FeatureCollection","features":[{"type":"Feature","properties":{"name":"Port Harcourt"},"geometry":{"type":"Polygon","coordinates":[[[6.985037851915365,4.764824023110234],[6.9797943718128295,4.765121622265099],[6.965892517625662,4.764526486008547],[6.964681828703476,4.764442477638281],[6.965020148261259,4.768741475338855],[6.963751587066156,4.7713167199906925],[6.960353666888239,4.774254441789082],[6.957880245277123,4.7745094697363],[6.955143062402444,4.774246557432718],[6.949610381014338,4.77313398364646],[6.947376001001715,4.774856260907768],[6.945052240968209,4.782955000373021],[6.942993886158945,4.789076941847439],[6.942020362849518,4.789950754623703],[6.9370917659722995,4.785069908149808],[6.937019618760475,4.785047730868143],[6.935278349616169,4.785509637959476],[6.932197012382291,4.784923728747117],[6.929063274350654,4.78169849998585],[6.928739302576787,4.78380598026183],[6.926443629270125,4.789355234356607],[6.921303518142908,4.799536023968357],[6.9188567443433175,4.803976161270897],[6.920328867982903,4.807421160058539],[6.923979049793388,4.80959188156015],[6.928841733559182,4.811254913283676],[6.931541286101549,4.820144253954197],[6.921545093131615,4.824877018059965],[6.920236331341642,4.829773596374421],[6.923626397740124,4.8348573901564595],[6.924786968343936,4.839796376901346],[6.92409801661023,4.84299933395215],[6.9207063332307275,4.847757639703331],[6.913121234357506,4.8481128512271425],[6.908563632105995,4.849706925634167],[6.9026355143175815,4.855007600820157],[6.902795631413312,4.860441862202207],[6.903795869084149,4.863212859585872],[6.902724325067596,4.87052557989165],[6.902724482448946,4.870607097139896],[6.89851582344653,4.875107309155053],[6.892908725857071,4.884419195389623],[6.891383984683216,4.885180725110445],[6.89473323894788,4.88819464466718],[6.897965920390959,4.889055632211693],[6.900101876800251,4.89365007968746],[6.8999326540687775,4.897240253335098],[6.897466555637097,4.900511632605798],[6.89902574714057,4.90388862915694],[6.899056645148107,4.904247741040477],[6.8997810418616154,4.90443733701352],[6.901794321750572,4.9053041728493545],[6.90215098298154,4.904816653066121],[6.9031292412215635,4.904218266659711],[6.903663553630167,4.90410306260628],[6.904998232082789,4.9039851668819665],[6.9055427203203426,4.903791359383772],[6.905932391166971,4.903399972630666],[6.906099796368552,4.902761691399006],[6.907625924297008,4.905237084324028],[6.909212778946653,4.9077706364058145],[6.910014020930362,4.909420461585057],[6.910416658202281,4.9100260209841045],[6.910984672704559,4.910697890994927],[6.912009396216718,4.911816620640593],[6.912719449642906,4.912646137309421],[6.913489572385913,4.913512901199454],[6.914517564034384,4.914665485823548],[6.91517045835002,4.915395075222589],[6.915534706261724,4.915660822189238],[6.916445392141156,4.916213771248578],[6.916953670975204,4.916594516323926],[6.917286298723752,4.916904039589783],[6.9178262094120555,4.917533192702706],[6.918113299988874,4.917999330204962],[6.918381209825044,4.918666941026574],[6.918758423262659,4.919542011954321],[6.918927261084264,4.920088172930889],[6.918987461702047,4.92050402574023],[6.918973763228621,4.921060539712187],[6.919113870408864,4.921457346679231],[6.9191154891885285,4.9214601471680925],[6.919311836372174,4.921739378569496],[6.919693951114993,4.922012702324424],[6.920404787850714,4.922591952056963],[6.920950295919454,4.921751030185931],[6.920844845912939,4.9214870153135735],[6.920768936837022,4.921162238646444],[6.920805256857193,4.9207181399302735],[6.92088642696706,4.920524192137805],[6.922090066103692,4.9189145783451504],[6.923262882775873,4.917523995336181],[6.923830268652012,4.917386658967186],[6.924063169679586,4.917486946865154],[6.92698463623202,4.916327780103019],[6.929829408600371,4.914582580921435],[6.931221849608732,4.9134875879818765],[6.932722290201582,4.912478601706143],[6.9346287531145085,4.910883004746893],[6.934838469619706,4.910981530873016],[6.9361931813703,4.910812725426979],[6.937275379655092,4.9106712027139],[6.939698475204523,4.910427230132598],[6.941655578941892,4.91029007632602],[6.941105692074076,4.911650327001041],[6.945897410337238,4.913732739574298],[6.948531619039045,4.914850570797226],[6.9508521945731445,4.915879795416288],[6.953032644940662,4.916879427843355],[6.952952659237894,4.917613971607579],[6.954747413762165,4.917492262757776],[6.955262882675926,4.915896300673807],[6.955828176729028,4.9142036227989925],[6.956596791308928,4.911887331635112],[6.957107697062612,4.910337077594078],[6.957077285588298,4.910149455632904],[6.960010287744638,4.909869481391524],[6.9622900187694094,4.909981277014369],[6.9634683959497465,4.910110147165597],[6.962386187772381,4.915714497326235],[6.961308349400838,4.918756627716223],[6.960791685288087,4.920448629300833],[6.959946469154262,4.923190758446763],[6.959743942728835,4.924830766626599],[6.959759821158856,4.9263166382023655],[6.96014226415423,4.927487159804629],[6.961133487020846,4.9293479623386265],[6.961553902090941,4.930114680248325],[6.96169835479526,4.93117514911387],[6.96170139720175,4.932184717250948],[6.961749592769537,4.932786531872974],[6.961697279206135,4.933448920331443],[6.959278799876756,4.936844695626234],[6.963225149121399,4.936440883839792],[6.964548557270177,4.936260833270864],[6.9660653412425395,4.936148604174775],[6.966837820209266,4.936044855685567],[6.967332539065467,4.936049247075118],[6.967557777869217,4.9361149020810995],[6.9686831759878505,4.9363791633677465],[6.969700204001242,4.936580943355923],[6.970244081599161,4.936621891287301],[6.970552100299243,4.936612827919703],[6.970929098798933,4.936512808919019],[6.971198258692711,4.936337344892592],[6.971606353050788,4.935999946240599],[6.972024860658848,4.935580944904755],[6.972605081659253,4.935116109620819],[6.972942593625817,4.934920346996476],[6.973632057073814,4.934741972763901],[6.975606054575794,4.934363564127238],[6.9763894189366065,4.934192217197105],[6.977430248407304,4.934006437047456],[6.978499405623099,4.933780435618644],[6.979124327425836,4.933678324794924],[6.979626757069241,4.933442763572711],[6.980699543948845,4.932753385560315],[6.9815923252256775,4.932155286037641],[6.982788001764902,4.93143703259301],[6.98800446443454,4.928331689755736],[6.988967159007245,4.927778362081766],[6.9905526763649855,4.926917378134533],[6.991790905226139,4.926233219787318],[6.9932929457129385,4.92543708055689],[6.994417672037969,4.924816532157308],[6.994999950687202,4.92456021188434],[6.995069718292939,4.924719541173943],[6.9950941258932176,4.92508614710806],[6.995194004599684,4.925227846987582],[6.995717489170829,4.9257799722679465],[6.996425263715027,4.926540280709446],[6.997232692135072,4.927169271045041],[6.99765501376794,4.927454419086246],[6.998198813124761,4.928149668772219],[6.999354191942472,4.927262314903941],[7.0051615595583625,4.934493585410678],[7.005567589972373,4.935130432223728],[7.007339238215309,4.934168047017806],[7.008627091666994,4.933500054883666],[7.00930923913012,4.933103860354948],[7.00970021399371,4.932928002425398],[7.0099866966288005,4.932831612189203],[7.010541017154253,4.932805530950532],[7.011416407341358,4.932720184389042],[7.013258146046667,4.932544332754785],[7.0188833370963835,4.932013156282208],[7.020086704637775,4.931902272571845],[7.020431349127534,4.931922594552134],[7.021527187429797,4.933170338240586],[7.024039669295347,4.93609383006623],[7.025966408323143,4.9384079205891],[7.02658324342201,4.93900869019893],[7.026829574025669,4.939174662780485],[7.0270193183868646,4.939145849401485],[7.0272928453885575,4.938919032287569],[7.0273080879979375,4.938913713696989],[7.02765892521927,4.9386699632482305],[7.027882639672155,4.938608631283332],[7.028004437554786,4.938660280247801],[7.029052666647318,4.936531192860286],[7.030596286389539,4.933509854796],[7.0311280402269185,4.932291912841548],[7.031480348739137,4.931229919625139],[7.031485863381932,4.931200099904743],[7.031976554174662,4.929031196832341],[7.032158628218156,4.9280633554395745],[7.032116380766411,4.926508573312046],[7.03208362026294,4.926117440167787],[7.031815667259309,4.924364085034538],[7.031085711836169,4.918996509281499],[7.033134634555779,4.919789946049207],[7.035688084137803,4.9208471206981095],[7.038860752022117,4.922330762854473],[7.042928579890087,4.922757162912775],[7.048712290839601,4.923432932383943],[7.054473103251156,4.923985391312782],[7.061185016175615,4.924650267296043],[7.063447582739798,4.924952507852025],[7.072922026830099,4.923395603324479],[7.077169074293408,4.922644346559366],[7.081135027859318,4.922002845754775],[7.082051032329332,4.9218197518800935],[7.0818679726288565,4.921201997674073],[7.081693345871259,4.920255231893464],[7.081584597151503,4.918433476124051],[7.081573215331671,4.917462005966853],[7.081583458609771,4.915763617397088],[7.081534525597931,4.914587511004867],[7.081579568142615,4.913637999594071],[7.081686927409805,4.91234863618064],[7.081823879768308,4.911179351146188],[7.08187668975745,4.9105318851384245],[7.081953802126293,4.909889736821924],[7.082029900059865,4.909402377118056],[7.082105218281241,4.908523617171227],[7.082059350158943,4.908235051706298],[7.081910738090131,4.907810616666666],[7.080299493826601,4.9044249011882926],[7.079867910076018,4.903622529656046],[7.082936703566077,4.902253119385987],[7.087647603354242,4.901724249674428],[7.088903279962437,4.901851511837831],[7.0912659446676685,4.9022816144050125],[7.0930834862139704,4.902295443280139],[7.093671487249367,4.902045137672984],[7.094181737397321,4.901686425088483],[7.094543049921867,4.901227431800578],[7.095357699897989,4.899629585636944],[7.095917806661475,4.8984056892712164],[7.096402834423316,4.897400818293191],[7.096629426706727,4.8968176996771735],[7.096953956959565,4.8961728102270845],[7.097095083071679,4.8956420321541145],[7.097200533977514,4.894952439203735],[7.097217471808904,4.893833821973374],[7.097260105969156,4.891550697806508],[7.097363387710232,4.888618943909195],[7.098243586572324,4.888862758209771],[7.101770563960429,4.889718945173225],[7.102544545694286,4.888056644598524],[7.103112778731828,4.886716765366486],[7.103369107098673,4.886106364017506],[7.104325455155675,4.884591745612624],[7.10596978277931,4.882290906600133],[7.106322132660354,4.881534556974256],[7.110508966016028,4.8757978086219955],[7.111718698059521,4.873946482244435],[7.112798782937546,4.872343714091187],[7.110754139192238,4.870961918357921],[7.110752452963368,4.87095380197644],[7.110925783797939,4.870794449304414],[7.11109406134193,4.870211946723998],[7.111040888925913,4.869466939347831],[7.111000420333198,4.868417945831597],[7.111124926973845,4.867341029265162],[7.111179461862719,4.86653254324233],[7.1111313427373375,4.865310266555584],[7.111143612188015,4.8642120873180374],[7.111174541671801,4.863583748990892],[7.1109987359029665,4.862399581075861],[7.110732518590909,4.861183367618364],[7.110544003602914,4.860159044304508],[7.110471250248054,4.858713787011708],[7.110100548801313,4.858108476724851],[7.109448695001335,4.856914922585645],[7.108694937221628,4.855173779346501],[7.108326099170199,4.854306256428629],[7.106472644097322,4.851214998773228],[7.0994709075563955,4.857257117322149],[7.0992220426632,4.856817653711801],[7.0954187242947455,4.85640976619783],[7.092813515131638,4.8561847441307],[7.093299765971494,4.851816702778649],[7.0927620847024855,4.851155096730395],[7.0925297754288295,4.8505184459695565],[7.092414424785943,4.849592511185505],[7.091956612307854,4.848594761938786],[7.0915602433106555,4.84796112570541],[7.091055764112298,4.847748266069684],[7.0903743271135795,4.8469614456142835],[7.08928748383039,4.845342874574046],[7.088095679771868,4.843791150141498],[7.087118659898295,4.842615083319512],[7.0864369486063215,4.84167127720775],[7.086080341334708,4.841130277440412],[7.08539980096009,4.840839533817473],[7.084208441166653,4.840345973288095],[7.083751356240157,4.8400765651813895],[7.082024594959139,4.839766346739565],[7.0816473059784375,4.839508788999466],[7.080845115209968,4.8387969252379435],[7.080464278403782,4.838540982680229],[7.0799819989701405,4.83845371516685],[7.0778788911979404,4.8382282452373575],[7.077293801267956,4.838101200709902],[7.076401525410119,4.837888324886309],[7.075789418946556,4.837667898354879],[7.075112951601512,4.837401675646845],[7.074465624089328,4.836982051980155],[7.073931601262416,4.836327663890641],[7.073438001162858,4.835686324963999],[7.072508877382861,4.834305512189701],[7.0718496392494785,4.833405672134118],[7.071203145408903,4.8324271009300315],[7.070862741222585,4.831868410598702],[7.070605297696375,4.8317448473468945],[7.070066360973842,4.831745585690272],[7.070069492413211,4.8314661807196995],[7.070227604920094,4.831127257716842],[7.070696727272207,4.830553004617514],[7.071187668076448,4.830192100385151],[7.071924352227143,4.829658681902683],[7.072518842770422,4.829219765080153],[7.073702981007843,4.828336259410889],[7.074448171845688,4.827829967179298],[7.075117611888346,4.827288856795348],[7.0755908153639115,4.827063682742789],[7.076653860787075,4.8267837840444345],[7.0791423667269,4.826068569409015],[7.078971526115083,4.825296584170076],[7.07880208035175,4.824587715150983],[7.078610013041727,4.823981116135653],[7.078219665904898,4.822881790262443],[7.077570465104941,4.8214886693666585],[7.077561018626169,4.821474718183765],[7.073608261711968,4.816619389073593],[7.069501790874995,4.811292102948244],[7.068658022649685,4.81021747425706],[7.068017089317265,4.809415752035365],[7.06783267523781,4.809349686938562],[7.066463673259989,4.809688151287217],[7.063758631255894,4.809411819300069],[7.0625471958964,4.809258019941694],[7.062321636034709,4.8091312290230235],[7.062023653768678,4.808744993586626],[7.060908110420997,4.807260141842107],[7.068897900617687,4.802396338420351],[7.069483888970354,4.79505357086566],[7.062478896883649,4.791144675686269],[7.061384755602035,4.785954222309558],[7.066153501582904,4.781401085191988],[7.068110128679562,4.779938110355543],[7.069532695177769,4.7766367737681295],[7.069121596184742,4.774729335990113],[7.068218853117628,4.77200519598307],[7.063346150004864,4.770346570937532],[7.0582643491204635,4.7687250231413705],[7.055811028256414,4.766081534335399],[7.055598890776254,4.7632878722375835],[7.053969871412505,4.757021718177782],[7.054881392762128,4.7531608701780765],[7.045899511853065,4.7514625193798],[7.0435268637738195,4.750441810441261],[7.044748438989304,4.748000503620401],[7.043108233857936,4.747262281629048],[7.043010384921388,4.748771769401687],[7.0427751573477035,4.7488971996460805],[7.0415305001325255,4.748899473132211],[7.039926431559594,4.748735967391042],[7.0386740149938305,4.748931393668954],[7.038944090397477,4.750113369036795],[7.039050428034898,4.750736781777105],[7.038538908044245,4.751362701827304],[7.037720496203975,4.752058861627234],[7.036127893087837,4.752533945585182],[7.035614061839509,4.753761839437402],[7.033262859893114,4.75475829186172],[7.030741633020002,4.755393804080827],[7.027733972744669,4.756098645935822],[7.025004038405712,4.755804317615228],[7.012799207617377,4.749895325708737],[7.01153509896568,4.747409454782542],[7.012206426685282,4.738589209924158],[7.010190758196985,4.7350279818559216],[7.006603108946365,4.735767480884587],[7.002597372970458,4.743406846648722],[6.997975783955326,4.754653149423347],[6.988868899979822,4.760770918043477],[6.988255708034559,4.761109568551774],[6.988112373187508,4.761431229967345],[6.985037851915365,4.764824023110234]]]}}]}