{"type":"FeatureCollection","features":[{"type":"Feature","properties":{"name":"Churchill Model Primary Health Center","kind":"clinic","ownership":"Public","level":"Primary","kind_detail":"Primary Health Center","lga":"Port-Harcourt","ward":"Port-Harcourt 7"},"geometry":{"type":"Point","coordinates":[7.0351,4.7583]}},{"type":"Feature","properties":{"name":"Pearl Maternity Clinic","kind":"clinic","ownership":"Private","level":"Secondary","kind_detail":"Primary Health Clinic","lga":"Port-Harcourt","ward":"Port Harcourt 1"},"geometry":{"type":"Point","coordinates":[6.9989,4.79932]}},{"type":"Feature","properties":{"name":"Obio Cottage Hospital","kind":"clinic","ownership":"Public","level":"Primary","kind_detail":"Primary Health Center","lga":"Obio/Akpor","ward":"Obio/Akpor 8"},"geometry":{"type":"Point","coordinates":[7.03369,4.83392]}},{"type":"Feature","properties":{"name":"Elekahia Model Primary Health Center","kind":"clinic","ownership":"Public","level":"Primary","kind_detail":"Primary Health Center","lga":"Port-Harcourt","ward":"Port-Hartcourt 19"},"geometry":{"type":"Point","coordinates":[7.01947,4.81409]}},{"type":"Feature","properties":{"name":"Rumuokwuta Primary Health Center","kind":"clinic","ownership":"Public","level":"Primary","kind_detail":"Primary Health Center","lga":"Obio/Akpor","ward":"Obio/Akpor 13"},"geometry":{"type":"Point","coordinates":[6.98427,4.8381]}},{"type":"Feature","properties":{"name":"Rumukrushi Model Primary Health Center","kind":"clinic","ownership":"Public","level":"Primary","kind_detail":"Primary Health Center","lga":"Obio/Akpor","ward":"Obio/Akpor 3"},"geometry":{"type":"Point","coordinates":[7.05637,4.85352]}},{"type":"Feature","properties":{"name":"Nkpolu Oroworukwo Model Primary Health Center","kind":"clinic","ownership":"Public","level":"Primary","kind_detail":"Primary Health Center","lga":"Port-Harcourt","ward":"Port-Hartcourt 10"},"geometry":{"type":"Point","coordinates":[6.99228,4.80573]}},{"type":"Feature","properties":{"name":"Rumuekini Primary Health Center","kind":"clinic","ownership":"Public","level":"Primary","kind_detail":"Primary Health Center","lga":"Obio/Akpor","ward":"Obio/Akpor 15"},"geometry":{"type":"Point","coordinates":[6.93855,4.89026]}},{"type":"Feature","properties":{"name":"Mgbundukwu Model Primary Health Center","kind":"clinic","ownership":"Public","level":"Primary","kind_detail":"Primary Health Center","lga":"Port-Harcourt","ward":"Port-Hartcourt 13"},"geometry":{"type":"Point","coordinates":[6.9964,4.79404]}},{"type":"Feature","properties":{"name":"Rumuepirikom Model Primary Health Center","kind":"clinic","ownership":"Public","level":"Primary","kind_detail":"Primary Health Center","lga":"Obio/Akpor","ward":"Obio/Akpor 9"},"geometry":{"type":"Point","coordinates":[6.9869,4.83433]}},{"type":"Feature","properties":{"name":"Bennod International Hospital","kind":"clinic","ownership":"Private","level":"Primary","kind_detail":"Primary Health Clinic","lga":"Obio/Akpor","ward":"Obio/Akpor 9"},"geometry":{"type":"Point","coordinates":[6.98244,4.83514]}},{"type":"Feature","properties":{"name":"Gynescope Hospital Specialist","kind":"clinic","ownership":"Private","level":"Secondary","kind_detail":"General Hospital","lga":"Obio/Akpor","ward":"Obio/Akpor 12"},"geometry":{"type":"Point","coordinates":[7.03642,4.85519]}},{"type":"Feature","properties":{"name":"Alphonso Hospital","kind":"clinic","ownership":"Private","level":"Secondary","kind_detail":"Unknown","lga":"Obio/Akpor","ward":"Obio/Akpor 5"},"geometry":{"type":"Point","coordinates":[7.07275,4.83911]}},{"type":"Feature","properties":{"name":"Teme Hospital","kind":"clinic","ownership":"Private","level":"Secondary","kind_detail":"Unknown","lga":"Port-Harcourt","ward":"Phward 17"},"geometry":{"type":"Point","coordinates":[7.00297,4.78981]}},{"type":"Feature","properties":{"name":"St Martin'S Hospital","kind":"clinic","ownership":"Private","level":"Secondary","kind_detail":"Primary Health Clinic","lga":"Obio/Akpor","ward":"Obward 15"},"geometry":{"type":"Point","coordinates":[7.05988,4.8277]}},{"type":"Feature","properties":{"name":"St Jude Medical Hospital","kind":"clinic","ownership":"Private","level":"Secondary","kind_detail":"Health Post","lga":"Obio/Akpor","ward":"Obio/Akpor 5"},"geometry":{"type":"Point","coordinates":[6.99329,4.8681]}},{"type":"Feature","properties":{"name":"Eli Johnson Hospital Specialist","kind":"clinic","ownership":"Private","level":"Tertiary","kind_detail":"General Hospital","lga":"Obio/Akpor","ward":"Obward 15"},"geometry":{"type":"Point","coordinates":[7.0531,4.8457]}},{"type":"Feature","properties":{"name":"Braithwaite Memorial Hospital Specialist","kind":"clinic","ownership":"Private","level":"Secondary","kind_detail":"General Hospital","lga":"Port-Harcourt","ward":"Port-Hartcourt 4"},"geometry":{"type":"Point","coordinates":[7.01453,4.77991]}},{"type":"Feature","properties":{"name":"Shammah Christian Hospital","kind":"clinic","ownership":"Private","level":"Secondary","kind_detail":"Primary Health Clinic","lga":"Obio/Akpor","ward":"Obward 15"},"geometry":{"type":"Point","coordinates":[7.0567,4.8205]}},{"type":"Feature","properties":{"name":"Ozuoba Primary Health Center","kind":"clinic","ownership":"Public","level":"Primary","kind_detail":"Primary Health Center","lga":"Obio/Akpor","ward":"Obio/Akpor 16"},"geometry":{"type":"Point","coordinates":[6.92889,4.87109]}},{"type":"Feature","properties":{"name":"Mini Health Center","kind":"clinic","ownership":"Public","level":"Primary","kind_detail":"Primary Health Center","lga":"Port-Harcourt","ward":"Phward 14"},"geometry":{"type":"Point","coordinates":[6.9895,4.80487]}},{"type":"Feature","properties":{"name":"Springs Medical Center","kind":"clinic","ownership":"Private","level":"Secondary","kind_detail":"Primary Health Center","lga":"Obio/Akpor","ward":"Obio/Akpor 9"},"geometry":{"type":"Point","coordinates":[6.98592,4.83443]}},{"type":"Feature","properties":{"name":"First Rivers Hospital","kind":"clinic","ownership":"Private","level":"Secondary","kind_detail":"Primary Health Center","lga":"Obio/Akpor","ward":"Obio/Akpor 8"},"geometry":{"type":"Point","coordinates":[7.02228,4.83649]}},{"type":"Feature","properties":{"name":"Life Clinic","kind":"clinic","ownership":"Private","level":"Primary","kind_detail":"Primary Health Center","lga":"Port-Harcourt","ward":"Port-Hartcourt 11"},"geometry":{"type":"Point","coordinates":[7.00848,4.8255]}},{"type":"Feature","properties":{"name":"Rumudara Health Post","kind":"clinic","ownership":"Public","level":"Primary","kind_detail":"Health Post","lga":"Obio/Akpor","ward":"Obio/Akpor 10"},"geometry":{"type":"Point","coordinates":[7.03192,4.85431]}},{"type":"Feature","properties":{"name":"St Patrick'S Hospital","kind":"clinic","ownership":"Private","level":"Secondary","kind_detail":"Primary Health Center","lga":"Port-Harcourt","ward":"Port-Hartcourt 2"},"geometry":{"type":"Point","coordinates":[7.01251,4.79773]}},{"type":"Feature","properties":{"name":"Woji Cottage Hospital","kind":"clinic","ownership":"Public","level":"Primary","kind_detail":"Primary Health Center","lga":"Obio/Akpor","ward":"Obio/Akpor 6"},"geometry":{"type":"Point","coordinates":[7.04897,4.8149]}},{"type":"Feature","properties":{"name":"University Of Education Health Services","kind":"clinic","ownership":"Public","level":"Primary","kind_detail":"Primary Health Center","lga":"Obio/Akpor","ward":"Obio/Akpor 17"},"geometry":{"type":"Point","coordinates":[6.92828,4.89893]}},{"type":"Feature","properties":{"name":"Oasis Children Hospital","kind":"clinic","ownership":"Private","level":"Secondary","kind_detail":"Primary Health Center","lga":"Obio/Akpor","ward":"Obio/Akpor 4"},"geometry":{"type":"Point","coordinates":[7.00293,4.87268]}},{"type":"Feature","properties":{"name":"New Mile 1 Hospital","kind":"clinic","ownership":"Private","level":"Secondary","kind_detail":"Primary Health Center","lga":"Port-Harcourt","ward":"Port-Hartcourt 13"},"geometry":{"type":"Point","coordinates":[6.99408,4.79089]}},{"type":"Feature","properties":{"name":"Eneka Model Primary Health Center","kind":"clinic","ownership":"Public","level":"Primary","kind_detail":"Primary Health Center","lga":"Obio/Akpor","ward":"Obio/Akpor 14"},"geometry":{"type":"Point","coordinates":[7.04132,4.89508]}},{"type":"Feature","properties":{"name":"Health Of The Sick","kind":"clinic","ownership":"Private","level":"Secondary","kind_detail":"Primary Health Center","lga":"Port-Harcourt","ward":"Port-Hartcourt 20"},"geometry":{"type":"Point","coordinates":[7.02087,4.80133]}},{"type":"Feature","properties":{"name":"Orogbum Model Primary Health Center","kind":"clinic","ownership":"Public","level":"Primary","kind_detail":"Primary Health Center","lga":"Port-Harcourt","ward":"Port-Hartcourt 2"},"geometry":{"type":"Point","coordinates":[7.01129,4.80548]}},{"type":"Feature","properties":{"name":"Ozuboko Model Primary Health Center","kind":"clinic","ownership":"Public","level":"Primary","kind_detail":"Primary Health Center","lga":"Port-Harcourt","ward":"Port-Hartcourt 20"},"geometry":{"type":"Point","coordinates":[7.03949,4.78088]}},{"type":"Feature","properties":{"name":"Every Woman Centre Medical Center","kind":"clinic","ownership":"Public","level":"Primary","kind_detail":"Health Post","lga":"Port-Harcourt","ward":"Port-Hartcourt 6"},"geometry":{"type":"Point","coordinates":[7.0235,4.7713]}},{"type":"Feature","properties":{"name":"Bosom Hospital","kind":"clinic","ownership":"Private","level":"Secondary","kind_detail":"Primary Health Center","lga":"Obio/Akpor","ward":"Obio/Akpor 10"},"geometry":{"type":"Point","coordinates":[6.99213,4.8313]}},{"type":"Feature","properties":{"name":"Rumuodomaya Model Primary Health Center","kind":"clinic","ownership":"Public","level":"Primary","kind_detail":"Primary Health Center","lga":"Obio/Akpor","ward":"Obio/Akpor 4"},"geometry":{"type":"Point","coordinates":[6.99908,4.87469]}},{"type":"Feature","properties":{"name":"Choba Health Post","kind":"clinic","ownership":"Public","level":"Primary","kind_detail":"Primary Health Center","lga":"Obio/Akpor","ward":"Obio/Akpor 6"},"geometry":{"type":"Point","coordinates":[6.90131,4.8869]}},{"type":"Feature","properties":{"name":"Rumueme Model Primary Health Center","kind":"clinic","ownership":"Public","level":"Primary","kind_detail":"Primary Health Center","lga":"Obio/Akpor","ward":"Obio/Akpor 11"},"geometry":{"type":"Point","coordinates":[6.9837,4.81989]}},{"type":"Feature","properties":{"name":"Pott'S Johnson Model Primary Health Center","kind":"clinic","ownership":"Public","level":"Primary","kind_detail":"Primary Health Center","lga":"Port-Harcourt","ward":"Port-Hartcourt 5"},"geometry":{"type":"Point","coordinates":[7.02148,4.76532]}},{"type":"Feature","properties":{"name":"Azubie Model Primary Health Center","kind":"clinic","ownership":"Public","level":"Primary","kind_detail":"Primary Health Center","lga":"Port-Harcourt","ward":"Port-Hartcourt 20"},"geometry":{"type":"Point","coordinates":[7.05371,4.80688]}},{"type":"Feature","properties":{"name":"Rumuigbo Neuro Psychiatric Hospital","kind":"clinic","ownership":"Public","level":"Primary","kind_detail":"General Hospital","lga":"Obio/Akpor","ward":"Obio/Akpor 12"},"geometry":{"type":"Point","coordinates":[6.99292,4.84552]}},{"type":"Feature","properties":{"name":"Bundu Ama Model Primary Health Center","kind":"clinic","ownership":"Public","level":"Primary","kind_detail":"Primary Health Center","lga":"Port-Harcourt","ward":"Port-Hartcourt 5"},"geometry":{"type":"Point","coordinates":[7.00909,4.75153]}},{"type":"Feature","properties":{"name":"Eliozu Model Primary Health Center","kind":"clinic","ownership":"Public","level":"Primary","kind_detail":"Primary Health Center","lga":"Obio/Akpor","ward":"Obio/Akpor 1"},"geometry":{"type":"Point","coordinates":[7.02228,4.86932]}},{"type":"Feature","properties":{"name":"Amadi Ama Primary Health Center","kind":"clinic","ownership":"Public","level":"Primary","kind_detail":"Primary Health Center","lga":"Port-Harcourt","ward":"Port-Hartcourt 20"},"geometry":{"type":"Point","coordinates":[7.02771,4.79413]}},{"type":"Feature","properties":{"name":"Rumuolumeni Model Primary Health Center","kind":"clinic","ownership":"Public","level":"Primary","kind_detail":"Primary Health Center","lga":"Obio/Akpor","ward":"Obio/Akpor 17"},"geometry":{"type":"Point","coordinates":[6.95648,4.80829]}},{"type":"Feature","properties":{"name":"Rumuigbo Model Primary Health Center","kind":"clinic","ownership":"Public","level":"Primary","kind_detail":"Primary Health Center","lga":"Obio/Akpor","ward":"Obio/Akpor 12"},"geometry":{"type":"Point","coordinates":[6.99091,4.84991]}},{"type":"Feature","properties":{"name":"Rukpokwu Model Primary Health Center","kind":"clinic","ownership":"Public","level":"Primary","kind_detail":"Primary Health Center","lga":"Obio/Akpor","ward":"Obio/Akpor 14"},"geometry":{"type":"Point","coordinates":[6.9917,4.89948]}},{"type":"Feature","properties":{"name":"Elelenwo Model Primary Health Center","kind":"clinic","ownership":"Public","level":"Primary","kind_detail":"Primary Health Center","lga":"Obio/Akpor","ward":"Obio/Akpor 5"},"geometry":{"type":"Point","coordinates":[7.07031,4.8371]}},{"type":"Feature","properties":{"name":"Abuloma Model Primary Health Center","kind":"clinic","ownership":"Public","level":"Primary","kind_detail":"Primary Health Center","lga":"Port-Harcourt","ward":"Port-Hartcourt 20"},"geometry":{"type":"Point","coordinates":[7.0603,4.77631]}},{"type":"Feature","properties":{"name":"Okuru Ama Primary Health Center","kind":"clinic","ownership":"Public","level":"Primary","kind_detail":"Primary Health Center","lga":"Port-Harcourt","ward":"Port-Hartcourt 20"},"geometry":{"type":"Point","coordinates":[7.05627,4.78473]}},{"type":"Feature","properties":{"name":"Military Hospital","kind":"clinic","ownership":"Public","level":"Secondary","kind_detail":"Unknown","lga":"Port-Harcourt","ward":"Port Harcourt 1"},"geometry":{"type":"Point","coordinates":[7.00353,4.82622]}},{"type":"Feature","properties":{"name":"Woji Model Primary Health Center","kind":"clinic","ownership":"Public","level":"Primary","kind_detail":"Primary Health Center","lga":"Obio/Akpor","ward":"Obio/Akpor 6"},"geometry":{"type":"Point","coordinates":[7.05908,4.81628]}},{"type":"Feature","properties":{"name":"Holy Child Maternity","kind":"clinic","ownership":"Unknown","level":"Primary","kind_detail":"Primary Health Clinic","lga":"Obio/Akpor","ward":"Obward 17"},"geometry":{"type":"Point","coordinates":[7.07233,4.82928]}},{"type":"Feature","properties":{"name":"Miracle Medical Center","kind":"clinic","ownership":"Unknown","level":"Primary","kind_detail":"Primary Health Clinic","lga":"Obio/Akpor","ward":"Obward 17"},"geometry":{"type":"Point","coordinates":[7.0675,4.84286]}},{"type":"Feature","properties":{"name":"Odadiki Eye Hospital","kind":"clinic","ownership":"Unknown","level":"Tertiary","kind_detail":"General Hospital","lga":"Port-Harcourt","ward":"Phward 17"},"geometry":{"type":"Point","coordinates":[7.00171,4.79132]}},{"type":"Feature","properties":{"name":"Datta Medical Center","kind":"clinic","ownership":"Unknown","level":"Primary","kind_detail":"Primary Health Clinic","lga":"Obio/Akpor","ward":"Obward 15"},"geometry":{"type":"Point","coordinates":[7.04413,4.83948]}},{"type":"Feature","properties":{"name":"Elspatal Clinic","kind":"clinic","ownership":"Unknown","level":"Primary","kind_detail":"Primary Health Center","lga":"Obio/Akpor","ward":"Obio/Akpor 16"},"geometry":{"type":"Point","coordinates":[6.91791,4.90393]}},{"type":"Feature","properties":{"name":"Palmers Clinic","kind":"clinic","ownership":"Unknown","level":"Primary","kind_detail":"Primary Health Center","lga":"Port-Harcourt","ward":"Phward 15"},"geometry":{"type":"Point","coordinates":[6.98132,4.81171]}},{"type":"Feature","properties":{"name":"Dapel Hospital","kind":"clinic","ownership":"Unknown","level":"Primary","kind_detail":"Primary Health Center","lga":"Obio/Akpor","ward":"Obio/Akpor 8"},"geometry":{"type":"Point","coordinates":[6.96851,4.85687]}},{"type":"Feature","properties":{"name":"Elbene Hospital","kind":"clinic","ownership":"Unknown","level":"Primary","kind_detail":"Primary Health Center","lga":"Obio/Akpor","ward":"Obio/Akpor 4"},"geometry":{"type":"Point","coordinates":[6.9751,4.82452]}},{"type":"Feature","properties":{"name":"Kekris Rumuwokerebe Maternity and Clinic","kind":"clinic","ownership":"Unknown","level":"Primary","kind_detail":"Primary Health Clinic","lga":"Obio/Akpor","ward":"Obward 17"},"geometry":{"type":"Point","coordinates":[7.063,4.87189]}},{"type":"Feature","properties":{"name":"Bundu Comprehensive Health Center","kind":"clinic","ownership":"Unknown","level":"Primary","kind_detail":"Primary Health Center","lga":"Port-Harcourt","ward":"Phward 3"},"geometry":{"type":"Point","coordinates":[7.01411,4.75236]}},{"type":"Feature","properties":{"name":"Benok Heroes Clinic","kind":"clinic","ownership":"Unknown","level":"Primary","kind_detail":"Primary Health Center","lga":"Obio/Akpor","ward":"Obio/Akpor 8"},"geometry":{"type":"Point","coordinates":[6.98431,4.84369]}},{"type":"Feature","properties":{"name":"Portharcourt Sick Bay","kind":"clinic","ownership":"Public","level":"Primary","kind_detail":"Primary Health Center","lga":"Port-Harcourt","ward":"Phward 3"},"geometry":{"type":"Point","coordinates":[7.01688,4.77031]}},{"type":"Feature","properties":{"name":"Sick Bay Obio Akpor","kind":"clinic","ownership":"Public","level":"Primary","kind_detail":"Primary Health Center","lga":"Obio/Akpor","ward":"Obio/Akpor 10"},"geometry":{"type":"Point","coordinates":[7.0001,4.8727]}},{"type":"Feature","properties":{"name":"Cee Maternity Clinic","kind":"clinic","ownership":"Unknown","level":"Primary","kind_detail":"Primary Health Clinic","lga":"Obio/Akpor","ward":"Obio/Akpor 11"},"geometry":{"type":"Point","coordinates":[6.98212,4.87927]}},{"type":"Feature","properties":{"name":"Rivon Clinic","kind":"clinic","ownership":"Unknown","level":"Primary","kind_detail":"Primary Health Center","lga":"Obio/Akpor","ward":"Obward 15"},"geometry":{"type":"Point","coordinates":[7.03387,4.84131]}},{"type":"Feature","properties":{"name":"Ust Medcenter","kind":"clinic","ownership":"Public","level":"Primary","kind_detail":"Primary Health Center","lga":"Port-Harcourt","ward":"Phward 15"},"geometry":{"type":"Point","coordinates":[6.97711,4.79492]}},{"type":"Feature","properties":{"name":"M and J Medical Services","kind":"clinic","ownership":"Unknown","level":"Primary","kind_detail":"Unknown","lga":"Obio/Akpor","ward":"Obio/Akpor 3"},"geometry":{"type":"Point","coordinates":[7.04056,4.90203]}},{"type":"Feature","properties":{"name":"Shalom Medical Consultants","kind":"clinic","ownership":"Unknown","level":"Primary","kind_detail":"Primary Health Center","lga":"Obio/Akpor","ward":"Obio/Akpor 11"},"geometry":{"type":"Point","coordinates":[6.98749,4.86792]}},{"type":"Feature","properties":{"name":"Pamo Clinic","kind":"clinic","ownership":"Unknown","level":"Primary","kind_detail":"Primary Health Center","lga":"Obio/Akpor","ward":"Obio/Akpor 14"},"geometry":{"type":"Point","coordinates":[7.02472,4.83771]}},{"type":"Feature","properties":{"name":"Fortune Medical Center","kind":"clinic","ownership":"Unknown","level":"Primary","kind_detail":"Primary Health Clinic","lga":"Port-Harcourt","ward":"Port-Hartcourt 11"},"geometry":{"type":"Point","coordinates":[7.02758,4.80381]}},{"type":"Feature","properties":{"name":"Kapina Hospital","kind":"clinic","ownership":"Unknown","level":"Primary","kind_detail":"Unknown","lga":"Obio/Akpor","ward":"Obio/Akpor 14"},"geometry":{"type":"Point","coordinates":[7.03192,4.83914]}},{"type":"Feature","properties":{"name":"Bona Dental Clinic","kind":"clinic","ownership":"Unknown","level":"Primary","kind_detail":"Unknown","lga":"Port-Harcourt","ward":"Port-Hartcourt 11"},"geometry":{"type":"Point","coordinates":[7.03389,4.80433]}},{"type":"Feature","properties":{"name":"Amexy Hospital","kind":"clinic","ownership":"Unknown","level":"Primary","kind_detail":"Unknown","lga":"Obio/Akpor","ward":"Obio/Akpor 11"},"geometry":{"type":"Point","coordinates":[7.00583,4.87225]}},{"type":"Feature","properties":{"name":"St Jude Rumueheleze Elelenwo Clinic","kind":"clinic","ownership":"Unknown","level":"Primary","kind_detail":"Unknown","lga":"Obio/Akpor","ward":"Obward 17"},"geometry":{"type":"Point","coordinates":[7.09053,4.85786]}},{"type":"Feature","properties":{"name":"St Patrick Ogbum Nu Abali Hospital","kind":"clinic","ownership":"Unknown","level":"Primary","kind_detail":"Unknown","lga":"Port-Harcourt","ward":"Port-Hartcourt 11"},"geometry":{"type":"Point","coordinates":[7.02053,4.80747]}},{"type":"Feature","properties":{"name":"Creek Hospital","kind":"clinic","ownership":"Unknown","level":"Primary","kind_detail":"Unknown","lga":"Port-Harcourt","ward":"Port-Hartcourt 4"},"geometry":{"type":"Point","coordinates":[7.02161,4.78114]}},{"type":"Feature","properties":{"name":"Braithwaite Memo Specialist Hospital","kind":"clinic","ownership":"Unknown","level":"Tertiary","kind_detail":"General Hospital","lga":"Port-Harcourt","ward":"Port-Hartcourt 4"},"geometry":{"type":"Point","coordinates":[7.02425,4.78867]}},{"type":"Feature","properties":{"name":"Paragon and Imaging Oromeruzimgbu Clinic","kind":"clinic","ownership":"Unknown","level":"Primary","kind_detail":"Unknown","lga":"Obio/Akpor","ward":"Obio/Akpor 14"},"geometry":{"type":"Point","coordinates":[7.02533,4.83381]}},{"type":"Feature","properties":{"name":"Potters Touch Specialist Clinic","kind":"clinic","ownership":"Unknown","level":"Tertiary","kind_detail":"General Hospital","lga":"Obio/Akpor","ward":"Obio/Akpor 11"},"geometry":{"type":"Point","coordinates":[6.96509,4.8855]}},{"type":"Feature","properties":{"name":"Gods Gift Clinic and Maternity","kind":"clinic","ownership":"Unknown","level":"Primary","kind_detail":"Primary Health Clinic","lga":"Obio/Akpor","ward":"Obward 17"},"geometry":{"type":"Point","coordinates":[7.06488,4.8501]}},{"type":"Feature","properties":{"name":"St Joseph'S Clinic","kind":"clinic","ownership":"Unknown","level":"Primary","kind_detail":"Primary Health Center","lga":"Obio/Akpor","ward":"Obio/Akpor 13"},"geometry":{"type":"Point","coordinates":[6.94849,4.81232]}},{"type":"Feature","properties":{"name":"St Anthonys Jc Clinic","kind":"clinic","ownership":"Unknown","level":"Primary","kind_detail":"Primary Health Center","lga":"Obio/Akpor","ward":"Obward 17"},"geometry":{"type":"Point","coordinates":[7.06848,4.84711]}},{"type":"Feature","properties":{"name":"Egbelu Akami Health Center","kind":"clinic","ownership":"Unknown","level":"Primary","kind_detail":"Primary Health Center","lga":"Obio/Akpor","ward":"Obio/Akpor 2"},"geometry":{"type":"Point","coordinates":[6.94128,4.84967]}},{"type":"Feature","properties":{"name":"Queen Esther Specialist Hospital","kind":"clinic","ownership":"Unknown","level":"Tertiary","kind_detail":"General Hospital","lga":"Port-Harcourt","ward":"Port-Hartcourt 6"},"geometry":{"type":"Point","coordinates":[6.99127,4.79309]}},{"type":"Feature","properties":{"name":"Nova Maternity","kind":"clinic","ownership":"Unknown","level":"Primary","kind_detail":"Primary Health Clinic","lga":"Port-Harcourt","ward":"Port Harcourt 1"},"geometry":{"type":"Point","coordinates":[7.05011,4.80188]}},{"type":"Feature","properties":{"name":"Amegain Clinic and Maternity","kind":"clinic","ownership":"Unknown","level":"Primary","kind_detail":"Primary Health Clinic","lga":"Obio/Akpor","ward":"Obward 17"},"geometry":{"type":"Point","coordinates":[7.06628,4.84369]}},{"type":"Feature","properties":{"name":"Police Comprehensive Health Center","kind":"clinic","ownership":"Unknown","level":"Primary","kind_detail":"Primary Health Center","lga":"Port-Harcourt","ward":"Phward 3"},"geometry":{"type":"Point","coordinates":[7.0163,4.77148]}},{"type":"Feature","properties":{"name":"Maryland Health Care","kind":"clinic","ownership":"Unknown","level":"Primary","kind_detail":"Primary Health Center","lga":"Obio/Akpor","ward":"Obio/Akpor 12"},"geometry":{"type":"Point","coordinates":[7.05652,4.85248]}},{"type":"Feature","properties":{"name":"Crusanta Solace Maternity Clinic","kind":"clinic","ownership":"Unknown","level":"Primary","kind_detail":"Primary Health Clinic","lga":"Obio/Akpor","ward":"Obio/Akpor 16"},"geometry":{"type":"Point","coordinates":[6.90509,4.88232]}},{"type":"Feature","properties":{"name":"Pemag Clinic and Maternity","kind":"clinic","ownership":"Unknown","level":"Primary","kind_detail":"Primary Health Clinic","lga":"Obio/Akpor","ward":"Obio/Akpor 16"},"geometry":{"type":"Point","coordinates":[6.94067,4.88232]}},{"type":"Feature","properties":{"name":"Harley Port Harcourt Clinic and Maternity","kind":"clinic","ownership":"Unknown","level":"Primary","kind_detail":"Primary Health Clinic","lga":"Obio/Akpor","ward":"Obio/Akpor 5"},"geometry":{"type":"Point","coordinates":[6.99109,4.83008]}},{"type":"Feature","properties":{"name":"St Elizabeth Specialist Hospital","kind":"clinic","ownership":"Unknown","level":"Tertiary","kind_detail":"General Hospital","lga":"Obio/Akpor","ward":"Obio/Akpor 8"},"geometry":{"type":"Point","coordinates":[6.96631,4.86212]}},{"type":"Feature","properties":{"name":"Els Hospital","kind":"clinic","ownership":"Unknown","level":"Primary","kind_detail":"Unknown","lga":"Obio/Akpor","ward":"Obio/Akpor 11"},"geometry":{"type":"Point","coordinates":[7.02008,4.8609]}},{"type":"Feature","properties":{"name":"Dd Eye Clinic","kind":"clinic","ownership":"Unknown","level":"Tertiary","kind_detail":"General Hospital","lga":"Port-Harcourt","ward":"Port Harcourt 1"},"geometry":{"type":"Point","coordinates":[7.0249,4.79633]}},{"type":"Feature","properties":{"name":"Nnpc Clinic","kind":"clinic","ownership":"Unknown","level":"Secondary","kind_detail":"Unknown","lga":"Port-Harcourt","ward":"Port-Hartcourt 2"},"geometry":{"type":"Point","coordinates":[7.00848,4.81708]}},{"type":"Feature","properties":{"name":"Kekris Ltd Hospital","kind":"clinic","ownership":"Unknown","level":"Primary","kind_detail":"Primary Health Center","lga":"Obio/Akpor","ward":"Obio/Akpor 12"},"geometry":{"type":"Point","coordinates":[7.05847,4.8623]}},{"type":"Feature","properties":{"name":"St Vincent Hospital","kind":"clinic","ownership":"Unknown","level":"Primary","kind_detail":"Primary Health Center","lga":"Obio/Akpor","ward":"Obio/Akpor 4"},"geometry":{"type":"Point","coordinates":[6.95587,4.82147]}},{"type":"Feature","properties":{"name":"Navy Medical Center","kind":"clinic","ownership":"Unknown","level":"Secondary","kind_detail":"Unknown","lga":"Obio/Akpor","ward":"Obio/Akpor 13"},"geometry":{"type":"Point","coordinates":[6.94928,4.78912]}},{"type":"Feature","properties":{"name":"Nyekachi Clinic","kind":"clinic","ownership":"Unknown","level":"Primary","kind_detail":"Primary Health Center","lga":"Obio/Akpor","ward":"Obio/Akpor 4"},"geometry":{"type":"Point","coordinates":[6.9729,4.82813]}},{"type":"Feature","properties":{"name":"Agic Staff Clinic","kind":"clinic","ownership":"Unknown","level":"Secondary","kind_detail":"Unknown","lga":"Obio/Akpor","ward":"Obio/Akpor 5"},"geometry":{"type":"Point","coordinates":[6.97552,4.80109]}},{"type":"Feature","properties":{"name":"Nelpan Korea Medical Center","kind":"clinic","ownership":"Unknown","level":"Primary","kind_detail":"Primary Health Clinic","lga":"Obio/Akpor","ward":"Obward 15"},"geometry":{"type":"Point","coordinates":[7.04828,4.8443]}},{"type":"Feature","properties":{"name":"Speed Health Hospital","kind":"clinic","ownership":"Unknown","level":"Primary","kind_detail":"Primary Health Center","lga":"Obio/Akpor","ward":"Obio/Akpor 4"},"geometry":{"type":"Point","coordinates":[6.96368,4.83148]}},{"type":"Feature","properties":{"name":"Triumph Clinic","kind":"clinic","ownership":"Unknown","level":"Primary","kind_detail":"Primary Health Center","lga":"Obio/Akpor","ward":"Obward 15"},"geometry":{"type":"Point","coordinates":[7.03809,4.83893]}},{"type":"Feature","properties":{"name":"Ancilla and Eye Medical Clinic","kind":"clinic","ownership":"Unknown","level":"Tertiary","kind_detail":"General Hospital","lga":"Obio/Akpor","ward":"Obio/Akpor 12"},"geometry":{"type":"Point","coordinates":[7.06012,4.85712]}},{"type":"Feature","properties":{"name":"Seiyefa Clinic","kind":"clinic","ownership":"Unknown","level":"Primary","kind_detail":"Primary Health Center","lga":"Port-Harcourt","ward":"Port-Hartcourt 5"},"geometry":{"type":"Point","coordinates":[7.03912,4.7547]}},{"type":"Feature","properties":{"name":"Amazing Grace Clinic","kind":"clinic","ownership":"Unknown","level":"Primary","kind_detail":"Primary Health Center","lga":"Obio/Akpor","ward":"Obio/Akpor 10"},"geometry":{"type":"Point","coordinates":[7.0033,4.88232]}},{"type":"Feature","properties":{"name":"Grace Memorial Clinic","kind":"clinic","ownership":"Unknown","level":"Primary","kind_detail":"Primary Health Center","lga":"Obio/Akpor","ward":"Obward 17"},"geometry":{"type":"Point","coordinates":[7.07031,4.83807]}},{"type":"Feature","properties":{"name":"Oparali Health Center","kind":"clinic","ownership":"Unknown","level":"Primary","kind_detail":"Primary Health Center","lga":"Obio/Akpor","ward":"Obio/Akpor 16"},"geometry":{"type":"Point","coordinates":[6.90912,4.86829]}},{"type":"Feature","properties":{"name":"Nobsams Hospital","kind":"clinic","ownership":"Unknown","level":"Primary","kind_detail":"Primary Health Center","lga":"Obio/Akpor","ward":"Obward 15"},"geometry":{"type":"Point","coordinates":[7.03668,4.82867]}},{"type":"Feature","properties":{"name":"Mount Harmon Hospital","kind":"clinic","ownership":"Unknown","level":"Primary","kind_detail":"Primary Health Center","lga":"Obio/Akpor","ward":"Obio/Akpor 8"},"geometry":{"type":"Point","coordinates":[6.95947,4.8681]}},{"type":"Feature","properties":{"name":"2Nd Brigade Medical Center","kind":"clinic","ownership":"Unknown","level":"Secondary","kind_detail":"Unknown","lga":"Obio/Akpor","ward":"Obio/Akpor 11"},"geometry":{"type":"Point","coordinates":[7.00653,4.85992]}},{"type":"Feature","properties":{"name":"Queens Clinic","kind":"clinic","ownership":"Unknown","level":"Primary","kind_detail":"Primary Health Center","lga":"Obio/Akpor","ward":"Obio/Akpor 4"},"geometry":{"type":"Point","coordinates":[6.97809,4.8299]}},{"type":"Feature","properties":{"name":"Fountains Hospital","kind":"clinic","ownership":"Unknown","level":"Primary","kind_detail":"Primary Health Center","lga":"Obio/Akpor","ward":"Obio/Akpor 2"},"geometry":{"type":"Point","coordinates":[6.92712,4.8717]}},{"type":"Feature","properties":{"name":"Obward Image Diagnostics","kind":"clinic","ownership":"Unknown","level":"Primary","kind_detail":"Unknown","lga":"Obio/Akpor","ward":"Obio/Akpor 5"},"geometry":{"type":"Point","coordinates":[6.9953,4.83173]}},{"type":"Feature","properties":{"name":"Linsolar Eye Clinic","kind":"clinic","ownership":"Unknown","level":"Tertiary","kind_detail":"General Hospital","lga":"Obio/Akpor","ward":"Obio/Akpor 8"},"geometry":{"type":"Point","coordinates":[6.9729,4.85529]}},{"type":"Feature","properties":{"name":"Silver Hospital","kind":"clinic","ownership":"Unknown","level":"Primary","kind_detail":"Primary Health Center","lga":"Obio/Akpor","ward":"Obio/Akpor 6"},"geometry":{"type":"Point","coordinates":[6.97711,4.82928]}},{"type":"Feature","properties":{"name":"Morrison Lawson Memorial Clinic","kind":"clinic","ownership":"Unknown","level":"Primary","kind_detail":"Primary Health Center","lga":"Obio/Akpor","ward":"Obio/Akpor 16"},"geometry":{"type":"Point","coordinates":[6.93652,4.87128]}},{"type":"Feature","properties":{"name":"Dcl Laboratory Medical Center","kind":"clinic","ownership":"Unknown","level":"Primary","kind_detail":"Unknown","lga":"Obio/Akpor","ward":"Obio/Akpor 11"},"geometry":{"type":"Point","coordinates":[6.99152,4.86829]}},{"type":"Feature","properties":{"name":"Beracah Clinic","kind":"clinic","ownership":"Unknown","level":"Primary","kind_detail":"Primary Health Center","lga":"Obio/Akpor","ward":"Obio/Akpor 11"},"geometry":{"type":"Point","coordinates":[6.9845,4.87708]}},{"type":"Feature","properties":{"name":"Caprin Hospital","kind":"clinic","ownership":"Unknown","level":"Primary","kind_detail":"Primary Health Center","lga":"Obio/Akpor","ward":"Obio/Akpor 11"},"geometry":{"type":"Point","coordinates":[6.99689,4.86792]}},{"type":"Feature","properties":{"name":"Akpor Primary Health Care Center","kind":"clinic","ownership":"Unknown","level":"Primary","kind_detail":"Primary Health Center","lga":"Obio/Akpor","ward":"Obio/Akpor 16"},"geometry":{"type":"Point","coordinates":[6.93091,4.8725]}},{"type":"Feature","properties":{"name":"Hilton Clinic","kind":"clinic","ownership":"Unknown","level":"Primary","kind_detail":"Primary Health Center","lga":"Obio/Akpor","ward":"Obio/Akpor 4"},"geometry":{"type":"Point","coordinates":[6.97571,4.83032]}},{"type":"Feature","properties":{"name":"Victory Valley Clinic","kind":"clinic","ownership":"Unknown","level":"Primary","kind_detail":"Primary Health Center","lga":"Obio/Akpor","ward":"Obio/Akpor 4"},"geometry":{"type":"Point","coordinates":[6.98389,4.8327]}},{"type":"Feature","properties":{"name":"Good News Winners Hospital","kind":"clinic","ownership":"Unknown","level":"Primary","kind_detail":"Primary Health Center","lga":"Obio/Akpor","ward":"Obio/Akpor 11"},"geometry":{"type":"Point","coordinates":[6.99872,4.86987]}},{"type":"Feature","properties":{"name":"Rosivlylee Clinic","kind":"clinic","ownership":"Unknown","level":"Primary","kind_detail":"Primary Health Center","lga":"Obio/Akpor","ward":"Obio/Akpor 8"},"geometry":{"type":"Point","coordinates":[6.96912,4.86212]}},{"type":"Feature","properties":{"name":"Truevine Special Clinic","kind":"clinic","ownership":"Unknown","level":"Primary","kind_detail":"Primary Health Center","lga":"Obio/Akpor","ward":"Obio/Akpor 7"},"geometry":{"type":"Point","coordinates":[6.99469,4.83569]}},{"type":"Feature","properties":{"name":"Abebe Saint Martha Hospital","kind":"clinic","ownership":"Unknown","level":"Primary","kind_detail":"Primary Health Center","lga":"Obio/Akpor","ward":"Obio/Akpor 16"},"geometry":{"type":"Point","coordinates":[6.90509,4.88348]}},{"type":"Feature","properties":{"name":"Sonabel Medical Center","kind":"clinic","ownership":"Unknown","level":"Primary","kind_detail":"Primary Health Clinic","lga":"Obio/Akpor","ward":"Obio/Akpor 5"},"geometry":{"type":"Point","coordinates":[6.98328,4.82831]}},{"type":"Feature","properties":{"name":"Richimok Hospital","kind":"clinic","ownership":"Private","level":"Primary","kind_detail":"Primary Health Center","lga":"Obio/Akpor","ward":"Obio/Akpor 8"},"geometry":{"type":"Point","coordinates":[6.9765,4.85211]}},{"type":"Feature","properties":{"name":"Support For Africa","kind":"clinic","ownership":"Private","level":"Primary","kind_detail":"Unknown","lga":"Obio/Akpor","ward":"Obio/Akpor 12"},"geometry":{"type":"Point","coordinates":[7.05353,4.86151]}},{"type":"Feature","properties":{"name":"Police Medical Clinic","kind":"clinic","ownership":"Unknown","level":"Secondary","kind_detail":"Unknown","lga":"Port-Harcourt","ward":"Phward 17"},"geometry":{"type":"Point","coordinates":[7.00383,4.78853]}},{"type":"Feature","properties":{"name":"Choba Health Post","kind":"clinic","ownership":"Public","level":"Primary","kind_detail":"Health Post","lga":"Obio/Akpor","ward":"Obio/Akpor 2"},"geometry":{"type":"Point","coordinates":[6.92855,4.85031]}},{"type":"Feature","properties":{"name":"Abuloma Primary Health Center","kind":"clinic","ownership":"Public","level":"Primary","kind_detail":"Primary Health Center","lga":"Port-Harcourt","ward":"Port Harcourt 1"},"geometry":{"type":"Point","coordinates":[7.04421,4.78423]}},{"type":"Feature","properties":{"name":"St Marys Woji Hospital and Maternity","kind":"clinic","ownership":"Unknown","level":"Primary","kind_detail":"Primary Health Clinic","lga":"Obio/Akpor","ward":"Obward 15"},"geometry":{"type":"Point","coordinates":[7.05908,4.83403]}},{"type":"Feature","properties":{"name":"O B Lulu Briggs Uniport Choba Health Center","kind":"clinic","ownership":"Unknown","level":"Primary","kind_detail":"Primary Health Center","lga":"Obio/Akpor","ward":"Obio/Akpor 16"},"geometry":{"type":"Point","coordinates":[6.91494,4.90333]}},{"type":"Feature","properties":{"name":"Rumuwike Primary Health Care","kind":"clinic","ownership":"Unknown","level":"Primary","kind_detail":"Primary Health Center","lga":"Obio/Akpor","ward":"Obio/Akpor 2"},"geometry":{"type":"Point","coordinates":[6.92561,4.83605]}},{"type":"Feature","properties":{"name":"Eneka Comprehensive Health Center","kind":"clinic","ownership":"Unknown","level":"Primary","kind_detail":"Primary Health Center","lga":"Obio/Akpor","ward":"Obio/Akpor 1"},"geometry":{"type":"Point","coordinates":[7.0425,4.88933]}},{"type":"Feature","properties":{"name":"Abishola Clinic and Maternity","kind":"clinic","ownership":"Unknown","level":"Primary","kind_detail":"Primary Health Clinic","lga":"Obio/Akpor","ward":"Obio/Akpor 12"},"geometry":{"type":"Point","coordinates":[7.06,4.85806]}},{"type":"Feature","properties":{"name":"New Layout Primary Health Center","kind":"clinic","ownership":"Unknown","level":"Primary","kind_detail":"Primary Health Center","lga":"Port-Harcourt","ward":"Port-Hartcourt 5"},"geometry":{"type":"Point","coordinates":[7.03603,4.76411]}},{"type":"Feature","properties":{"name":"Prime Medical Centre","kind":"clinic","ownership":"Unknown","level":"Primary","kind_detail":"Primary Health Clinic","lga":"Obio/Akpor","ward":"Obio/Akpor 12"},"geometry":{"type":"Point","coordinates":[7.03387,4.84692]}},{"type":"Feature","properties":{"name":"Lavinda Eye Specialist Hospital and Laser Centre","kind":"clinic","ownership":"Unknown","level":"Tertiary","kind_detail":"General Hospital","lga":"Port-Harcourt","ward":"Port Harcourt 1"},"geometry":{"type":"Point","coordinates":[7.04352,4.79388]}},{"type":"Feature","properties":{"name":"Calvary Hospital","kind":"clinic","ownership":"Private","level":"Primary","kind_detail":"Unknown","lga":"Obio/Akpor","ward":"Unknown"},"geometry":{"type":"Point","coordinates":[6.99154,4.8315]}},{"type":"Feature","properties":{"name":"Care Women Clinic","kind":"clinic","ownership":"Private","level":"Tertiary","kind_detail":"Specialized Hospital","lga":"Port-Harcourt","ward":"Port-Hartcourt 20"},"geometry":{"type":"Point","coordinates":[7.00898,4.79823]}},{"type":"Feature","properties":{"name":"Life Forte Hospital Specialist","kind":"clinic","ownership":"Private","level":"Tertiary","kind_detail":"Specialized Hospital","lga":"Obio/Akpor","ward":"Obio/Akpor 6"},"geometry":{"type":"Point","coordinates":[6.95413,4.81776]}},{"type":"Feature","properties":{"name":"Rumueme College Of Science Technology Demonstration Health Clinic","kind":"clinic","ownership":"Public","level":"Primary","kind_detail":"Primary Health Center","lga":"Obio/Akpor","ward":"Obio/Akpor 10"},"geometry":{"type":"Point","coordinates":[6.98366,4.81761]}},{"type":"Feature","properties":{"name":"Rahi Limited Medical Hospital","kind":"clinic","ownership":"Private","level":"Secondary","kind_detail":"Unknown","lga":"Obio/Akpor","ward":"Obio/Akpor 15"},"geometry":{"type":"Point","coordinates":[6.941,4.8789]}},{"type":"Feature","properties":{"name":"Tehilah Children Hospital","kind":"clinic","ownership":"Private","level":"Secondary","kind_detail":"Unknown","lga":"Port-Harcourt","ward":"Port-Hartcourt 20"},"geometry":{"type":"Point","coordinates":[7.04039,4.79424]}},{"type":"Feature","properties":{"name":"Nimley Clinic","kind":"clinic","ownership":"Private","level":"Secondary","kind_detail":"Unknown","lga":"Port-Harcourt","ward":"Port-Harcourt 7"},"geometry":{"type":"Point","coordinates":[7.03559,4.75825]}},{"type":"Feature","properties":{"name":"Meridian Hospital","kind":"clinic","ownership":"Private","level":"Secondary","kind_detail":"Unknown","lga":"Port-Harcourt","ward":"Port Harcourt 1"},"geometry":{"type":"Point","coordinates":[6.99773,4.80123]}},{"type":"Feature","properties":{"name":"Princess Nigeria Limited Medical Clinic","kind":"clinic","ownership":"Private","level":"Secondary","kind_detail":"Unknown","lga":"Port-Harcourt","ward":"Port-Hartcourt 20"},"geometry":{"type":"Point","coordinates":[7.01869,4.80851]}},{"type":"Feature","properties":{"name":"Prof Kelsey Harrison Hospital","kind":"clinic","ownership":"Private","level":"Secondary","kind_detail":"Unknown","lga":"Port-Harcourt","ward":"Port-Hartcourt 13"},"geometry":{"type":"Point","coordinates":[6.99424,4.79117]}},{"type":"Feature","properties":{"name":"Franca Memorial Clinic","kind":"clinic","ownership":"Private","level":"Primary","kind_detail":"Primary Health Clinic","lga":"Port-Harcourt","ward":"Port-Hartcourt 2"},"geometry":{"type":"Point","coordinates":[7.00743,4.80188]}},{"type":"Feature","properties":{"name":"Civil Servants Clinic","kind":"clinic","ownership":"Public","level":"Primary","kind_detail":"Primary Health Clinic","lga":"Port-Harcourt","ward":"Port-Hartcourt 4"},"geometry":{"type":"Point","coordinates":[7.01807,4.76976]}},{"type":"Feature","properties":{"name":"Chiji Man Hospital Specialist","kind":"clinic","ownership":"Private","level":"Secondary","kind_detail":"Unknown","lga":"Port-Harcourt","ward":"Port-Hartcourt 16"},"geometry":{"type":"Point","coordinates":[6.98972,4.79792]}},{"type":"Feature","properties":{"name":"Prof Nimi Briggs Hospital","kind":"clinic","ownership":"Public","level":"Primary","kind_detail":"Primary Health Center","lga":"Port-Harcourt","ward":"Port-Hartcourt 18"},"geometry":{"type":"Point","coordinates":[6.97915,4.79742]}},{"type":"Feature","properties":{"name":"Just Hope Hospital","kind":"clinic","ownership":"Private","level":"Secondary","kind_detail":"Unknown","lga":"Port-Harcourt","ward":"Port-Hartcourt 20"},"geometry":{"type":"Point","coordinates":[7.05947,4.77913]}},{"type":"Feature","properties":{"name":"Sterling Hospital Specialist","kind":"clinic","ownership":"Private","level":"Secondary","kind_detail":"Unknown","lga":"Port-Harcourt","ward":"Port-Harcourt 7"},"geometry":{"type":"Point","coordinates":[7.03462,4.7575]}},{"type":"Feature","properties":{"name":"Stevenson Medicare Ltd","kind":"clinic","ownership":"Private","level":"Secondary","kind_detail":"Unknown","lga":"Port-Harcourt","ward":"Port-Hartcourt 20"},"geometry":{"type":"Point","coordinates":[7.03974,4.79192]}},{"type":"Feature","properties":{"name":"St Martins Hospital","kind":"clinic","ownership":"Private","level":"Secondary","kind_detail":"Unknown","lga":"Port-Harcourt","ward":"Port-Hartcourt 19"},"geometry":{"type":"Point","coordinates":[7.01574,4.82386]}},{"type":"Feature","properties":{"name":"Westhill Medical Services","kind":"clinic","ownership":"Private","level":"Secondary","kind_detail":"Unknown","lga":"Port-Harcourt","ward":"Port Harcourt 1"},"geometry":{"type":"Point","coordinates":[7.00091,4.80444]}},{"type":"Feature","properties":{"name":"Paragon Imaging Clinic","kind":"clinic","ownership":"Private","level":"Secondary","kind_detail":"Unknown","lga":"Port-Harcourt","ward":"Port-Hartcourt 19"},"geometry":{"type":"Point","coordinates":[7.01507,4.82696]}},{"type":"Feature","properties":{"name":"Ansett Diagnostics Hospital Specialist","kind":"clinic","ownership":"Private","level":"Secondary","kind_detail":"Unknown","lga":"Obio/Akpor","ward":"Obio/Akpor 8"},"geometry":{"type":"Point","coordinates":[7.03815,4.82932]}},{"type":"Feature","properties":{"name":"Ebony Hospital","kind":"clinic","ownership":"Private","level":"Secondary","kind_detail":"Unknown","lga":"Obio/Akpor","ward":"Obio/Akpor 13"},"geometry":{"type":"Point","coordinates":[6.99151,4.83441]}},{"type":"Feature","properties":{"name":"La Rosa Clinic","kind":"clinic","ownership":"Private","level":"Secondary","kind_detail":"Unknown","lga":"Port-Harcourt","ward":"Port-Hartcourt 13"},"geometry":{"type":"Point","coordinates":[6.98625,4.79591]}},{"type":"Feature","properties":{"name":"Rohoboth Specialist Clinic","kind":"clinic","ownership":"Private","level":"Secondary","kind_detail":"Unknown","lga":"Port-Harcourt","ward":"Unknown"},"geometry":{"type":"Point","coordinates":[6.99984,4.7976]}},{"type":"Feature","properties":{"name":"Marina Hospital Specialist","kind":"clinic","ownership":"Private","level":"Secondary","kind_detail":"Unknown","lga":"Port-Harcourt","ward":"Port-Hartcourt 2"},"geometry":{"type":"Point","coordinates":[7.01423,4.79757]}},{"type":"Feature","properties":{"name":"Oliver Clinic","kind":"clinic","ownership":"Private","level":"Primary","kind_detail":"Unknown","lga":"Port-Harcourt","ward":"Unknown"},"geometry":{"type":"Point","coordinates":[7.01217,4.80546]}},{"type":"Feature","properties":{"name":"Providence Hospital","kind":"clinic","ownership":"Private","level":"Secondary","kind_detail":"Unknown","lga":"Port-Harcourt","ward":"Unknown"},"geometry":{"type":"Point","coordinates":[7.00761,4.80725]}},{"type":"Feature","properties":{"name":"Wise Health Hospital","kind":"clinic","ownership":"Private","level":"Secondary","kind_detail":"Unknown","lga":"Port-Harcourt","ward":"Port-Hartcourt 11"},"geometry":{"type":"Point","coordinates":[7.00169,4.79375]}},{"type":"Feature","properties":{"name":"Mgbuoshimini Rumueme Model Primary Health Center","kind":"clinic","ownership":"Public","level":"Primary","kind_detail":"Primary Health Center","lga":"Obio/Akpor","ward":"Obio/Akpor 10"},"geometry":{"type":"Point","coordinates":[6.97616,4.80331]}},{"type":"Feature","properties":{"name":"Greencare Medical Consultants","kind":"clinic","ownership":"Private","level":"Secondary","kind_detail":"Unknown","lga":"Obio/Akpor","ward":"Obio/Akpor 12"},"geometry":{"type":"Point","coordinates":[6.98248,4.85354]}},{"type":"Feature","properties":{"name":"April Hospital","kind":"clinic","ownership":"Private","level":"Secondary","kind_detail":"Unknown","lga":"Obio/Akpor","ward":"Obio/Akpor 16"},"geometry":{"type":"Point","coordinates":[6.94195,4.86999]}}]}