{"type":"FeatureCollection","features":[{"type":"Feature","properties":{"name":"Choba","label":"Choba","place":"suburb","rank":10,"pinned":1,"priority":10,"always":0},"geometry":{"type":"Point","coordinates":[6.90399,4.88725]}},{"type":"Feature","properties":{"name":"Mgbesilaru","label":"Mgbesilaru","place":"ward","rank":10,"pinned":1,"priority":10,"always":0},"geometry":{"type":"Point","coordinates":[7.05695,4.85813]}},{"type":"Feature","properties":{"name":"Mgbu Ogodoni","label":"Mgbu Ogodoni","place":"ward","rank":10,"pinned":1,"priority":10,"always":0},"geometry":{"type":"Point","coordinates":[6.97975,4.83213]}},{"type":"Feature","properties":{"name":"Rumuolata","label":"Rumuolata","place":"ward","rank":10,"pinned":1,"priority":10,"always":0},"geometry":{"type":"Point","coordinates":[6.92968,4.86995]}},{"type":"Feature","properties":{"name":"Rumuo Darawere","label":"Rumuo Darawere","place":"ward","rank":10,"pinned":1,"priority":10,"always":0},"geometry":{"type":"Point","coordinates":[6.98598,4.83757]}},{"type":"Feature","properties":{"name":"Rumuepirikom","label":"Rumuepirikom","place":"ward","rank":10,"pinned":1,"priority":10,"always":0},"geometry":{"type":"Point","coordinates":[6.97976,4.82671]}},{"type":"Feature","properties":{"name":"Nkpolu Orowo","label":"Nkpolu Orowo","place":"ward","rank":10,"pinned":1,"priority":10,"always":0},"geometry":{"type":"Point","coordinates":[7.003,4.80101]}},{"type":"Feature","properties":{"name":"Rukpakwolosi","label":"Rukpakwolosi","place":"ward","rank":10,"pinned":1,"priority":10,"always":0},"geometry":{"type":"Point","coordinates":[6.98507,4.88023]}},{"type":"Feature","properties":{"name":"Tere Ama Femie","label":"Tere Ama Femie","place":"ward","rank":10,"pinned":1,"priority":10,"always":0},"geometry":{"type":"Point","coordinates":[7.04671,4.77629]}},{"type":"Feature","properties":{"name":"Rumuodunwere","label":"Rumuodunwere","place":"ward","rank":10,"pinned":1,"priority":10,"always":0},"geometry":{"type":"Point","coordinates":[7.07552,4.85704]}},{"type":"Feature","properties":{"name":"Egberuukwu Oyigbo","label":"Oyigbo","place":"ward","rank":10,"pinned":1,"priority":10,"always":0},"geometry":{"type":"Point","coordinates":[7.08306,4.8813]}},{"type":"Feature","properties":{"name":"Harbour","label":"Harbour","place":"ward","rank":10,"pinned":1,"priority":10,"always":0},"geometry":{"type":"Point","coordinates":[7.00565,4.75713]}},{"type":"Feature","properties":{"name":"Rumuehienwota","label":"Rumuehienwota","place":"ward","rank":10,"pinned":1,"priority":10,"always":0},"geometry":{"type":"Point","coordinates":[6.99599,4.88356]}},{"type":"Feature","properties":{"name":"Rumuohihe","label":"Rumuohihe","place":"ward","rank":10,"pinned":1,"priority":10,"always":0},"geometry":{"type":"Point","coordinates":[7.00006,4.8444]}},{"type":"Feature","properties":{"name":"Mgbuosimini","label":"Mgbuosimini","place":"ward","rank":10,"pinned":1,"priority":10,"always":0},"geometry":{"type":"Point","coordinates":[6.96748,4.81121]}},{"type":"Feature","properties":{"name":"Old GRA","label":"Old GRA","place":"quarter","rank":9,"pinned":1,"priority":10,"always":1},"geometry":{"type":"Point","coordinates":[7.00328,4.79242]}},{"type":"Feature","properties":{"name":"Rumuomasi","label":"Rumuomasi","place":"neighbourhood","rank":8,"pinned":1,"priority":10,"always":0},"geometry":{"type":"Point","coordinates":[7.0258,4.83362]}},{"type":"Feature","properties":{"name":"Trans Amadi","label":"Trans Amadi","place":"locality","rank":8,"pinned":1,"priority":10,"always":0},"geometry":{"type":"Point","coordinates":[7.03047,4.81133]}},{"type":"Feature","properties":{"name":"Rumuoji Eneka","label":"Rumuoji Eneka","place":"locality","rank":8,"pinned":1,"priority":10,"always":0},"geometry":{"type":"Point","coordinates":[7.01575,4.91141]}},{"type":"Feature","properties":{"name":"Rumunduru","label":"Rumunduru","place":"locality","rank":8,"pinned":1,"priority":10,"always":0},"geometry":{"type":"Point","coordinates":[7.05694,4.86355]}},{"type":"Feature","properties":{"name":"Mgbu Minkpiti","label":"Mgbu Minkpiti","place":"locality","rank":8,"pinned":1,"priority":10,"always":0},"geometry":{"type":"Point","coordinates":[6.9556,4.81714]}},{"type":"Feature","properties":{"name":"Eagle Island","label":"Eagle Island","place":"locality","rank":8,"pinned":1,"priority":10,"always":0},"geometry":{"type":"Point","coordinates":[6.97981,4.81043]}},{"type":"Feature","properties":{"name":"Orogbum","label":"Orogbum","place":"locality","rank":8,"pinned":1,"priority":10,"always":1},"geometry":{"type":"Point","coordinates":[7.00819,4.80374]}},{"type":"Feature","properties":{"name":"Alakahia","label":"Alakahia","place":"locality","rank":8,"pinned":1,"priority":10,"always":0},"geometry":{"type":"Point","coordinates":[6.94214,4.87813]}},{"type":"Feature","properties":{"name":"Township VI","label":"Township VI","place":"locality","rank":8,"pinned":1,"priority":10,"always":1},"geometry":{"type":"Point","coordinates":[6.99274,4.79488]}},{"type":"Feature","properties":{"name":"Rumuwoji II","label":"Rumuwoji II","place":"locality","rank":8,"pinned":1,"priority":10,"always":1},"geometry":{"type":"Point","coordinates":[6.99313,4.79284]}},{"type":"Feature","properties":{"name":"Rumuwoji III","label":"Rumuwoji III","place":"locality","rank":8,"pinned":1,"priority":10,"always":1},"geometry":{"type":"Point","coordinates":[6.99001,4.79283]}},{"type":"Feature","properties":{"name":"Diobu","label":"Diobu","place":"village","rank":5,"pinned":1,"priority":10,"always":1},"geometry":{"type":"Point","coordinates":[7.00768,4.80102]}},{"type":"Feature","properties":{"name":"Eneka","label":"Eneka","place":"village","rank":5,"pinned":1,"priority":10,"always":0},"geometry":{"type":"Point","coordinates":[7.03331,4.89971]}},{"type":"Feature","properties":{"name":"Rumuokoro","label":"Rumuokoro","place":"village","rank":5,"pinned":1,"priority":10,"always":0},"geometry":{"type":"Point","coordinates":[6.99759,4.8688]}},{"type":"Feature","properties":{"name":"Woji","label":"Woji","place":"village","rank":5,"pinned":1,"priority":10,"always":0},"geometry":{"type":"Point","coordinates":[7.0502,4.82719]}},{"type":"Feature","properties":{"name":"Rumuola","label":"Rumuola","place":"locality","rank":8,"pinned":1,"priority":8,"always":0},"geometry":{"type":"Point","coordinates":[6.99906,4.83683]}}]}