{"type":"FeatureCollection","features":[{"type":"Feature","properties":{"name":"De World Primary and Secondary School","kind":"school","ownership":"Private","level":"Formal","kind_detail":"Mixed","lga":"Obio/Akpor","ward":"Obward 12"},"geometry":{"type":"Point","coordinates":[7.04732,4.86041]}},{"type":"Feature","properties":{"name":"Mom Montessori Nursery Primary Secondary School","kind":"school","ownership":"Public","level":"Formal","kind_detail":"Mixed","lga":"Obio/Akpor","ward":"Obward 12"},"geometry":{"type":"Point","coordinates":[7.03684,4.85299]}},{"type":"Feature","properties":{"name":"Sangana Primary School Orije Layout","kind":"school","ownership":"Public","level":"Formal","kind_detail":"Primary","lga":"Port-Harcourt","ward":"Phward 2"},"geometry":{"type":"Point","coordinates":[7.00042,4.79922]}},{"type":"Feature","properties":{"name":"Baptist Primary School Old Gra","kind":"school","ownership":"Public","level":"Formal","kind_detail":"Primary","lga":"Port-Harcourt","ward":"Phward 17"},"geometry":{"type":"Point","coordinates":[7.021,4.77806]}},{"type":"Feature","properties":{"name":"Sea Shell Model Primary School Reclamation","kind":"school","ownership":"Public","level":"Formal","kind_detail":"Primary","lga":"Port-Harcourt","ward":"Phward 4"},"geometry":{"type":"Point","coordinates":[7.02214,4.77494]}},{"type":"Feature","properties":{"name":"Model Primary School","kind":"school","ownership":"Public","level":"Formal","kind_detail":"Primary","lga":"Port-Harcourt","ward":"Phward 5"},"geometry":{"type":"Point","coordinates":[7.03814,4.76033]}},{"type":"Feature","properties":{"name":"Community Primary School Ozoboko Ama","kind":"school","ownership":"Public","level":"Formal","kind_detail":"Primary","lga":"Port-Harcourt","ward":"Phward 1"},"geometry":{"type":"Point","coordinates":[7.05,4.78219]}},{"type":"Feature","properties":{"name":"Uniport Primary School Uniport Choba","kind":"school","ownership":"Public","level":"Formal","kind_detail":"Primary","lga":"Obio/Akpor","ward":"Obward 16"},"geometry":{"type":"Point","coordinates":[6.90531,4.90239]}},{"type":"Feature","properties":{"name":"Community Primary School Rumualogwu","kind":"school","ownership":"Public","level":"Formal","kind_detail":"Primary","lga":"Obio/Akpor","ward":"Obward 16"},"geometry":{"type":"Point","coordinates":[6.92342,4.88228]}},{"type":"Feature","properties":{"name":"Community Primary School Alakahia","kind":"school","ownership":"Public","level":"Formal","kind_detail":"Primary","lga":"Obio/Akpor","ward":"Obward 16"},"geometry":{"type":"Point","coordinates":[6.93214,4.89008]}},{"type":"Feature","properties":{"name":"Model Primary School Rumuokwachi","kind":"school","ownership":"Public","level":"Formal","kind_detail":"Primary","lga":"Obio/Akpor","ward":"Obward 2"},"geometry":{"type":"Point","coordinates":[6.93603,4.86956]}},{"type":"Feature","properties":{"name":"Model Primary School Mgbu Akani","kind":"school","ownership":"Public","level":"Formal","kind_detail":"Primary","lga":"Obio/Akpor","ward":"Obward 13"},"geometry":{"type":"Point","coordinates":[6.95769,4.81903]}},{"type":"Feature","properties":{"name":"Divine Nursery Primary School Rumuowoloma","kind":"school","ownership":"Public","level":"Formal","kind_detail":"Primary","lga":"Obio/Akpor","ward":"Obward 7"},"geometry":{"type":"Point","coordinates":[6.99339,4.85703]}},{"type":"Feature","properties":{"name":"Community Primary School I Eneka","kind":"school","ownership":"Public","level":"Formal","kind_detail":"Primary","lga":"Obio/Akpor","ward":"Obward 3"},"geometry":{"type":"Point","coordinates":[7.03914,4.90758]}},{"type":"Feature","properties":{"name":"Community Primary School Rumuobiokani","kind":"school","ownership":"Public","level":"Formal","kind_detail":"Primary","lga":"Obio/Akpor","ward":"Obward 15"},"geometry":{"type":"Point","coordinates":[7.03928,4.83772]}},{"type":"Feature","properties":{"name":"Community Primary School Oginigba","kind":"school","ownership":"Public","level":"Formal","kind_detail":"Primary","lga":"Obio/Akpor","ward":"Obward 15"},"geometry":{"type":"Point","coordinates":[7.04106,4.83531]}},{"type":"Feature","properties":{"name":"Community Primary School Rumurolu","kind":"school","ownership":"Public","level":"Formal","kind_detail":"Primary","lga":"Obio/Akpor","ward":"Obward 15"},"geometry":{"type":"Point","coordinates":[7.05536,4.84111]}},{"type":"Feature","properties":{"name":"Wesley Methodist Primary School","kind":"school","ownership":"Private","level":"Integrated","kind_detail":"Primary","lga":"Port-Harcourt","ward":"Phward 3"},"geometry":{"type":"Point","coordinates":[7.0159,4.76101]}},{"type":"Feature","properties":{"name":"UBE Primary School","kind":"school","ownership":"Public","level":"Formal","kind_detail":"Primary","lga":"Port-Harcourt","ward":"Phward 1"},"geometry":{"type":"Point","coordinates":[7.06072,4.7764]}},{"type":"Feature","properties":{"name":"Port Harcourt Primary School","kind":"school","ownership":"Public","level":"Formal","kind_detail":"Primary","lga":"Port-Harcourt","ward":"Phward 17"},"geometry":{"type":"Point","coordinates":[7.00698,4.78808]}},{"type":"Feature","properties":{"name":"Community Primary School Ozuboko Ama","kind":"school","ownership":"Public","level":"Formal","kind_detail":"Primary","lga":"Port-Harcourt","ward":"Phward 1"},"geometry":{"type":"Point","coordinates":[7.04338,4.77592]}},{"type":"Feature","properties":{"name":"State Primary School Okuruama","kind":"school","ownership":"Public","level":"Formal","kind_detail":"Primary","lga":"Port-Harcourt","ward":"Phward 1"},"geometry":{"type":"Point","coordinates":[7.05702,4.78726]}},{"type":"Feature","properties":{"name":"Model Primary School Elekahia","kind":"school","ownership":"Public","level":"Formal","kind_detail":"Primary","lga":"Port-Harcourt","ward":"Phward 11"},"geometry":{"type":"Point","coordinates":[7.02002,4.81459]}},{"type":"Feature","properties":{"name":"St Cyprains State Primary School","kind":"school","ownership":"Public","level":"Formal","kind_detail":"Primary","lga":"Port-Harcourt","ward":"Phward 3"},"geometry":{"type":"Point","coordinates":[7.02197,4.76407]}},{"type":"Feature","properties":{"name":"Remendition Primary School","kind":"school","ownership":"Private","level":"Formal","kind_detail":"Primary","lga":"Obio/Akpor","ward":"Obward 8"},"geometry":{"type":"Point","coordinates":[6.96536,4.86128]}},{"type":"Feature","properties":{"name":"Col Abbe Primary School","kind":"school","ownership":"Private","level":"Formal","kind_detail":"Primary","lga":"Obio/Akpor","ward":"Obward 2"},"geometry":{"type":"Point","coordinates":[6.92841,4.8621]}},{"type":"Feature","properties":{"name":"Goldfied International Primary School","kind":"school","ownership":"Private","level":"Formal","kind_detail":"Primary","lga":"Obio/Akpor","ward":"Obward 8"},"geometry":{"type":"Point","coordinates":[6.96273,4.85987]}},{"type":"Feature","properties":{"name":"Success Primary School","kind":"school","ownership":"Private","level":"Formal","kind_detail":"Primary","lga":"Obio/Akpor","ward":"Obward 2"},"geometry":{"type":"Point","coordinates":[6.92722,4.87087]}},{"type":"Feature","properties":{"name":"State Primary School","kind":"school","ownership":"Public","level":"Formal","kind_detail":"Primary","lga":"Obio/Akpor","ward":"Obward 12"},"geometry":{"type":"Point","coordinates":[7.05657,4.85203]}},{"type":"Feature","properties":{"name":"Community Primary School Rumueme","kind":"school","ownership":"Public","level":"Formal","kind_detail":"Primary","lga":"Obio/Akpor","ward":"Obward 6"},"geometry":{"type":"Point","coordinates":[6.982,4.82652]}},{"type":"Feature","properties":{"name":"State Primary School Choba","kind":"school","ownership":"Public","level":"Formal","kind_detail":"Primary","lga":"Obio/Akpor","ward":"Obward 16"},"geometry":{"type":"Point","coordinates":[6.9045,4.88373]}},{"type":"Feature","properties":{"name":"Community Primary School Nkpor","kind":"school","ownership":"Public","level":"Formal","kind_detail":"Primary","lga":"Obio/Akpor","ward":"Obward 13"},"geometry":{"type":"Point","coordinates":[6.95663,4.7971]}},{"type":"Feature","properties":{"name":"State Model Primary School Olamada","kind":"school","ownership":"Public","level":"Formal","kind_detail":"Primary","lga":"Obio/Akpor","ward":"Obward 8"},"geometry":{"type":"Point","coordinates":[6.99486,4.83358]}},{"type":"Feature","properties":{"name":"Model Primary School Eligbolo","kind":"school","ownership":"Public","level":"Formal","kind_detail":"Primary","lga":"Obio/Akpor","ward":"Obward 11"},"geometry":{"type":"Point","coordinates":[7.01392,4.86522]}},{"type":"Feature","properties":{"name":"State Primary School Rumurolu","kind":"school","ownership":"Public","level":"Formal","kind_detail":"Primary","lga":"Obio/Akpor","ward":"Obward 15"},"geometry":{"type":"Point","coordinates":[7.04656,4.83747]}},{"type":"Feature","properties":{"name":"Command Children Nursery Primary School","kind":"school","ownership":"Public","level":"Formal","kind_detail":"Primary","lga":"Obio/Akpor","ward":"Obward 11"},"geometry":{"type":"Point","coordinates":[6.9979,4.86254]}},{"type":"Feature","properties":{"name":"Springfield Academy Nursery Primary School","kind":"school","ownership":"Private","level":"Formal","kind_detail":"Primary","lga":"Port-Harcourt","ward":"Phward 5"},"geometry":{"type":"Point","coordinates":[7.03985,4.75218]}},{"type":"Feature","properties":{"name":"Brilliant International Primary School","kind":"school","ownership":"Private","level":"Formal","kind_detail":"Primary","lga":"Obio/Akpor","ward":"Obward 8"},"geometry":{"type":"Point","coordinates":[6.97471,4.85486]}},{"type":"Feature","properties":{"name":"State Primary School Rumukwurisi","kind":"school","ownership":"Public","level":"Formal","kind_detail":"Primary","lga":"Obio/Akpor","ward":"Obward 12"},"geometry":{"type":"Point","coordinates":[7.0572,4.85186]}},{"type":"Feature","properties":{"name":"State Primary School Oro Igwe","kind":"school","ownership":"Public","level":"Formal","kind_detail":"Primary","lga":"Obio/Akpor","ward":"Obward 1"},"geometry":{"type":"Point","coordinates":[7.02985,4.87112]}},{"type":"Feature","properties":{"name":"Universal Model Primary School Bundu","kind":"school","ownership":"Public","level":"Formal","kind_detail":"Primary","lga":"Port-Harcourt","ward":"Phward 3"},"geometry":{"type":"Point","coordinates":[7.01323,4.75416]}},{"type":"Feature","properties":{"name":"UBE State Model Primary School Borikiri","kind":"school","ownership":"Public","level":"Formal","kind_detail":"Primary","lga":"Port-Harcourt","ward":"Phward 5"},"geometry":{"type":"Point","coordinates":[7.0409,4.75049]}},{"type":"Feature","properties":{"name":"Banham Model Primary School","kind":"school","ownership":"Public","level":"Formal","kind_detail":"Primary","lga":"Port-Harcourt","ward":"Phward 4"},"geometry":{"type":"Point","coordinates":[7.02614,4.76244]}},{"type":"Feature","properties":{"name":"Seabed Model Nursery Primary School","kind":"school","ownership":"Public","level":"Formal","kind_detail":"Primary","lga":"Port-Harcourt","ward":"Phward 17"},"geometry":{"type":"Point","coordinates":[7.01419,4.77643]}},{"type":"Feature","properties":{"name":"State Primary School Amadi Ama","kind":"school","ownership":"Public","level":"Formal","kind_detail":"Primary","lga":"Port-Harcourt","ward":"Phward 1"},"geometry":{"type":"Point","coordinates":[7.02567,4.79251]}},{"type":"Feature","properties":{"name":"UBE Model Primary School 2 D Line Ph","kind":"school","ownership":"Public","level":"Formal","kind_detail":"Primary","lga":"Port-Harcourt","ward":"Phward 2"},"geometry":{"type":"Point","coordinates":[6.99991,4.80283]}},{"type":"Feature","properties":{"name":"Model Primary School Nkpolu Oroworukwo","kind":"school","ownership":"Public","level":"Formal","kind_detail":"Primary","lga":"Port-Harcourt","ward":"Phward 14"},"geometry":{"type":"Point","coordinates":[6.98819,4.80697]}},{"type":"Feature","properties":{"name":"State Primary School Churchill","kind":"school","ownership":"Public","level":"Formal","kind_detail":"Primary","lga":"Port-Harcourt","ward":"Phward 5"},"geometry":{"type":"Point","coordinates":[7.03617,4.75648]}},{"type":"Feature","properties":{"name":"Community Primary School Nkpolu","kind":"school","ownership":"Public","level":"Formal","kind_detail":"Primary","lga":"Port-Harcourt","ward":"Phward 14"},"geometry":{"type":"Point","coordinates":[6.98982,4.80505]}},{"type":"Feature","properties":{"name":"Township Model Primary School","kind":"school","ownership":"Public","level":"Formal","kind_detail":"Primary","lga":"Port-Harcourt","ward":"Phward 4"},"geometry":{"type":"Point","coordinates":[7.0233,4.76708]}},{"type":"Feature","properties":{"name":"UBE Model Primary School Orominike","kind":"school","ownership":"Public","level":"Formal","kind_detail":"Primary","lga":"Port-Harcourt","ward":"Phward 2"},"geometry":{"type":"Point","coordinates":[6.99917,4.80232]}},{"type":"Feature","properties":{"name":"Community Primary School Elekahia","kind":"school","ownership":"Public","level":"Formal","kind_detail":"Primary","lga":"Port-Harcourt","ward":"Phward 19"},"geometry":{"type":"Point","coordinates":[7.01478,4.80773]}},{"type":"Feature","properties":{"name":"State Primary School Church Hill","kind":"school","ownership":"Public","level":"Formal","kind_detail":"Primary","lga":"Port-Harcourt","ward":"Phward 5"},"geometry":{"type":"Point","coordinates":[7.03746,4.75761]}},{"type":"Feature","properties":{"name":"St Paul Model Primary School Diobu Ph","kind":"school","ownership":"Public","level":"Formal","kind_detail":"Primary","lga":"Port-Harcourt","ward":"Phward 20"},"geometry":{"type":"Point","coordinates":[7.00873,4.80777]}},{"type":"Feature","properties":{"name":"State Primary School Oginigba","kind":"school","ownership":"Public","level":"Formal","kind_detail":"Primary","lga":"Obio/Akpor","ward":"Obward 15"},"geometry":{"type":"Point","coordinates":[7.03841,4.82843]}},{"type":"Feature","properties":{"name":"Community Primary School","kind":"school","ownership":"Public","level":"Formal","kind_detail":"Primary","lga":"Obio/Akpor","ward":"Obward 9"},"geometry":{"type":"Point","coordinates":[7.11033,4.86814]}},{"type":"Feature","properties":{"name":"State Primary School Rukpokwu","kind":"school","ownership":"Public","level":"Formal","kind_detail":"Primary","lga":"Obio/Akpor","ward":"Obward 3"},"geometry":{"type":"Point","coordinates":[7.001,4.90547]}},{"type":"Feature","properties":{"name":"State Primary School Rumuomasi","kind":"school","ownership":"Public","level":"Formal","kind_detail":"Primary","lga":"Obio/Akpor","ward":"Obward 14"},"geometry":{"type":"Point","coordinates":[7.02385,4.83537]}},{"type":"Feature","properties":{"name":"Community Primary School Rumuolumeni","kind":"school","ownership":"Public","level":"Formal","kind_detail":"Primary","lga":"Obio/Akpor","ward":"Obward 13"},"geometry":{"type":"Point","coordinates":[6.95702,4.81535]}},{"type":"Feature","properties":{"name":"State Primary School Eneka","kind":"school","ownership":"Public","level":"Formal","kind_detail":"Primary","lga":"Obio/Akpor","ward":"Obward 3"},"geometry":{"type":"Point","coordinates":[7.03707,4.89814]}},{"type":"Feature","properties":{"name":"State Primary School Rumueme","kind":"school","ownership":"Public","level":"Formal","kind_detail":"Primary","lga":"Obio/Akpor","ward":"Obward 6"},"geometry":{"type":"Point","coordinates":[6.98156,4.82603]}},{"type":"Feature","properties":{"name":"Community Primary School Rumuokwurusi","kind":"school","ownership":"Public","level":"Formal","kind_detail":"Primary","lga":"Obio/Akpor","ward":"Obward 12"},"geometry":{"type":"Point","coordinates":[7.05661,4.859]}},{"type":"Feature","properties":{"name":"Community Primary School Ogbogoro","kind":"school","ownership":"Public","level":"Formal","kind_detail":"Primary","lga":"Obio/Akpor","ward":"Obward 2"},"geometry":{"type":"Point","coordinates":[6.92891,4.85266]}},{"type":"Feature","properties":{"name":"Community Primary School Rumuosi Rumuekini","kind":"school","ownership":"Public","level":"Formal","kind_detail":"Primary","lga":"Obio/Akpor","ward":"Obward 16"},"geometry":{"type":"Point","coordinates":[6.94162,4.88293]}},{"type":"Feature","properties":{"name":"State Primary School Atali","kind":"school","ownership":"Public","level":"Formal","kind_detail":"Primary","lga":"Obio/Akpor","ward":"Obward 1"},"geometry":{"type":"Point","coordinates":[7.05332,4.87565]}},{"type":"Feature","properties":{"name":"Community Primary School Eneka","kind":"school","ownership":"Public","level":"Formal","kind_detail":"Primary","lga":"Obio/Akpor","ward":"Obward 3"},"geometry":{"type":"Point","coordinates":[7.03836,4.89767]}},{"type":"Feature","properties":{"name":"State Primary School Airforce Base","kind":"school","ownership":"Public","level":"Formal","kind_detail":"Primary","lga":"Obio/Akpor","ward":"Obward 14"},"geometry":{"type":"Point","coordinates":[7.02039,4.84064]}},{"type":"Feature","properties":{"name":"State Primary School Borikiri","kind":"school","ownership":"Public","level":"Formal","kind_detail":"Primary","lga":"Port-Harcourt","ward":"Phward 5"},"geometry":{"type":"Point","coordinates":[7.04129,4.74995]}},{"type":"Feature","properties":{"name":"Sampav Model Nursery Primary School","kind":"school","ownership":"Private","level":"Formal","kind_detail":"Primary","lga":"Obio/Akpor","ward":"Obward 16"},"geometry":{"type":"Point","coordinates":[6.90471,4.89384]}},{"type":"Feature","properties":{"name":"St Johns Nursery and Primary School","kind":"school","ownership":"Private","level":"Formal","kind_detail":"Primary","lga":"Obio/Akpor","ward":"Obward 6"},"geometry":{"type":"Point","coordinates":[6.98089,4.82656]}},{"type":"Feature","properties":{"name":"El Nissi Nursery Primary School","kind":"school","ownership":"Private","level":"Formal","kind_detail":"Primary","lga":"Obio/Akpor","ward":"Obward 2"},"geometry":{"type":"Point","coordinates":[6.93334,4.86797]}},{"type":"Feature","properties":{"name":"Iheanacho Memorial Primary School","kind":"school","ownership":"Private","level":"Formal","kind_detail":"Primary","lga":"Obio/Akpor","ward":"Obward 13"},"geometry":{"type":"Point","coordinates":[6.95837,4.79773]}},{"type":"Feature","properties":{"name":"Distinction Montessori Nursery and Primary School","kind":"school","ownership":"Private","level":"Formal","kind_detail":"Primary","lga":"Obio/Akpor","ward":"Obward 6"},"geometry":{"type":"Point","coordinates":[6.97971,4.8269]}},{"type":"Feature","properties":{"name":"Naf Primary School Rumuomasi","kind":"school","ownership":"Public","level":"Formal","kind_detail":"Primary","lga":"Obio/Akpor","ward":"Obward 14"},"geometry":{"type":"Point","coordinates":[7.03006,4.83561]}},{"type":"Feature","properties":{"name":"Community Primary School Mgbesilaru","kind":"school","ownership":"Public","level":"Formal","kind_detail":"Primary","lga":"Obio/Akpor","ward":"Obward 12"},"geometry":{"type":"Point","coordinates":[7.03661,4.86058]}},{"type":"Feature","properties":{"name":"Community Primary School Atali","kind":"school","ownership":"Public","level":"Formal","kind_detail":"Primary","lga":"Obio/Akpor","ward":"Obward 9"},"geometry":{"type":"Point","coordinates":[7.05606,4.88258]}},{"type":"Feature","properties":{"name":"All Saint Primary School Rumuwokerebe","kind":"school","ownership":"Public","level":"Formal","kind_detail":"Primary","lga":"Obio/Akpor","ward":"Obward 17"},"geometry":{"type":"Point","coordinates":[7.06111,4.86511]}},{"type":"Feature","properties":{"name":"State Primary School Orogbum","kind":"school","ownership":"Public","level":"Formal","kind_detail":"Primary","lga":"Port-Harcourt","ward":"Phward 20"},"geometry":{"type":"Point","coordinates":[7.00565,4.80425]}},{"type":"Feature","properties":{"name":"Community Primary School Okporo","kind":"school","ownership":"Public","level":"Formal","kind_detail":"Primary","lga":"Obio/Akpor","ward":"Obward 12"},"geometry":{"type":"Point","coordinates":[7.036,4.85049]}},{"type":"Feature","properties":{"name":"State Primary School Ozuoba","kind":"school","ownership":"Public","level":"Formal","kind_detail":"Primary","lga":"Obio/Akpor","ward":"Obward 16"},"geometry":{"type":"Point","coordinates":[6.92955,4.87196]}},{"type":"Feature","properties":{"name":"Primary School Rumuokparali","kind":"school","ownership":"Public","level":"Formal","kind_detail":"Primary","lga":"Obio/Akpor","ward":"Obward 16"},"geometry":{"type":"Point","coordinates":[6.90793,4.8684]}},{"type":"Feature","properties":{"name":"Model Primary School Orogbum","kind":"school","ownership":"Public","level":"Formal","kind_detail":"Primary","lga":"Port-Harcourt","ward":"Phward 20"},"geometry":{"type":"Point","coordinates":[7.00649,4.8041]}},{"type":"Feature","properties":{"name":"Community Primary School Amadiama","kind":"school","ownership":"Public","level":"Formal","kind_detail":"Primary","lga":"Port-Harcourt","ward":"Phward 1"},"geometry":{"type":"Point","coordinates":[7.02582,4.79653]}},{"type":"Feature","properties":{"name":"State Primary School Rumuapara","kind":"school","ownership":"Public","level":"Formal","kind_detail":"Primary","lga":"Obio/Akpor","ward":"Obward 8"},"geometry":{"type":"Point","coordinates":[6.98738,4.84357]}},{"type":"Feature","properties":{"name":"State Primary School Bori Camp","kind":"school","ownership":"Public","level":"Formal","kind_detail":"Primary","lga":"Obio/Akpor","ward":"Obward 7"},"geometry":{"type":"Point","coordinates":[7.00786,4.83651]}},{"type":"Feature","properties":{"name":"Shalom International Nursery Primary School","kind":"school","ownership":"Private","level":"Formal","kind_detail":"Primary","lga":"Port-Harcourt","ward":"Phward 15"},"geometry":{"type":"Point","coordinates":[6.98238,4.81271]}},{"type":"Feature","properties":{"name":"Provil Nursery Primary School","kind":"school","ownership":"Private","level":"Formal","kind_detail":"Primary","lga":"Obio/Akpor","ward":"Obward 8"},"geometry":{"type":"Point","coordinates":[6.94868,4.86832]}},{"type":"Feature","properties":{"name":"Prim Rose Nursery and Primary School","kind":"school","ownership":"Private","level":"Formal","kind_detail":"Primary","lga":"Obio/Akpor","ward":"Obward 11"},"geometry":{"type":"Point","coordinates":[7.01862,4.86947]}},{"type":"Feature","properties":{"name":"Sea Bird M Primary School","kind":"school","ownership":"Public","level":"Formal","kind_detail":"Primary","lga":"Port-Harcourt","ward":"Phward 17"},"geometry":{"type":"Point","coordinates":[7.01336,4.77612]}},{"type":"Feature","properties":{"name":"Community Primary School I Elekahia","kind":"school","ownership":"Public","level":"Formal","kind_detail":"Primary","lga":"Port-Harcourt","ward":"Phward 11"},"geometry":{"type":"Point","coordinates":[7.0237,4.81629]}},{"type":"Feature","properties":{"name":"Com Primary School II Elekahia","kind":"school","ownership":"Public","level":"Formal","kind_detail":"Primary","lga":"Port-Harcourt","ward":"Phward 11"},"geometry":{"type":"Point","coordinates":[7.02207,4.81628]}},{"type":"Feature","properties":{"name":"Community Primary School III Elekahia","kind":"school","ownership":"Public","level":"Formal","kind_detail":"Primary","lga":"Port-Harcourt","ward":"Phward 11"},"geometry":{"type":"Point","coordinates":[7.02297,4.81629]}},{"type":"Feature","properties":{"name":"Community Primary School II Oro evo","kind":"school","ownership":"Public","level":"Formal","kind_detail":"Primary","lga":"Obio/Akpor","ward":"Obward 14"},"geometry":{"type":"Point","coordinates":[7.02376,4.8374]}},{"type":"Feature","properties":{"name":"Community Primary School I Oro evo","kind":"school","ownership":"Public","level":"Formal","kind_detail":"Primary","lga":"Obio/Akpor","ward":"Obward 14"},"geometry":{"type":"Point","coordinates":[7.02421,4.8374]}},{"type":"Feature","properties":{"name":"Community Primary School Rumuekini","kind":"school","ownership":"Public","level":"Formal","kind_detail":"Primary","lga":"Obio/Akpor","ward":"Obward 16"},"geometry":{"type":"Point","coordinates":[6.92208,4.90263]}},{"type":"Feature","properties":{"name":"Pabod Model Primary School Old GRA","kind":"school","ownership":"Public","level":"Formal","kind_detail":"Primary","lga":"Port-Harcourt","ward":"Phward 17"},"geometry":{"type":"Point","coordinates":[7.01813,4.78473]}},{"type":"Feature","properties":{"name":"Community Secondary School Osou Ogu Abuloma","kind":"school","ownership":"Public","level":"Formal","kind_detail":"Secondary","lga":"Port-Harcourt","ward":"Phward 1"},"geometry":{"type":"Point","coordinates":[7.05136,4.79153]}},{"type":"Feature","properties":{"name":"Community Secondary School Mgbuosimini","kind":"school","ownership":"Public","level":"Formal","kind_detail":"Secondary","lga":"Obio/Akpor","ward":"Obward 13"},"geometry":{"type":"Point","coordinates":[6.961,4.81228]}},{"type":"Feature","properties":{"name":"Community Secondary School Rumuorianwo Nda","kind":"school","ownership":"Public","level":"Formal","kind_detail":"Secondary","lga":"Obio/Akpor","ward":"Obward 8"},"geometry":{"type":"Point","coordinates":[6.98106,4.84231]}},{"type":"Feature","properties":{"name":"Community Secondary School Rumuchiwona","kind":"school","ownership":"Public","level":"Formal","kind_detail":"Secondary","lga":"Obio/Akpor","ward":"Obward 10"},"geometry":{"type":"Point","coordinates":[7.00272,4.87806]}},{"type":"Feature","properties":{"name":"Universal Primary Education","kind":"school","ownership":"Public","level":"Formal","kind_detail":"Primary","lga":"Obio/Akpor","ward":"Obward 13"},"geometry":{"type":"Point","coordinates":[6.96528,4.84286]}},{"type":"Feature","properties":{"name":"Emman Commercial And Technical College Nkpolu Orowo","kind":"school","ownership":"Public","level":"Formal","kind_detail":"Secondary","lga":"Port-Harcourt","ward":"Phward 6"},"geometry":{"type":"Point","coordinates":[6.99039,4.79542]}},{"type":"Feature","properties":{"name":"Christian Council College Elekahia","kind":"school","ownership":"Public","level":"Formal","kind_detail":"Secondary","lga":"Port-Harcourt","ward":"Phward 11"},"geometry":{"type":"Point","coordinates":[7.01706,4.81822]}},{"type":"Feature","properties":{"name":"Stella Maris College Reclamation","kind":"school","ownership":"Public","level":"Formal","kind_detail":"Secondary","lga":"Port-Harcourt","ward":"Phward 3"},"geometry":{"type":"Point","coordinates":[7.01947,4.77158]}},{"type":"Feature","properties":{"name":"Science And Arts Specialist College Tere Ama","kind":"school","ownership":"Public","level":"Formal","kind_detail":"Secondary","lga":"Port-Harcourt","ward":"Phward 1"},"geometry":{"type":"Point","coordinates":[7.03489,4.79097]}},{"type":"Feature","properties":{"name":"Olobo Premier College Uniport Choba","kind":"school","ownership":"Public","level":"Formal","kind_detail":"Secondary","lga":"Obio/Akpor","ward":"Obward 16"},"geometry":{"type":"Point","coordinates":[6.91953,4.90339]}},{"type":"Feature","properties":{"name":"Ideal Academy Rumuowha Eneka","kind":"school","ownership":"Public","level":"Formal","kind_detail":"Secondary","lga":"Obio/Akpor","ward":"Obward 3"},"geometry":{"type":"Point","coordinates":[7.04297,4.90011]}},{"type":"Feature","properties":{"name":"Sancta Maria School Nkpogu","kind":"school","ownership":"Public","level":"Formal","kind_detail":"Secondary","lga":"Port-Harcourt","ward":"Phward 11"},"geometry":{"type":"Point","coordinates":[7.02047,4.80925]}},{"type":"Feature","properties":{"name":"Police Children School Bundu","kind":"school","ownership":"Public","level":"Formal","kind_detail":"Secondary","lga":"Port-Harcourt","ward":"Phward 4"},"geometry":{"type":"Point","coordinates":[7.02725,4.77142]}},{"type":"Feature","properties":{"name":"Model International School Tere Ama","kind":"school","ownership":"Public","level":"Formal","kind_detail":"Secondary","lga":"Port-Harcourt","ward":"Phward 1"},"geometry":{"type":"Point","coordinates":[7.0405,4.78744]}},{"type":"Feature","properties":{"name":"Gojehota International School Rumuokwachi","kind":"school","ownership":"Public","level":"Formal","kind_detail":"Secondary","lga":"Obio/Akpor","ward":"Obward 16"},"geometry":{"type":"Point","coordinates":[6.94175,4.87581]}},{"type":"Feature","properties":{"name":"State School Rumuo Darawere","kind":"school","ownership":"Public","level":"Formal","kind_detail":"Secondary","lga":"Obio/Akpor","ward":"Obward 7"},"geometry":{"type":"Point","coordinates":[6.99144,4.85042]}},{"type":"Feature","properties":{"name":"First Option School Rumunnaye","kind":"school","ownership":"Public","level":"Formal","kind_detail":"Secondary","lga":"Obio/Akpor","ward":"Obward 10"},"geometry":{"type":"Point","coordinates":[7.00594,4.89042]}},{"type":"Feature","properties":{"name":"Benviatto School Rumuoluinomadi","kind":"school","ownership":"Public","level":"Formal","kind_detail":"Secondary","lga":"Obio/Akpor","ward":"Obward 10"},"geometry":{"type":"Point","coordinates":[7.00669,4.88483]}},{"type":"Feature","properties":{"name":"Queens And Kings School Rumunnaye","kind":"school","ownership":"Public","level":"Formal","kind_detail":"Secondary","lga":"Obio/Akpor","ward":"Obward 3"},"geometry":{"type":"Point","coordinates":[7.00839,4.8985]}},{"type":"Feature","properties":{"name":"The Faith Fair Child School Woji","kind":"school","ownership":"Public","level":"Formal","kind_detail":"Secondary","lga":"Obio/Akpor","ward":"Obward 15"},"geometry":{"type":"Point","coordinates":[7.05217,4.82078]}},{"type":"Feature","properties":{"name":"Great Learner International School Woji","kind":"school","ownership":"Public","level":"Formal","kind_detail":"Secondary","lga":"Obio/Akpor","ward":"Obward 15"},"geometry":{"type":"Point","coordinates":[7.0535,4.82356]}},{"type":"Feature","properties":{"name":"Doma Group Of School Rumurolu","kind":"school","ownership":"Public","level":"Formal","kind_detail":"Secondary","lga":"Obio/Akpor","ward":"Obward 15"},"geometry":{"type":"Point","coordinates":[7.05733,4.83333]}},{"type":"Feature","properties":{"name":"Holy Child School Rumuorianwo Nda","kind":"school","ownership":"Public","level":"Formal","kind_detail":"Secondary","lga":"Obio/Akpor","ward":"Obward 12"},"geometry":{"type":"Point","coordinates":[7.05933,4.8615]}},{"type":"Feature","properties":{"name":"Immanuel International School Rumurolu","kind":"school","ownership":"Public","level":"Formal","kind_detail":"Secondary","lga":"Obio/Akpor","ward":"Obward 17"},"geometry":{"type":"Point","coordinates":[7.06075,4.84431]}},{"type":"Feature","properties":{"name":"Charles International School Rumuodunwere","kind":"school","ownership":"Public","level":"Formal","kind_detail":"Secondary","lga":"Obio/Akpor","ward":"Obward 17"},"geometry":{"type":"Point","coordinates":[7.06908,4.83975]}},{"type":"Feature","properties":{"name":"Phc Intl Campus H Park","kind":"school","ownership":"Public","level":"Formal","kind_detail":"Others","lga":"Port-Harcourt","ward":"Phward 17"},"geometry":{"type":"Point","coordinates":[7.00508,4.79269]}},{"type":"Feature","properties":{"name":"Tamwills Edu Centre Ede Okua Abuloma","kind":"school","ownership":"Public","level":"Formal","kind_detail":"Others","lga":"Port-Harcourt","ward":"Phward 1"},"geometry":{"type":"Point","coordinates":[7.05778,4.79322]}},{"type":"Feature","properties":{"name":"Kingdom Builders Assembly Rumuowha Eneka","kind":"school","ownership":"Public","level":"Formal","kind_detail":"Others","lga":"Obio/Akpor","ward":"Obward 3"},"geometry":{"type":"Point","coordinates":[7.03178,4.90153]}},{"type":"Feature","properties":{"name":"St Marys Model Secondary School","kind":"school","ownership":"Faith Based","level":"Integrated","kind_detail":"Secondary","lga":"Port-Harcourt","ward":"Phward 3"},"geometry":{"type":"Point","coordinates":[7.01248,4.76511]}},{"type":"Feature","properties":{"name":"Cornerstone Secondary School","kind":"school","ownership":"Private","level":"Formal","kind_detail":"Secondary","lga":"Port-Harcourt","ward":"Phward 3"},"geometry":{"type":"Point","coordinates":[7.01146,4.77451]}},{"type":"Feature","properties":{"name":"Ojims Group of Schools","kind":"school","ownership":"Private","level":"Formal","kind_detail":"Secondary","lga":"Port-Harcourt","ward":"Phward 14"},"geometry":{"type":"Point","coordinates":[6.99165,4.80039]}},{"type":"Feature","properties":{"name":"Emarid College","kind":"school","ownership":"Private","level":"Formal","kind_detail":"Secondary","lga":"Port-Harcourt","ward":"Phward 3"},"geometry":{"type":"Point","coordinates":[7.0141,4.76233]}},{"type":"Feature","properties":{"name":"Community Secondary School Oroworukwo","kind":"school","ownership":"Public","level":"Formal","kind_detail":"Secondary","lga":"Port-Harcourt","ward":"Phward 20"},"geometry":{"type":"Point","coordinates":[7.00788,4.8099]}},{"type":"Feature","properties":{"name":"Community Secondary School Nkpolu Oroworukwo Mile III Ph","kind":"school","ownership":"Public","level":"Formal","kind_detail":"Secondary","lga":"Port-Harcourt","ward":"Phward 14"},"geometry":{"type":"Point","coordinates":[6.9882,4.80875]}},{"type":"Feature","properties":{"name":"Community Secondary School Amadi Ama","kind":"school","ownership":"Public","level":"Formal","kind_detail":"Secondary","lga":"Port-Harcourt","ward":"Phward 1"},"geometry":{"type":"Point","coordinates":[7.03149,4.79211]}},{"type":"Feature","properties":{"name":"Federal Government Girls College","kind":"school","ownership":"Public","level":"Formal","kind_detail":"Secondary","lga":"Port-Harcourt","ward":"Phward 1"},"geometry":{"type":"Point","coordinates":[7.05171,4.7852]}},{"type":"Feature","properties":{"name":"Brainfield International Secondary School","kind":"school","ownership":"Private","level":"Formal","kind_detail":"Secondary","lga":"Obio/Akpor","ward":"Obward 11"},"geometry":{"type":"Point","coordinates":[7.01431,4.86248]}},{"type":"Feature","properties":{"name":"New Waves International School","kind":"school","ownership":"Private","level":"Formal","kind_detail":"Secondary","lga":"Obio/Akpor","ward":"Obward 13"},"geometry":{"type":"Point","coordinates":[6.94763,4.80586]}},{"type":"Feature","properties":{"name":"Holy Child Schools","kind":"school","ownership":"Private","level":"Formal","kind_detail":"Secondary","lga":"Obio/Akpor","ward":"Obward 12"},"geometry":{"type":"Point","coordinates":[7.05561,4.85678]}},{"type":"Feature","properties":{"name":"Foundation Group of Schools","kind":"school","ownership":"Private","level":"Formal","kind_detail":"Secondary","lga":"Obio/Akpor","ward":"Obward 10"},"geometry":{"type":"Point","coordinates":[6.99663,4.88556]}},{"type":"Feature","properties":{"name":"Doma Comprehensive Secondary School","kind":"school","ownership":"Private","level":"Formal","kind_detail":"Secondary","lga":"Obio/Akpor","ward":"Obward 15"},"geometry":{"type":"Point","coordinates":[7.04745,4.83331]}},{"type":"Feature","properties":{"name":"Rockbase International School","kind":"school","ownership":"Private","level":"Integrated","kind_detail":"Secondary","lga":"Obio/Akpor","ward":"Obward 16"},"geometry":{"type":"Point","coordinates":[6.90389,4.89827]}},{"type":"Feature","properties":{"name":"Sure Foundation Comprehensive School","kind":"school","ownership":"Private","level":"Formal","kind_detail":"Secondary","lga":"Obio/Akpor","ward":"Obward 6"},"geometry":{"type":"Point","coordinates":[6.97747,4.82465]}},{"type":"Feature","properties":{"name":"Benviatto Secondary School Rukpokwu","kind":"school","ownership":"Private","level":"Formal","kind_detail":"Secondary","lga":"Obio/Akpor","ward":"Obward 3"},"geometry":{"type":"Point","coordinates":[7.00386,4.89896]}},{"type":"Feature","properties":{"name":"National College Eneka","kind":"school","ownership":"Private","level":"Formal","kind_detail":"Secondary","lga":"Obio/Akpor","ward":"Obward 3"},"geometry":{"type":"Point","coordinates":[7.0428,4.89767]}},{"type":"Feature","properties":{"name":"FE Maryland Secondary School","kind":"school","ownership":"Private","level":"Formal","kind_detail":"Secondary","lga":"Obio/Akpor","ward":"Obward 17"},"geometry":{"type":"Point","coordinates":[7.07405,4.8242]}},{"type":"Feature","properties":{"name":"Mater Christi High School","kind":"school","ownership":"Private","level":"Formal","kind_detail":"Secondary","lga":"Obio/Akpor","ward":"Obward 15"},"geometry":{"type":"Point","coordinates":[7.05295,4.82399]}},{"type":"Feature","properties":{"name":"Emilo Piazza Memorial College","kind":"school","ownership":"Private","level":"Formal","kind_detail":"Secondary","lga":"Obio/Akpor","ward":"Obward 7"},"geometry":{"type":"Point","coordinates":[6.98681,4.85351]}},{"type":"Feature","properties":{"name":"Confidence College","kind":"school","ownership":"Private","level":"Formal","kind_detail":"Secondary","lga":"Obio/Akpor","ward":"Obward 3"},"geometry":{"type":"Point","coordinates":[7.03447,4.89872]}},{"type":"Feature","properties":{"name":"Future Generation International School","kind":"school","ownership":"Private","level":"Formal","kind_detail":"Secondary","lga":"Obio/Akpor","ward":"Obward 13"},"geometry":{"type":"Point","coordinates":[6.94776,4.81022]}},{"type":"Feature","properties":{"name":"Victory High School","kind":"school","ownership":"Private","level":"Formal","kind_detail":"Secondary","lga":"Obio/Akpor","ward":"Obward 4"},"geometry":{"type":"Point","coordinates":[6.98292,4.83383]}},{"type":"Feature","properties":{"name":"Okken International School","kind":"school","ownership":"Private","level":"Formal","kind_detail":"Secondary","lga":"Obio/Akpor","ward":"Obward 13"},"geometry":{"type":"Point","coordinates":[6.95396,4.79659]}},{"type":"Feature","properties":{"name":"First Pillar College","kind":"school","ownership":"Private","level":"Formal","kind_detail":"Secondary","lga":"Obio/Akpor","ward":"Obward 2"},"geometry":{"type":"Point","coordinates":[6.92494,4.8671]}},{"type":"Feature","properties":{"name":"Briliant International Secondary School","kind":"school","ownership":"Private","level":"Formal","kind_detail":"Secondary","lga":"Obio/Akpor","ward":"Obward 8"},"geometry":{"type":"Point","coordinates":[6.9748,4.85509]}},{"type":"Feature","properties":{"name":"Tantua International Secondary School","kind":"school","ownership":"Private","level":"Formal","kind_detail":"Secondary","lga":"Port-Harcourt","ward":"Phward 11"},"geometry":{"type":"Point","coordinates":[7.02727,4.82248]}},{"type":"Feature","properties":{"name":"Hallel College","kind":"school","ownership":"Private","level":"Formal","kind_detail":"Secondary","lga":"Obio/Akpor","ward":"Obward 15"},"geometry":{"type":"Point","coordinates":[7.03514,4.84572]}},{"type":"Feature","properties":{"name":"Obio Comprehensive College","kind":"school","ownership":"Private","level":"Formal","kind_detail":"Secondary","lga":"Obio/Akpor","ward":"Obward 14"},"geometry":{"type":"Point","coordinates":[7.02349,4.83299]}},{"type":"Feature","properties":{"name":"Calvary Group of School","kind":"school","ownership":"Private","level":"Formal","kind_detail":"Secondary","lga":"Obio/Akpor","ward":"Obward 5"},"geometry":{"type":"Point","coordinates":[6.9834,4.81952]}},{"type":"Feature","properties":{"name":"Victory International School","kind":"school","ownership":"Private","level":"Formal","kind_detail":"Secondary","lga":"Obio/Akpor","ward":"Obward 13"},"geometry":{"type":"Point","coordinates":[6.95899,4.82136]}},{"type":"Feature","properties":{"name":"Tessy International Secondary School","kind":"school","ownership":"Private","level":"Integrated","kind_detail":"Secondary","lga":"Obio/Akpor","ward":"Obward 11"},"geometry":{"type":"Point","coordinates":[6.99226,4.87074]}},{"type":"Feature","properties":{"name":"Vivilandmark Comprehensive Secondary School","kind":"school","ownership":"Private","level":"Formal","kind_detail":"Secondary","lga":"Obio/Akpor","ward":"Obward 13"},"geometry":{"type":"Point","coordinates":[6.97028,4.84024]}},{"type":"Feature","properties":{"name":"Iheanacho Memorial College","kind":"school","ownership":"Private","level":"Formal","kind_detail":"Secondary","lga":"Obio/Akpor","ward":"Obward 13"},"geometry":{"type":"Point","coordinates":[6.95817,4.7977]}},{"type":"Feature","properties":{"name":"Diamond Stars International School","kind":"school","ownership":"Private","level":"Formal","kind_detail":"Secondary","lga":"Obio/Akpor","ward":"Obward 16"},"geometry":{"type":"Point","coordinates":[6.94493,4.88123]}},{"type":"Feature","properties":{"name":"Inteligent High School","kind":"school","ownership":"Private","level":"Formal","kind_detail":"Secondary","lga":"Obio/Akpor","ward":"Obward 8"},"geometry":{"type":"Point","coordinates":[6.98798,4.8366]}},{"type":"Feature","properties":{"name":"Kateville International High Secondary School","kind":"school","ownership":"Private","level":"Formal","kind_detail":"Secondary","lga":"Obio/Akpor","ward":"Obward 8"},"geometry":{"type":"Point","coordinates":[6.97332,4.84338]}},{"type":"Feature","properties":{"name":"St Scholarstical School","kind":"school","ownership":"Private","level":"Formal","kind_detail":"Secondary","lga":"Obio/Akpor","ward":"Obward 6"},"geometry":{"type":"Point","coordinates":[6.98455,4.82687]}},{"type":"Feature","properties":{"name":"The Maybloom Schools Rumuokwurusi","kind":"school","ownership":"Private","level":"Formal","kind_detail":"Secondary","lga":"Obio/Akpor","ward":"Obward 12"},"geometry":{"type":"Point","coordinates":[7.05606,4.85681]}},{"type":"Feature","properties":{"name":"Community Comprehensive Secondary School Rumukwurisi Ube","kind":"school","ownership":"Public","level":"Formal","kind_detail":"Secondary","lga":"Obio/Akpor","ward":"Obward 12"},"geometry":{"type":"Point","coordinates":[7.05506,4.85954]}},{"type":"Feature","properties":{"name":"Government Secondary School Isiokpo","kind":"school","ownership":"Public","level":"Formal","kind_detail":"Secondary","lga":"Obio/Akpor","ward":"Obward 16"},"geometry":{"type":"Point","coordinates":[6.9054,4.89017]}},{"type":"Feature","properties":{"name":"Government Girls Secondary School Rumuokuta","kind":"school","ownership":"Public","level":"Formal","kind_detail":"Secondary","lga":"Obio/Akpor","ward":"Obward 8"},"geometry":{"type":"Point","coordinates":[6.98528,4.83995]}},{"type":"Feature","properties":{"name":"Community Secondary School Rumuekini","kind":"school","ownership":"Public","level":"Formal","kind_detail":"Secondary","lga":"Obio/Akpor","ward":"Obward 16"},"geometry":{"type":"Point","coordinates":[6.94431,4.89031]}},{"type":"Feature","properties":{"name":"Army Day Secondary School","kind":"school","ownership":"Public","level":"Formal","kind_detail":"Secondary","lga":"Obio/Akpor","ward":"Obward 7"},"geometry":{"type":"Point","coordinates":[7.00564,4.84987]}},{"type":"Feature","properties":{"name":"Community Secondary School Rumuaghaolu","kind":"school","ownership":"Public","level":"Formal","kind_detail":"Secondary","lga":"Obio/Akpor","ward":"Obward 11"},"geometry":{"type":"Point","coordinates":[6.98146,4.87934]}},{"type":"Feature","properties":{"name":"Rumuodumaya Model Secondary School","kind":"school","ownership":"Public","level":"Formal","kind_detail":"Secondary","lga":"Obio/Akpor","ward":"Obward 10"},"geometry":{"type":"Point","coordinates":[7.00178,4.87419]}},{"type":"Feature","properties":{"name":"Community Boys Secondary School","kind":"school","ownership":"Public","level":"Formal","kind_detail":"Secondary","lga":"Obio/Akpor","ward":"Obward 17"},"geometry":{"type":"Point","coordinates":[7.06981,4.83704]}},{"type":"Feature","properties":{"name":"Besono Educational Center","kind":"school","ownership":"Private","level":"Formal","kind_detail":"Secondary","lga":"Port-Harcourt","ward":"Phward 5"},"geometry":{"type":"Point","coordinates":[7.03572,4.75607]}},{"type":"Feature","properties":{"name":"State School Ibadan","kind":"school","ownership":"Public","level":"Formal","kind_detail":"Primary","lga":"Port-Harcourt","ward":"Phward 5"},"geometry":{"type":"Point","coordinates":[7.03363,4.7571]}},{"type":"Feature","properties":{"name":"State School Bernethcarr","kind":"school","ownership":"Public","level":"Formal","kind_detail":"Primary","lga":"Port-Harcourt","ward":"Phward 3"},"geometry":{"type":"Point","coordinates":[7.01874,4.76666]}},{"type":"Feature","properties":{"name":"St Pauls State School Diobu Ph","kind":"school","ownership":"Public","level":"Formal","kind_detail":"Primary","lga":"Port-Harcourt","ward":"Phward 20"},"geometry":{"type":"Point","coordinates":[7.00788,4.8089]}},{"type":"Feature","properties":{"name":"Army Children School Rainbow Town","kind":"school","ownership":"Public","level":"Formal","kind_detail":"Primary","lga":"Port-Harcourt","ward":"Phward 11"},"geometry":{"type":"Point","coordinates":[7.03098,4.79911]}},{"type":"Feature","properties":{"name":"St Andrews State School Diobu Ph","kind":"school","ownership":"Public","level":"Formal","kind_detail":"Primary","lga":"Port-Harcourt","ward":"Phward 17"},"geometry":{"type":"Point","coordinates":[7.00745,4.78728]}},{"type":"Feature","properties":{"name":"Sangana State School Mile One Diobu Port Harcourt","kind":"school","ownership":"Public","level":"Formal","kind_detail":"Primary","lga":"Port-Harcourt","ward":"Phward 17"},"geometry":{"type":"Point","coordinates":[7.00065,4.79253]}},{"type":"Feature","properties":{"name":"St Marys State School Aggrey Road Porthacourt","kind":"school","ownership":"Public","level":"Formal","kind_detail":"Primary","lga":"Port-Harcourt","ward":"Phward 3"},"geometry":{"type":"Point","coordinates":[7.01912,4.76206]}},{"type":"Feature","properties":{"name":"Trinity Child International School","kind":"school","ownership":"Private","level":"Formal","kind_detail":"Primary","lga":"Obio/Akpor","ward":"Obward 10"},"geometry":{"type":"Point","coordinates":[7.00717,4.87467]}},{"type":"Feature","properties":{"name":"The Nobels Montessori School","kind":"school","ownership":"Private","level":"Formal","kind_detail":"Primary","lga":"Obio/Akpor","ward":"Obward 13"},"geometry":{"type":"Point","coordinates":[6.95541,4.8166]}},{"type":"Feature","properties":{"name":"UPE Model School Choba","kind":"school","ownership":"Public","level":"Formal","kind_detail":"Primary","lga":"Obio/Akpor","ward":"Obward 16"},"geometry":{"type":"Point","coordinates":[6.90565,4.89406]}},{"type":"Feature","properties":{"name":"State School Alakahia","kind":"school","ownership":"Public","level":"Formal","kind_detail":"Primary","lga":"Obio/Akpor","ward":"Obward 16"},"geometry":{"type":"Point","coordinates":[6.9262,4.88712]}},{"type":"Feature","properties":{"name":"State School Elelenwo","kind":"school","ownership":"Public","level":"Formal","kind_detail":"Primary","lga":"Obio/Akpor","ward":"Obward 17"},"geometry":{"type":"Point","coordinates":[7.07089,4.83695]}},{"type":"Feature","properties":{"name":"State School Egbelu","kind":"school","ownership":"Public","level":"Formal","kind_detail":"Primary","lga":"Obio/Akpor","ward":"Obward 2"},"geometry":{"type":"Point","coordinates":[6.94853,4.84819]}},{"type":"Feature","properties":{"name":"State School","kind":"school","ownership":"Public","level":"Formal","kind_detail":"Primary","lga":"Port-Harcourt","ward":"Phward 11"},"geometry":{"type":"Point","coordinates":[7.02264,4.8231]}},{"type":"Feature","properties":{"name":"State School Elekahia","kind":"school","ownership":"Public","level":"Formal","kind_detail":"Primary","lga":"Port-Harcourt","ward":"Phward 11"},"geometry":{"type":"Point","coordinates":[7.024,4.82315]}},{"type":"Feature","properties":{"name":"Army Children Model School Gra Phase 1","kind":"school","ownership":"Public","level":"Formal","kind_detail":"Primary","lga":"Obio/Akpor","ward":"Obward 5"},"geometry":{"type":"Point","coordinates":[6.99833,4.82361]}},{"type":"Feature","properties":{"name":"Sacret Heart State School Ilaobuchi Diobu","kind":"school","ownership":"Public","level":"Formal","kind_detail":"Primary","lga":"Port-Harcourt","ward":"Phward 10"},"geometry":{"type":"Point","coordinates":[6.9857,4.7936]}},{"type":"Feature","properties":{"name":"Holy Trinity State School Aggrey Road PH","kind":"school","ownership":"Public","level":"Formal","kind_detail":"Primary","lga":"Port-Harcourt","ward":"Phward 4"},"geometry":{"type":"Point","coordinates":[7.02869,4.76223]}},{"type":"Feature","properties":{"name":"Baptist Day School","kind":"school","ownership":"Public","level":"Formal","kind_detail":"Primary","lga":"Port-Harcourt","ward":"Phward 4"},"geometry":{"type":"Point","coordinates":[7.02683,4.76239]}},{"type":"Feature","properties":{"name":"Salvation Army State School Aggrey Rd Ph","kind":"school","ownership":"Public","level":"Formal","kind_detail":"Primary","lga":"Port-Harcourt","ward":"Phward 4"},"geometry":{"type":"Point","coordinates":[7.029,4.76242]}},{"type":"Feature","properties":{"name":"Command Children School Bori Camp","kind":"school","ownership":"Public","level":"Formal","kind_detail":"Primary","lga":"Obio/Akpor","ward":"Obward 7"},"geometry":{"type":"Point","coordinates":[7.00642,4.84795]}},{"type":"Feature","properties":{"name":"St Thomas State School Diobu","kind":"school","ownership":"Public","level":"Formal","kind_detail":"Primary","lga":"Port-Harcourt","ward":"Phward 17"},"geometry":{"type":"Point","coordinates":[7.00001,4.79253]}},{"type":"Feature","properties":{"name":"Winsome International School","kind":"school","ownership":"Private","level":"Formal","kind_detail":"Primary","lga":"Obio/Akpor","ward":"Obward 13"},"geometry":{"type":"Point","coordinates":[6.96914,4.79188]}},{"type":"Feature","properties":{"name":"Christ Foudation Academic School","kind":"school","ownership":"Private","level":"Formal","kind_detail":"Primary","lga":"Obio/Akpor","ward":"Obward 13"},"geometry":{"type":"Point","coordinates":[6.9671,4.78848]}},{"type":"Feature","properties":{"name":"Rabboni International Academy","kind":"school","ownership":"Private","level":"Formal","kind_detail":"Primary","lga":"Obio/Akpor","ward":"Obward 4"},"geometry":{"type":"Point","coordinates":[6.96356,4.82961]}},{"type":"Feature","properties":{"name":"Malvan International School","kind":"school","ownership":"Private","level":"Formal","kind_detail":"Primary","lga":"Obio/Akpor","ward":"Obward 4"},"geometry":{"type":"Point","coordinates":[6.95825,4.82961]}},{"type":"Feature","properties":{"name":"Our Lady of Perpetual Help Model School Rumuosi","kind":"school","ownership":"Private","level":"Formal","kind_detail":"Primary","lga":"Obio/Akpor","ward":"Obward 16"},"geometry":{"type":"Point","coordinates":[6.93944,4.88237]}},{"type":"Feature","properties":{"name":"Beverly Heights School","kind":"school","ownership":"Private","level":"Formal","kind_detail":"Primary","lga":"Obio/Akpor","ward":"Obward 4"},"geometry":{"type":"Point","coordinates":[6.9679,4.82198]}},{"type":"Feature","properties":{"name":"Skyline Foundation School","kind":"school","ownership":"Private","level":"Formal","kind_detail":"Primary","lga":"Obio/Akpor","ward":"Obward 16"},"geometry":{"type":"Point","coordinates":[6.93922,4.88379]}},{"type":"Feature","properties":{"name":"Winners Academy","kind":"school","ownership":"Private","level":"Formal","kind_detail":"Primary","lga":"Obio/Akpor","ward":"Obward 8"},"geometry":{"type":"Point","coordinates":[6.97936,4.84337]}},{"type":"Feature","properties":{"name":"Excellent Wisdom International School","kind":"school","ownership":"Private","level":"Formal","kind_detail":"Primary","lga":"Obio/Akpor","ward":"Obward 1"},"geometry":{"type":"Point","coordinates":[7.02901,4.87711]}},{"type":"Feature","properties":{"name":"Excellent Child Academy","kind":"school","ownership":"Private","level":"Formal","kind_detail":"Primary","lga":"Obio/Akpor","ward":"Obward 6"},"geometry":{"type":"Point","coordinates":[6.98285,4.82746]}},{"type":"Feature","properties":{"name":"Istan International School","kind":"school","ownership":"Private","level":"Formal","kind_detail":"Primary","lga":"Obio/Akpor","ward":"Obward 8"},"geometry":{"type":"Point","coordinates":[6.98186,4.84651]}},{"type":"Feature","properties":{"name":"Giant Stride International Schools","kind":"school","ownership":"Private","level":"Formal","kind_detail":"Primary","lga":"Obio/Akpor","ward":"Obward 16"},"geometry":{"type":"Point","coordinates":[6.94367,4.86942]}},{"type":"Feature","properties":{"name":"Wisdom Demonstration School","kind":"school","ownership":"Private","level":"Formal","kind_detail":"Primary","lga":"Obio/Akpor","ward":"Obward 8"},"geometry":{"type":"Point","coordinates":[6.98245,4.84701]}},{"type":"Feature","properties":{"name":"Amazing Grace International School","kind":"school","ownership":"Private","level":"Formal","kind_detail":"Primary","lga":"Obio/Akpor","ward":"Obward 8"},"geometry":{"type":"Point","coordinates":[6.98397,4.843]}},{"type":"Feature","properties":{"name":"Bright International School","kind":"school","ownership":"Private","level":"Formal","kind_detail":"Primary","lga":"Obio/Akpor","ward":"Obward 5"},"geometry":{"type":"Point","coordinates":[6.97469,4.81189]}},{"type":"Feature","properties":{"name":"Kidsville Academy","kind":"school","ownership":"Private","level":"Formal","kind_detail":"Primary","lga":"Obio/Akpor","ward":"Obward 5"},"geometry":{"type":"Point","coordinates":[6.97684,4.80961]}},{"type":"Feature","properties":{"name":"Silverbird International School","kind":"school","ownership":"Private","level":"Formal","kind_detail":"Primary","lga":"Obio/Akpor","ward":"Obward 5"},"geometry":{"type":"Point","coordinates":[6.97721,4.81356]}},{"type":"Feature","properties":{"name":"Chalcedony Academy","kind":"school","ownership":"Private","level":"Formal","kind_detail":"Primary","lga":"Obio/Akpor","ward":"Obward 16"},"geometry":{"type":"Point","coordinates":[6.94202,4.87822]}},{"type":"Feature","properties":{"name":"Ivy Crest Children Centre","kind":"school","ownership":"Private","level":"Formal","kind_detail":"Primary","lga":"Obio/Akpor","ward":"Obward 6"},"geometry":{"type":"Point","coordinates":[6.9772,4.82754]}},{"type":"Feature","properties":{"name":"Gods Intervention International Academy","kind":"school","ownership":"Private","level":"Formal","kind_detail":"Primary","lga":"Obio/Akpor","ward":"Obward 2"},"geometry":{"type":"Point","coordinates":[6.93228,4.86818]}},{"type":"Feature","properties":{"name":"Hephziba International School","kind":"school","ownership":"Private","level":"Formal","kind_detail":"Primary","lga":"Obio/Akpor","ward":"Obward 5"},"geometry":{"type":"Point","coordinates":[6.97469,4.81332]}},{"type":"Feature","properties":{"name":"Goodly Heritage Nursery School","kind":"school","ownership":"Private","level":"Formal","kind_detail":"Primary","lga":"Obio/Akpor","ward":"Obward 5"},"geometry":{"type":"Point","coordinates":[6.97381,4.8102]}},{"type":"Feature","properties":{"name":"Mathew Academy","kind":"school","ownership":"Private","level":"Formal","kind_detail":"Primary","lga":"Obio/Akpor","ward":"Obward 16"},"geometry":{"type":"Point","coordinates":[6.9422,4.87753]}},{"type":"Feature","properties":{"name":"Golden Career School","kind":"school","ownership":"Private","level":"Formal","kind_detail":"Primary","lga":"Obio/Akpor","ward":"Obward 2"},"geometry":{"type":"Point","coordinates":[6.93257,4.86996]}},{"type":"Feature","properties":{"name":"Dynamic Child Academy","kind":"school","ownership":"Private","level":"Formal","kind_detail":"Primary","lga":"Obio/Akpor","ward":"Obward 16"},"geometry":{"type":"Point","coordinates":[6.94105,4.8878]}},{"type":"Feature","properties":{"name":"Great International School","kind":"school","ownership":"Private","level":"Formal","kind_detail":"Primary","lga":"Obio/Akpor","ward":"Obward 16"},"geometry":{"type":"Point","coordinates":[6.92343,4.88534]}},{"type":"Feature","properties":{"name":"Cita International School","kind":"school","ownership":"Private","level":"Formal","kind_detail":"Primary","lga":"Obio/Akpor","ward":"Obward 15"},"geometry":{"type":"Point","coordinates":[7.03647,4.83946]}},{"type":"Feature","properties":{"name":"New Life Baptist School","kind":"school","ownership":"Private","level":"Formal","kind_detail":"Primary","lga":"Obio/Akpor","ward":"Obward 5"},"geometry":{"type":"Point","coordinates":[6.9724,4.80916]}},{"type":"Feature","properties":{"name":"Rosy Breeds Academy","kind":"school","ownership":"Private","level":"Formal","kind_detail":"Primary","lga":"Obio/Akpor","ward":"Obward 1"},"geometry":{"type":"Point","coordinates":[7.02973,4.87913]}},{"type":"Feature","properties":{"name":"St Clement Catholic School Ozuoba","kind":"school","ownership":"Private","level":"Formal","kind_detail":"Primary","lga":"Obio/Akpor","ward":"Obward 2"},"geometry":{"type":"Point","coordinates":[6.92933,4.87011]}},{"type":"Feature","properties":{"name":"Cafed International School Extension Rumuodara P H","kind":"school","ownership":"Private","level":"Formal","kind_detail":"Primary","lga":"Obio/Akpor","ward":"Obward 2"},"geometry":{"type":"Point","coordinates":[6.92724,4.87054]}},{"type":"Feature","properties":{"name":"Goldfield International Nursery School","kind":"school","ownership":"Private","level":"Formal","kind_detail":"Primary","lga":"Obio/Akpor","ward":"Obward 8"},"geometry":{"type":"Point","coordinates":[6.96276,4.85969]}},{"type":"Feature","properties":{"name":"Rivers School of Nursing And Midwifery","kind":"school","ownership":"State Government","level":"Formal","kind_detail":"Tertiary","lga":"Port-Harcourt","ward":"Phward 17"},"geometry":{"type":"Point","coordinates":[6.99838,4.79544]}},{"type":"Feature","properties":{"name":"Rivers College of Education","kind":"school","ownership":"State Government","level":"Formal","kind_detail":"Tertiary","lga":"Port-Harcourt","ward":"Phward 2"},"geometry":{"type":"Point","coordinates":[7.0048,4.7987]}},{"type":"Feature","properties":{"name":"Archdeacon Crowther Memorial Girls School","kind":"school","ownership":"Public","level":"Formal","kind_detail":"Secondary","lga":"Port-Harcourt","ward":"Phward 3"},"geometry":{"type":"Point","coordinates":[7.02052,4.77065]}},{"type":"Feature","properties":{"name":"Government Technical Collage PH","kind":"school","ownership":"Public","level":"Formal","kind_detail":"Secondary","lga":"Port-Harcourt","ward":"Phward 2"},"geometry":{"type":"Point","coordinates":[7.00563,4.80142]}},{"type":"Feature","properties":{"name":"Center for Basic Space Science","kind":"school","ownership":"Public","level":"Formal","kind_detail":"Secondary","lga":"Port-Harcourt","ward":"Phward 3"},"geometry":{"type":"Point","coordinates":[7.02017,4.77181]}},{"type":"Feature","properties":{"name":"CKS I Oromenike","kind":"school","ownership":"Public","level":"Formal","kind_detail":"Primary","lga":"Port-Harcourt","ward":"Phward 2"},"geometry":{"type":"Point","coordinates":[7.00326,4.79747]}},{"type":"Feature","properties":{"name":"State School V Orogbum","kind":"school","ownership":"Public","level":"Formal","kind_detail":"Primary","lga":"Port-Harcourt","ward":"Phward 2"},"geometry":{"type":"Point","coordinates":[7.00619,4.80369]}},{"type":"Feature","properties":{"name":"CKS II Oromenike","kind":"school","ownership":"Public","level":"Formal","kind_detail":"Primary","lga":"Port-Harcourt","ward":"Phward 2"},"geometry":{"type":"Point","coordinates":[7.00344,4.79747]}},{"type":"Feature","properties":{"name":"Word Of Faith Secondary School Woji","kind":"school","ownership":"Public","level":"Formal","kind_detail":"Secondary","lga":"Obio/Akpor","ward":"Obward 15"},"geometry":{"type":"Point","coordinates":[7.06036,4.83153]}},{"type":"Feature","properties":{"name":"Alpha Academy Eagle Island","kind":"school","ownership":"Public","level":"Formal","kind_detail":"Secondary","lga":"Port-Harcourt","ward":"Phward 8"},"geometry":{"type":"Point","coordinates":[6.99217,4.78369]}},{"type":"Feature","properties":{"name":"Shining Star Model Academy Eligbolo","kind":"school","ownership":"Public","level":"Formal","kind_detail":"Secondary","lga":"Obio/Akpor","ward":"Obward 11"},"geometry":{"type":"Point","coordinates":[7.00669,4.86797]}},{"type":"Feature","properties":{"name":"Rivers State School Of Midwifery","kind":"school","ownership":"Public","level":"Formal","kind_detail":"Secondary","lga":"Port-Harcourt","ward":"Phward 2"},"geometry":{"type":"Point","coordinates":[7.00361,4.80478]}},{"type":"Feature","properties":{"name":"The Groove School Gra Phase I","kind":"school","ownership":"Public","level":"Formal","kind_detail":"Secondary","lga":"Obio/Akpor","ward":"Obward 5"},"geometry":{"type":"Point","coordinates":[7.00433,4.82222]}},{"type":"Feature","properties":{"name":"Army Children Model School Gra Phase II","kind":"school","ownership":"Public","level":"Formal","kind_detail":"Secondary","lga":"Port-Harcourt","ward":"Phward 11"},"geometry":{"type":"Point","coordinates":[7.00786,4.82819]}},{"type":"Feature","properties":{"name":"Bereton Montessori School Old Gra","kind":"school","ownership":"Public","level":"Formal","kind_detail":"Secondary","lga":"Port-Harcourt","ward":"Phward 4"},"geometry":{"type":"Point","coordinates":[7.02085,4.78898]}},{"type":"Feature","properties":{"name":"State School II Okujagu Azuabie","kind":"school","ownership":"Public","level":"Formal","kind_detail":"Secondary","lga":"Obio/Akpor","ward":"Obward 15"},"geometry":{"type":"Point","coordinates":[7.06028,4.81036]}},{"type":"Feature","properties":{"name":"Charry Group Of Schools Rumuoluinomadi","kind":"school","ownership":"Public","level":"Formal","kind_detail":"Secondary","lga":"Obio/Akpor","ward":"Obward 3"},"geometry":{"type":"Point","coordinates":[7.00983,4.89158]}},{"type":"Feature","properties":{"name":"Halley Basic School Rumuogba","kind":"school","ownership":"Public","level":"Formal","kind_detail":"Secondary","lga":"Obio/Akpor","ward":"Obward 12"},"geometry":{"type":"Point","coordinates":[7.03689,4.854]}},{"type":"Feature","properties":{"name":"U B E Rumuokwurusi","kind":"school","ownership":"Public","level":"Formal","kind_detail":"Others","lga":"Obio/Akpor","ward":"Obward 17"},"geometry":{"type":"Point","coordinates":[7.05894,4.87311]}},{"type":"Feature","properties":{"name":"Our Lady of Fatima Girls Mary Model Secondary School","kind":"school","ownership":"Faith Based","level":"Integrated","kind_detail":"Secondary","lga":"Port-Harcourt","ward":"Phward 4"},"geometry":{"type":"Point","coordinates":[7.0312,4.75761]}},{"type":"Feature","properties":{"name":"New Covenant Group of Schools","kind":"school","ownership":"Private","level":"Formal","kind_detail":"Secondary","lga":"Port-Harcourt","ward":"Phward 20"},"geometry":{"type":"Point","coordinates":[7.00178,4.80507]}},{"type":"Feature","properties":{"name":"Community Secondary School Orogbum Ph","kind":"school","ownership":"Public","level":"Formal","kind_detail":"Secondary","lga":"Port-Harcourt","ward":"Phward 6"},"geometry":{"type":"Point","coordinates":[6.99499,4.79878]}},{"type":"Feature","properties":{"name":"Special School For Handicapped Children","kind":"school","ownership":"Public","level":"Formal","kind_detail":"Secondary","lga":"Port-Harcourt","ward":"Phward 4"},"geometry":{"type":"Point","coordinates":[7.0304,4.75864]}},{"type":"Feature","properties":{"name":"GTC Schools Port Harcourt","kind":"school","ownership":"Public","level":"Formal","kind_detail":"Secondary","lga":"Port-Harcourt","ward":"Phward 1"},"geometry":{"type":"Point","coordinates":[7.04557,4.80983]}},{"type":"Feature","properties":{"name":"Haruk International School Rumuigbo","kind":"school","ownership":"Private","level":"Formal","kind_detail":"Secondary","lga":"Obio/Akpor","ward":"Obward 8"},"geometry":{"type":"Point","coordinates":[6.98531,4.85466]}},{"type":"Feature","properties":{"name":"Holy Cross International Schools","kind":"school","ownership":"Private","level":"Formal","kind_detail":"Secondary","lga":"Obio/Akpor","ward":"Obward 4"},"geometry":{"type":"Point","coordinates":[6.95457,4.81724]}},{"type":"Feature","properties":{"name":"Eagles Delight International School","kind":"school","ownership":"Private","level":"Formal","kind_detail":"Secondary","lga":"Obio/Akpor","ward":"Obward 13"},"geometry":{"type":"Point","coordinates":[6.97006,4.79454]}},{"type":"Feature","properties":{"name":"Paragon City Light College","kind":"school","ownership":"Private","level":"Formal","kind_detail":"Secondary","lga":"Port-Harcourt","ward":"Phward 15"},"geometry":{"type":"Point","coordinates":[6.97783,4.80846]}},{"type":"Feature","properties":{"name":"Golden City Academy","kind":"school","ownership":"Private","level":"Formal","kind_detail":"Secondary","lga":"Port-Harcourt","ward":"Phward 15"},"geometry":{"type":"Point","coordinates":[6.97736,4.80776]}},{"type":"Feature","properties":{"name":"Mount Horeb Missionary Academy","kind":"school","ownership":"Private","level":"Formal","kind_detail":"Secondary","lga":"Obio/Akpor","ward":"Obward 11"},"geometry":{"type":"Point","coordinates":[7.02095,4.86751]}},{"type":"Feature","properties":{"name":"Cadgiff Model Comprehensive School","kind":"school","ownership":"Private","level":"Formal","kind_detail":"Secondary","lga":"Obio/Akpor","ward":"Obward 12"},"geometry":{"type":"Point","coordinates":[7.03603,4.85259]}},{"type":"Feature","properties":{"name":"Bishop Crowther Memorial Secondary School Rumuobiokani","kind":"school","ownership":"Private","level":"Formal","kind_detail":"Secondary","lga":"Obio/Akpor","ward":"Obward 14"},"geometry":{"type":"Point","coordinates":[7.02958,4.83758]}},{"type":"Feature","properties":{"name":"Life Gate International School","kind":"school","ownership":"Private","level":"Formal","kind_detail":"Secondary","lga":"Obio/Akpor","ward":"Obward 5"},"geometry":{"type":"Point","coordinates":[6.9827,4.82818]}},{"type":"Feature","properties":{"name":"Arch Deacon Brown Memorial College","kind":"school","ownership":"Private","level":"Formal","kind_detail":"Secondary","lga":"Obio/Akpor","ward":"Obward 15"},"geometry":{"type":"Point","coordinates":[7.06716,4.82139]}},{"type":"Feature","properties":{"name":"Community Secondary School Okporo","kind":"school","ownership":"Public","level":"Formal","kind_detail":"Secondary","lga":"Obio/Akpor","ward":"Obward 12"},"geometry":{"type":"Point","coordinates":[7.03624,4.8504]}},{"type":"Feature","properties":{"name":"Martha International School","kind":"school","ownership":"Private","level":"Formal","kind_detail":"Secondary","lga":"Obio/Akpor","ward":"Obward 4"},"geometry":{"type":"Point","coordinates":[6.97674,4.82468]}},{"type":"Feature","properties":{"name":"St John State School","kind":"school","ownership":"Public","level":"Formal","kind_detail":"Primary","lga":"Port-Harcourt","ward":"Phward 4"},"geometry":{"type":"Point","coordinates":[7.03282,4.75768]}},{"type":"Feature","properties":{"name":"Army Children Model School Gra","kind":"school","ownership":"Public","level":"Formal","kind_detail":"Primary","lga":"Obio/Akpor","ward":"Obward 5"},"geometry":{"type":"Point","coordinates":[6.99841,4.82292]}},{"type":"Feature","properties":{"name":"Kingdom Heritage International School","kind":"school","ownership":"Private","level":"Formal","kind_detail":"Primary","lga":"Port-Harcourt","ward":"Phward 2"},"geometry":{"type":"Point","coordinates":[7.00481,4.80194]}},{"type":"Feature","properties":{"name":"State School Elechi Beach","kind":"school","ownership":"Public","level":"Formal","kind_detail":"Primary","lga":"Port-Harcourt","ward":"Phward 8"},"geometry":{"type":"Point","coordinates":[6.99378,4.78059]}},{"type":"Feature","properties":{"name":"Frankline International School","kind":"school","ownership":"Public","level":"Formal","kind_detail":"Primary","lga":"Obio/Akpor","ward":"Obward 12"},"geometry":{"type":"Point","coordinates":[7.03664,4.86433]}},{"type":"Feature","properties":{"name":"Favourite Kids Academy","kind":"school","ownership":"Private","level":"Formal","kind_detail":"Primary","lga":"Obio/Akpor","ward":"Obward 15"},"geometry":{"type":"Point","coordinates":[7.06299,4.81014]}},{"type":"Feature","properties":{"name":"Tenderfoot International School Rumuigbo","kind":"school","ownership":"Private","level":"Formal","kind_detail":"Primary","lga":"Obio/Akpor","ward":"Obward 8"},"geometry":{"type":"Point","coordinates":[6.98404,4.85317]}},{"type":"Feature","properties":{"name":"Princess International College Schools","kind":"school","ownership":"Private","level":"Formal","kind_detail":"Primary","lga":"Obio/Akpor","ward":"Obward 12"},"geometry":{"type":"Point","coordinates":[7.03031,4.86039]}},{"type":"Feature","properties":{"name":"Cafed International School Ozuoba","kind":"school","ownership":"Private","level":"Formal","kind_detail":"Primary","lga":"Obio/Akpor","ward":"Obward 16"},"geometry":{"type":"Point","coordinates":[6.92601,4.87208]}},{"type":"Feature","properties":{"name":"Jesus Cares Schools","kind":"school","ownership":"Private","level":"Formal","kind_detail":"Primary","lga":"Obio/Akpor","ward":"Obward 4"},"geometry":{"type":"Point","coordinates":[6.95346,4.81609]}},{"type":"Feature","properties":{"name":"Geoco International School","kind":"school","ownership":"Private","level":"Formal","kind_detail":"Primary","lga":"Obio/Akpor","ward":"Obward 11"},"geometry":{"type":"Point","coordinates":[7.01859,4.86923]}},{"type":"Feature","properties":{"name":"Alvin International School","kind":"school","ownership":"Private","level":"Formal","kind_detail":"Primary","lga":"Obio/Akpor","ward":"Obward 16"},"geometry":{"type":"Point","coordinates":[6.93763,4.87183]}},{"type":"Feature","properties":{"name":"Paracleto International School","kind":"school","ownership":"Private","level":"Formal","kind_detail":"Primary","lga":"Obio/Akpor","ward":"Obward 11"},"geometry":{"type":"Point","coordinates":[7.01989,4.86804]}},{"type":"Feature","properties":{"name":"Perfect Peace Academy","kind":"school","ownership":"Private","level":"Formal","kind_detail":"Primary","lga":"Obio/Akpor","ward":"Obward 6"},"geometry":{"type":"Point","coordinates":[6.98046,4.82931]}},{"type":"Feature","properties":{"name":"El Jehovah Jireh Academy","kind":"school","ownership":"Private","level":"Formal","kind_detail":"Primary","lga":"Obio/Akpor","ward":"Obward 16"},"geometry":{"type":"Point","coordinates":[6.92986,4.87499]}},{"type":"Feature","properties":{"name":"Lake Wood Montessori School","kind":"school","ownership":"Private","level":"Formal","kind_detail":"Primary","lga":"Obio/Akpor","ward":"Obward 8"},"geometry":{"type":"Point","coordinates":[6.94953,4.8671]}},{"type":"Feature","properties":{"name":"Apple Montessori School Ozuoba","kind":"school","ownership":"Private","level":"Formal","kind_detail":"Primary","lga":"Obio/Akpor","ward":"Obward 16"},"geometry":{"type":"Point","coordinates":[6.93827,4.87152]}},{"type":"Feature","properties":{"name":"Government A Econs Creek Road","kind":"school","ownership":"Public","level":"Formal","kind_detail":"Primary","lga":"Port-Harcourt","ward":"Phward 1"},"geometry":{"type":"Point","coordinates":[7.04262,4.79231]}},{"type":"Feature","properties":{"name":"St Pauls H Econs","kind":"school","ownership":"Public","level":"Formal","kind_detail":"Primary","lga":"Port-Harcourt","ward":"Phward 20"},"geometry":{"type":"Point","coordinates":[7.00786,4.80917]}},{"type":"Feature","properties":{"name":"S S H C School","kind":"school","ownership":"Public","level":"Formal","kind_detail":"Secondary","lga":"Port-Harcourt","ward":"Phward 4"},"geometry":{"type":"Point","coordinates":[7.03012,4.75896]}},{"type":"Feature","properties":{"name":"B H S","kind":"school","ownership":"Public","level":"Formal","kind_detail":"Secondary","lga":"Port-Harcourt","ward":"Phward 5"},"geometry":{"type":"Point","coordinates":[7.03666,4.75815]}},{"type":"Feature","properties":{"name":"Government Girls Secondary School Harbour Rd","kind":"school","ownership":"Public","level":"Formal","kind_detail":"Secondary","lga":"Port-Harcourt","ward":"Phward 3"},"geometry":{"type":"Point","coordinates":[7.01549,4.76131]}},{"type":"Feature","properties":{"name":"St Judestate Schooltate School","kind":"school","ownership":"Public","level":"Formal","kind_detail":"Primary","lga":"Port-Harcourt","ward":"Phward 4"},"geometry":{"type":"Point","coordinates":[7.02707,4.75895]}},{"type":"Feature","properties":{"name":"St Thomastate Schooltate School","kind":"school","ownership":"Public","level":"Formal","kind_detail":"Primary","lga":"Port-Harcourt","ward":"Phward 5"},"geometry":{"type":"Point","coordinates":[7.03577,4.75634]}},{"type":"Feature","properties":{"name":"Government Girls Secondary School Rumucholu Eneka","kind":"school","ownership":"Public","level":"Formal","kind_detail":"Secondary","lga":"Obio/Akpor","ward":"Obward 3"},"geometry":{"type":"Point","coordinates":[7.04169,4.90892]}},{"type":"Feature","properties":{"name":"St Johns Campus College Of Edu","kind":"school","ownership":"Public","level":"Formal","kind_detail":"Secondary","lga":"Port-Harcourt","ward":"Phward 11"},"geometry":{"type":"Point","coordinates":[7.01886,4.81903]}},{"type":"Feature","properties":{"name":"Blessed Intl Group Of Schools Otumonye Mati","kind":"school","ownership":"Public","level":"Formal","kind_detail":"Secondary","lga":"Port-Harcourt","ward":"Phward 17"},"geometry":{"type":"Point","coordinates":[6.99878,4.79356]}},{"type":"Feature","properties":{"name":"Agusta Intl School Gra Phase I","kind":"school","ownership":"Public","level":"Formal","kind_detail":"Secondary","lga":"Port-Harcourt","ward":"Phward 2"},"geometry":{"type":"Point","coordinates":[7.00083,4.81942]}},{"type":"Feature","properties":{"name":"Gracelands International School Rumukalagbo","kind":"school","ownership":"Public","level":"Formal","kind_detail":"Secondary","lga":"Obio/Akpor","ward":"Obward 14"},"geometry":{"type":"Point","coordinates":[7.02742,4.82797]}},{"type":"Feature","properties":{"name":"Kharece Intl Schools Ozoboko Ama","kind":"school","ownership":"Public","level":"Formal","kind_detail":"Secondary","lga":"Port-Harcourt","ward":"Phward 1"},"geometry":{"type":"Point","coordinates":[7.04078,4.79067]}},{"type":"Feature","properties":{"name":"Gods Favour Group Of Schools Ozoboko Ama","kind":"school","ownership":"Public","level":"Formal","kind_detail":"Secondary","lga":"Port-Harcourt","ward":"Phward 1"},"geometry":{"type":"Point","coordinates":[7.04428,4.79028]}},{"type":"Feature","properties":{"name":"Blossom Intl Schools Ede Okua Abuloma","kind":"school","ownership":"Public","level":"Formal","kind_detail":"Secondary","lga":"Port-Harcourt","ward":"Phward 1"},"geometry":{"type":"Point","coordinates":[7.052,4.78244]}},{"type":"Feature","properties":{"name":"Brilliant Intl School Rumuo Gologo","kind":"school","ownership":"Public","level":"Formal","kind_detail":"Secondary","lga":"Obio/Akpor","ward":"Obward 8"},"geometry":{"type":"Point","coordinates":[6.98072,4.859]}},{"type":"Feature","properties":{"name":"Inonarose Intl School Rumuehienwota","kind":"school","ownership":"Public","level":"Formal","kind_detail":"Secondary","lga":"Obio/Akpor","ward":"Obward 10"},"geometry":{"type":"Point","coordinates":[7.00047,4.88764]}},{"type":"Feature","properties":{"name":"Trinity Child Intl School Rumuchiwona","kind":"school","ownership":"Public","level":"Formal","kind_detail":"Secondary","lga":"Obio/Akpor","ward":"Obward 10"},"geometry":{"type":"Point","coordinates":[7.012,4.87986]}},{"type":"Feature","properties":{"name":"Emmy Norberton Intl School Rumuodara","kind":"school","ownership":"Public","level":"Formal","kind_detail":"Secondary","lga":"Obio/Akpor","ward":"Obward 1"},"geometry":{"type":"Point","coordinates":[7.04222,4.86967]}},{"type":"Feature","properties":{"name":"Government Girls Secondary School Rumuokania","kind":"school","ownership":"Public","level":"Formal","kind_detail":"Secondary","lga":"Obio/Akpor","ward":"Obward 8"},"geometry":{"type":"Point","coordinates":[6.98661,4.845]}},{"type":"Feature","properties":{"name":"First Intl Academy Rumunkwo","kind":"school","ownership":"Public","level":"Formal","kind_detail":"Secondary","lga":"Obio/Akpor","ward":"Obward 11"},"geometry":{"type":"Point","coordinates":[7.00164,4.87]}},{"type":"Feature","properties":{"name":"St Andrews School Mgbundukwu","kind":"school","ownership":"Public","level":"Formal","kind_detail":"Secondary","lga":"Port-Harcourt","ward":"Phward 2"},"geometry":{"type":"Point","coordinates":[7.00453,4.79928]}},{"type":"Feature","properties":{"name":"Community Secondary School Pabod","kind":"school","ownership":"Public","level":"Formal","kind_detail":"Secondary","lga":"Port-Harcourt","ward":"Phward 17"},"geometry":{"type":"Point","coordinates":[7.01845,4.78478]}},{"type":"Feature","properties":{"name":"Victory Child Academy","kind":"school","ownership":"Private","level":"Formal","kind_detail":"Primary","lga":"Obio/Akpor","ward":"Obward 4"},"geometry":{"type":"Point","coordinates":[6.98263,4.83379]}},{"type":"Feature","properties":{"name":"Jesus Care School","kind":"school","ownership":"Private","level":"Formal","kind_detail":"Secondary","lga":"Obio/Akpor","ward":"Obward 4"},"geometry":{"type":"Point","coordinates":[6.95343,4.81633]}},{"type":"Feature","properties":{"name":"St Andrew State School","kind":"school","ownership":"Public","level":"Formal","kind_detail":"Primary","lga":"Port-Harcourt","ward":"Phward 8"},"geometry":{"type":"Point","coordinates":[6.99566,4.7928]}},{"type":"Feature","properties":{"name":"Rumuokparali Primary School","kind":"school","ownership":"Public","level":"Formal","kind_detail":"Primary","lga":"Obio/Akpor","ward":"Obward 16"},"geometry":{"type":"Point","coordinates":[6.92254,4.8941]}},{"type":"Feature","properties":{"name":"Government Girls Secondary School","kind":"school","ownership":"Public","level":"Formal","kind_detail":"Secondary","lga":"Port-Harcourt","ward":"Phward 2"},"geometry":{"type":"Point","coordinates":[6.99851,4.80148]}},{"type":"Feature","properties":{"name":"Community Secondary School Abuloma","kind":"school","ownership":"Public","level":"Formal","kind_detail":"Secondary","lga":"Port-Harcourt","ward":"Phward 1"},"geometry":{"type":"Point","coordinates":[7.04411,4.78316]}},{"type":"Feature","properties":{"name":"Government Junior Secondary School Elekahia","kind":"school","ownership":"Public","level":"Formal","kind_detail":"Secondary","lga":"Port-Harcourt","ward":"Phward 11"},"geometry":{"type":"Point","coordinates":[7.02597,4.81622]}},{"type":"Feature","properties":{"name":"Olobo Premier College","kind":"school","ownership":"Private","level":"Formal","kind_detail":"Secondary","lga":"Obio/Akpor","ward":"Obward 16"},"geometry":{"type":"Point","coordinates":[6.91207,4.89427]}},{"type":"Feature","properties":{"name":"Success Comprehensive Secondary School","kind":"school","ownership":"Private","level":"Formal","kind_detail":"Secondary","lga":"Obio/Akpor","ward":"Obward 16"},"geometry":{"type":"Point","coordinates":[6.94244,4.88023]}},{"type":"Feature","properties":{"name":"Oginigba Comprehensive Secondary School","kind":"school","ownership":"Public","level":"Formal","kind_detail":"Secondary","lga":"Obio/Akpor","ward":"Obward 15"},"geometry":{"type":"Point","coordinates":[7.0392,4.82855]}},{"type":"Feature","properties":{"name":"Community Secondary School Ogbogoro","kind":"school","ownership":"Public","level":"Formal","kind_detail":"Secondary","lga":"Obio/Akpor","ward":"Obward 2"},"geometry":{"type":"Point","coordinates":[6.92912,4.85148]}},{"type":"Feature","properties":{"name":"Model Girls Secondary School Rumueme","kind":"school","ownership":"Public","level":"Formal","kind_detail":"Secondary","lga":"Obio/Akpor","ward":"Obward 5"},"geometry":{"type":"Point","coordinates":[6.98207,4.81455]}},{"type":"Feature","properties":{"name":"Model Secondary School Gra","kind":"school","ownership":"Public","level":"Formal","kind_detail":"Secondary","lga":"Obio/Akpor","ward":"Obward 5"},"geometry":{"type":"Point","coordinates":[6.99899,4.82291]}},{"type":"Feature","properties":{"name":"Community Secondary School Rukpokwu","kind":"school","ownership":"Public","level":"Formal","kind_detail":"Secondary","lga":"Obio/Akpor","ward":"Obward 3"},"geometry":{"type":"Point","coordinates":[6.99312,4.89882]}},{"type":"Feature","properties":{"name":"Community Secondary School Rumuomasi","kind":"school","ownership":"Public","level":"Formal","kind_detail":"Secondary","lga":"Obio/Akpor","ward":"Obward 14"},"geometry":{"type":"Point","coordinates":[7.0246,4.835]}},{"type":"Feature","properties":{"name":"Royal Girls Academy","kind":"school","ownership":"Private","level":"Formal","kind_detail":"Secondary","lga":"Obio/Akpor","ward":"Obward 16"},"geometry":{"type":"Point","coordinates":[6.92342,4.87062]}},{"type":"Feature","properties":{"name":"Community Secondary School Rumuapara","kind":"school","ownership":"Public","level":"Formal","kind_detail":"Secondary","lga":"Obio/Akpor","ward":"Obward 8"},"geometry":{"type":"Point","coordinates":[6.97482,4.87184]}},{"type":"Feature","properties":{"name":"Community Secondary School Rumueprikom","kind":"school","ownership":"Public","level":"Formal","kind_detail":"Secondary","lga":"Obio/Akpor","ward":"Obward 8"},"geometry":{"type":"Point","coordinates":[6.98667,4.83455]}},{"type":"Feature","properties":{"name":"Our Lady of Lourdes Secondary School","kind":"school","ownership":"Public","level":"Formal","kind_detail":"Secondary","lga":"Obio/Akpor","ward":"Obward 16"},"geometry":{"type":"Point","coordinates":[6.9269,4.8733]}},{"type":"Feature","properties":{"name":"Methodist High School Harbor Road","kind":"school","ownership":"Public","level":"Formal","kind_detail":"Secondary","lga":"Port-Harcourt","ward":"Phward 4"},"geometry":{"type":"Point","coordinates":[7.02589,4.76867]}},{"type":"Feature","properties":{"name":"Model Girls Secondary School","kind":"school","ownership":"Public","level":"Formal","kind_detail":"Secondary","lga":"Obio/Akpor","ward":"Obward 5"},"geometry":{"type":"Point","coordinates":[6.98258,4.81551]}},{"type":"Feature","properties":{"name":"Community Secondary School Rumuolumeni","kind":"school","ownership":"Public","level":"Formal","kind_detail":"Secondary","lga":"Obio/Akpor","ward":"Obward 13"},"geometry":{"type":"Point","coordinates":[6.9574,4.80768]}},{"type":"Feature","properties":{"name":"Government Secondary School Eneka","kind":"school","ownership":"Public","level":"Formal","kind_detail":"Secondary","lga":"Obio/Akpor","ward":"Obward 3"},"geometry":{"type":"Point","coordinates":[7.03171,4.90544]}},{"type":"Feature","properties":{"name":"University of Port Harcourt","kind":"school","ownership":"Federal Government","level":"Formal","kind_detail":"Tertiary","lga":"Obio/Akpor","ward":"Obward 16"},"geometry":{"type":"Point","coordinates":[6.90069,4.87796]}}]}