{"type":"FeatureCollection","features":[{"type":"Feature","properties":{"name":"Mgbesilaru","alt_name":"","kind":"settlement","source":"grid3","ward":"Mgbesilaru","lga":"Obio\u2013Akpor","is_primary":1,"in_plate":1},"geometry":{"type":"Point","coordinates":[7.03467,4.85169]}},{"type":"Feature","properties":{"name":"Abuloma","alt_name":"","kind":"settlement","source":"grid3","ward":"Tere Ama Femie","lga":"Port-Harcourt","is_primary":0,"in_plate":1},"geometry":{"type":"Point","coordinates":[7.05753,4.77436]}},{"type":"Feature","properties":{"name":"Akwaka Rumueme","alt_name":"","kind":"settlement","source":"grid3","ward":"Mgbuosimini","lga":"Obio\u2013Akpor","is_primary":0,"in_plate":1},"geometry":{"type":"Point","coordinates":[6.99233,4.82964]}},{"type":"Feature","properties":{"name":"Ala Polo Ph","alt_name":"","kind":"settlement","source":"grid3","ward":"Harbour","lga":"Port-Harcourt","is_primary":0,"in_plate":1},"geometry":{"type":"Point","coordinates":[7.02067,4.77]}},{"type":"Feature","properties":{"name":"Alakahia","alt_name":"","kind":"settlement","source":"grid3","ward":"Alakahia","lga":"Obio\u2013Akpor","is_primary":0,"in_plate":1},"geometry":{"type":"Point","coordinates":[6.92767,4.88653]}},{"type":"Feature","properties":{"name":"Alaohai","alt_name":"","kind":"settlement","source":"grid3","ward":"Rukpakwolosi","lga":"Obio\u2013Akpor","is_primary":0,"in_plate":1},"geometry":{"type":"Point","coordinates":[7.02077,4.86589]}},{"type":"Feature","properties":{"name":"Alioparanwo","alt_name":"","kind":"settlement","source":"grid3","ward":"Rumuolata","lga":"Obio\u2013Akpor","is_primary":0,"in_plate":1},"geometry":{"type":"Point","coordinates":[6.92586,4.83666]}},{"type":"Feature","properties":{"name":"Alozo","alt_name":"","kind":"village","source":"osm","ward":"Rukpakwolosi","lga":"Obio\u2013Akpor","is_primary":0,"in_plate":1},"geometry":{"type":"Point","coordinates":[6.98194,4.87361]}},{"type":"Feature","properties":{"name":"Amadi Ama","alt_name":"","kind":"settlement","source":"grid3","ward":"Rumukalagbo","lga":"Port-Harcourt","is_primary":0,"in_plate":1},"geometry":{"type":"Point","coordinates":[7.02936,4.80647]}},{"type":"Feature","properties":{"name":"Amadi Flats Layout","alt_name":"","kind":"settlement","source":"grid3","ward":"Orogbum","lga":"Port-Harcourt","is_primary":0,"in_plate":1},"geometry":{"type":"Point","coordinates":[7.01506,4.79975]}},{"type":"Feature","properties":{"name":"Amadi Roundabout","alt_name":"","kind":"settlement","source":"grid3","ward":"Rumukalagbo","lga":"Port-Harcourt","is_primary":0,"in_plate":1},"geometry":{"type":"Point","coordinates":[7.03417,4.80556]}},{"type":"Feature","properties":{"name":"Anyalu Nu Nyewa","alt_name":"","kind":"settlement","source":"grid3","ward":"Mgbesilaru","lga":"Obio\u2013Akpor","is_primary":0,"in_plate":1},"geometry":{"type":"Point","coordinates":[7.02978,4.85722]}},{"type":"Feature","properties":{"name":"Atali","alt_name":"","kind":"settlement","source":"grid3","ward":"Rumunduru","lga":"Obio\u2013Akpor","is_primary":0,"in_plate":1},"geometry":{"type":"Point","coordinates":[7.05975,4.87569]}},{"type":"Feature","properties":{"name":"Awalama","alt_name":"","kind":"settlement","source":"grid3","ward":"Rumuehienwota","lga":"Obio\u2013Akpor","is_primary":0,"in_plate":1},"geometry":{"type":"Point","coordinates":[7.00572,4.87664]}},{"type":"Feature","properties":{"name":"Bundu","alt_name":"","kind":"settlement","source":"grid3","ward":"Port Harcourt Main","lga":"Port-Harcourt","is_primary":0,"in_plate":1},"geometry":{"type":"Point","coordinates":[7.0245,4.76961]}},{"type":"Feature","properties":{"name":"Chinda","alt_name":"","kind":"settlement","source":"grid3","ward":"Mgbuosimini","lga":"Obio\u2013Akpor","is_primary":0,"in_plate":1},"geometry":{"type":"Point","coordinates":[6.99064,4.82786]}},{"type":"Feature","properties":{"name":"Choba Isoga","alt_name":"","kind":"settlement","source":"grid3","ward":"Alakahia","lga":"Obio\u2013Akpor","is_primary":0,"in_plate":1},"geometry":{"type":"Point","coordinates":[6.90415,4.89843]}},{"type":"Feature","properties":{"name":"Coronation Layout","alt_name":"","kind":"settlement","source":"grid3","ward":"Coronation Layout","lga":"Port-Harcourt","is_primary":0,"in_plate":1},"geometry":{"type":"Point","coordinates":[7.00714,4.79728]}},{"type":"Feature","properties":{"name":"Diobu","alt_name":"","kind":"village","source":"osm","ward":"Coronation Layout","lga":"Port-Harcourt","is_primary":0,"in_plate":1},"geometry":{"type":"Point","coordinates":[7.00733,4.79999]}},{"type":"Feature","properties":{"name":"Dobu","alt_name":"","kind":"village","source":"osm","ward":"Eagle Island","lga":"Port-Harcourt","is_primary":0,"in_plate":1},"geometry":{"type":"Point","coordinates":[6.98778,4.80562]}},{"type":"Feature","properties":{"name":"Eagle Island","alt_name":"","kind":"settlement","source":"grid3","ward":"Eagle Island","lga":"Port-Harcourt","is_primary":0,"in_plate":1},"geometry":{"type":"Point","coordinates":[6.98381,4.78508]}},{"type":"Feature","properties":{"name":"Ede Okua Abuloma","alt_name":"","kind":"settlement","source":"grid3","ward":"Tere Ama Femie","lga":"Port-Harcourt","is_primary":0,"in_plate":1},"geometry":{"type":"Point","coordinates":[7.05733,4.78567]}},{"type":"Feature","properties":{"name":"Egbelu Ozodo","alt_name":"","kind":"settlement","source":"grid3","ward":"Rumuo Darawere","lga":"Obio\u2013Akpor","is_primary":0,"in_plate":1},"geometry":{"type":"Point","coordinates":[6.95861,4.85892]}},{"type":"Feature","properties":{"name":"Egberuukwu Oyigbo","alt_name":"","kind":"settlement","source":"grid3","ward":"Egberuukwu Oyigbo","lga":"Obio\u2013Akpor","is_primary":0,"in_plate":1},"geometry":{"type":"Point","coordinates":[7.11089,4.86398]}},{"type":"Feature","properties":{"name":"Ekena Rumueme","alt_name":"","kind":"settlement","source":"grid3","ward":"Rumuo Darawere","lga":"Obio\u2013Akpor","is_primary":0,"in_plate":1},"geometry":{"type":"Point","coordinates":[6.98875,4.83636]}},{"type":"Feature","properties":{"name":"Elechi Beach","alt_name":"","kind":"settlement","source":"grid3","ward":"Old GRA","lga":"Port-Harcourt","is_primary":0,"in_plate":1},"geometry":{"type":"Point","coordinates":[7.00672,4.78689]}},{"type":"Feature","properties":{"name":"Elekahia","alt_name":"","kind":"settlement","source":"grid3","ward":"Rumukalagbo","lga":"Port-Harcourt","is_primary":0,"in_plate":1},"geometry":{"type":"Point","coordinates":[7.02822,4.82214]}},{"type":"Feature","properties":{"name":"Elekahia Layout","alt_name":"","kind":"settlement","source":"grid3","ward":"Rumukalagbo","lga":"Port-Harcourt","is_primary":0,"in_plate":1},"geometry":{"type":"Point","coordinates":[7.01925,4.82597]}},{"type":"Feature","properties":{"name":"Elelenwo","alt_name":"","kind":"settlement","source":"grid3","ward":"Rumuodunwere","lga":"Obio\u2013Akpor","is_primary":0,"in_plate":1},"geometry":{"type":"Point","coordinates":[7.07003,4.84653]}},{"type":"Feature","properties":{"name":"Elelenwo","alt_name":"","kind":"town","source":"osm","ward":"Rumuodunwere","lga":"Obio\u2013Akpor","is_primary":0,"in_plate":1},"geometry":{"type":"Point","coordinates":[7.06671,4.84991]}},{"type":"Feature","properties":{"name":"Elelenwo","alt_name":"","kind":"village","source":"osm","ward":"Rumuodunwere","lga":"Obio\u2013Akpor","is_primary":0,"in_plate":1},"geometry":{"type":"Point","coordinates":[7.07529,4.84266]}},{"type":"Feature","properties":{"name":"Elieke","alt_name":"","kind":"settlement","source":"grid3","ward":"Rumuehienwota","lga":"Obio\u2013Akpor","is_primary":0,"in_plate":1},"geometry":{"type":"Point","coordinates":[7.00433,4.87339]}},{"type":"Feature","properties":{"name":"Eligbolo","alt_name":"","kind":"settlement","source":"grid3","ward":"Rukpakwolosi","lga":"Obio\u2013Akpor","is_primary":0,"in_plate":1},"geometry":{"type":"Point","coordinates":[7.01231,4.86253]}},{"type":"Feature","properties":{"name":"Eligbolo","alt_name":"","kind":"settlement","source":"grid3","ward":"Rumunduru","lga":"Obio\u2013Akpor","is_primary":0,"in_plate":1},"geometry":{"type":"Point","coordinates":[7.02544,4.87381]}},{"type":"Feature","properties":{"name":"Elijiji","alt_name":"","kind":"settlement","source":"grid3","ward":"Eagle Island","lga":"Port-Harcourt","is_primary":0,"in_plate":1},"geometry":{"type":"Point","coordinates":[6.98428,4.81219]}},{"type":"Feature","properties":{"name":"Elijiji Rumueme","alt_name":"","kind":"settlement","source":"grid3","ward":"Mgbuosimini","lga":"Obio\u2013Akpor","is_primary":0,"in_plate":1},"geometry":{"type":"Point","coordinates":[6.98414,4.82992]}},{"type":"Feature","properties":{"name":"Elikpokwodu","alt_name":"","kind":"settlement","source":"grid3","ward":"Rumuoji Eneka","lga":"Obio\u2013Akpor","is_primary":0,"in_plate":1},"geometry":{"type":"Point","coordinates":[6.99874,4.90535]}},{"type":"Feature","properties":{"name":"Elimgbu","alt_name":"","kind":"settlement","source":"grid3","ward":"Rumunduru","lga":"Obio\u2013Akpor","is_primary":0,"in_plate":1},"geometry":{"type":"Point","coordinates":[7.05986,4.87642]}},{"type":"Feature","properties":{"name":"Elimgbu","alt_name":"","kind":"village","source":"osm","ward":"Rumunduru","lga":"Obio\u2013Akpor","is_primary":0,"in_plate":1},"geometry":{"type":"Point","coordinates":[7.05573,4.86991]}},{"type":"Feature","properties":{"name":"Eliowham","alt_name":"","kind":"settlement","source":"grid3","ward":"Rumunduru","lga":"Obio\u2013Akpor","is_primary":0,"in_plate":1},"geometry":{"type":"Point","coordinates":[7.03783,4.86947]}},{"type":"Feature","properties":{"name":"Eliowhani","alt_name":"","kind":"village","source":"osm","ward":"Mgbesilaru","lga":"Obio\u2013Akpor","is_primary":0,"in_plate":1},"geometry":{"type":"Point","coordinates":[7.03319,4.8666]}},{"type":"Feature","properties":{"name":"Eliozu","alt_name":"","kind":"village","source":"osm","ward":"Rukpakwolosi","lga":"Obio\u2013Akpor","is_primary":0,"in_plate":1},"geometry":{"type":"Point","coordinates":[7.02316,4.86338]}},{"type":"Feature","properties":{"name":"Eneka","alt_name":"","kind":"settlement","source":"grid3","ward":"Rumuoji Eneka","lga":"Obio\u2013Akpor","is_primary":0,"in_plate":1},"geometry":{"type":"Point","coordinates":[7.04089,4.89739]}},{"type":"Feature","properties":{"name":"Eneka","alt_name":"","kind":"village","source":"osm","ward":"Rumuoji Eneka","lga":"Obio\u2013Akpor","is_primary":0,"in_plate":1},"geometry":{"type":"Point","coordinates":[7.03331,4.89971]}},{"type":"Feature","properties":{"name":"Eremo Ogbagoro","alt_name":"","kind":"village","source":"osm","ward":"Mgbu Minkpiti","lga":"Obio\u2013Akpor","is_primary":0,"in_plate":1},"geometry":{"type":"Point","coordinates":[6.97146,4.78966]}},{"type":"Feature","properties":{"name":"Eremo Ogbogoro","alt_name":"","kind":"village","source":"osm","ward":"Mgbu Minkpiti","lga":"Obio\u2013Akpor","is_primary":0,"in_plate":1},"geometry":{"type":"Point","coordinates":[6.97141,4.78966]}},{"type":"Feature","properties":{"name":"Eremogbogoro","alt_name":"","kind":"village","source":"osm","ward":"Mgbu Minkpiti","lga":"Obio\u2013Akpor","is_primary":0,"in_plate":1},"geometry":{"type":"Point","coordinates":[6.97134,4.78966]}},{"type":"Feature","properties":{"name":"Esiamu Abuloma","alt_name":"","kind":"settlement","source":"grid3","ward":"Tere Ama Femie","lga":"Port-Harcourt","is_primary":0,"in_plate":1},"geometry":{"type":"Point","coordinates":[7.03786,4.78181]}},{"type":"Feature","properties":{"name":"Etche Waterside","alt_name":"","kind":"settlement","source":"grid3","ward":"Etche Waterside","lga":"Port-Harcourt","is_primary":0,"in_plate":1},"geometry":{"type":"Point","coordinates":[7.03834,4.75424]}},{"type":"Feature","properties":{"name":"Ewoka Abuloma","alt_name":"","kind":"settlement","source":"grid3","ward":"Tere Ama Femie","lga":"Port-Harcourt","is_primary":0,"in_plate":1},"geometry":{"type":"Point","coordinates":[7.05111,4.79128]}},{"type":"Feature","properties":{"name":"Federal Housing Estate","alt_name":"","kind":"settlement","source":"grid3","ward":"Mgbuosimini","lga":"Obio\u2013Akpor","is_primary":0,"in_plate":1},"geometry":{"type":"Point","coordinates":[6.9759,4.82124]}},{"type":"Feature","properties":{"name":"Golf Estate","alt_name":"","kind":"hamlet","source":"osm","ward":"Tere Ama Femie","lga":"Port-Harcourt","is_primary":0,"in_plate":1},"geometry":{"type":"Point","coordinates":[7.05806,4.80054]}},{"type":"Feature","properties":{"name":"Harbour","alt_name":"","kind":"settlement","source":"grid3","ward":"Harbour","lga":"Port-Harcourt","is_primary":0,"in_plate":1},"geometry":{"type":"Point","coordinates":[7.01746,4.76425]}},{"type":"Feature","properties":{"name":"Ibemeru Eliowhani Rumukpakani","alt_name":"","kind":"settlement","source":"grid3","ward":"Rumuo Darawere","lga":"Obio\u2013Akpor","is_primary":0,"in_plate":1},"geometry":{"type":"Point","coordinates":[6.98886,4.83264]}},{"type":"Feature","properties":{"name":"Ibinima Polo Nembe W S","alt_name":"","kind":"settlement","source":"grid3","ward":"Etche Waterside","lga":"Port-Harcourt","is_primary":0,"in_plate":1},"geometry":{"type":"Point","coordinates":[7.03519,4.75992]}},{"type":"Feature","properties":{"name":"Iwofe","alt_name":"","kind":"village","source":"osm","ward":"Mgbu Minkpiti","lga":"Obio\u2013Akpor","is_primary":0,"in_plate":1},"geometry":{"type":"Point","coordinates":[6.95667,4.81778]}},{"type":"Feature","properties":{"name":"Iwofe A","alt_name":"","kind":"settlement","source":"grid3","ward":"Mgbu Minkpiti","lga":"Obio\u2013Akpor","is_primary":0,"in_plate":1},"geometry":{"type":"Point","coordinates":[6.93125,4.80741]}},{"type":"Feature","properties":{"name":"Iwofe B","alt_name":"","kind":"settlement","source":"grid3","ward":"Mgbu Minkpiti","lga":"Obio\u2013Akpor","is_primary":0,"in_plate":1},"geometry":{"type":"Point","coordinates":[6.95963,4.7994]}},{"type":"Feature","properties":{"name":"Kidney Island","alt_name":"","kind":"settlement","source":"grid3","ward":"Old GRA","lga":"Port-Harcourt","is_primary":0,"in_plate":1},"geometry":{"type":"Point","coordinates":[7.00689,4.78625]}},{"type":"Feature","properties":{"name":"Makahia","alt_name":"","kind":"settlement","source":"grid3","ward":"Alakahia","lga":"Obio\u2013Akpor","is_primary":0,"in_plate":1},"geometry":{"type":"Point","coordinates":[6.92371,4.90138]}},{"type":"Feature","properties":{"name":"Mgbu Akani","alt_name":"","kind":"settlement","source":"grid3","ward":"Mgbu Minkpiti","lga":"Obio\u2013Akpor","is_primary":0,"in_plate":1},"geometry":{"type":"Point","coordinates":[6.95964,4.82014]}},{"type":"Feature","properties":{"name":"Mgbu Akara","alt_name":"","kind":"settlement","source":"grid3","ward":"Mgbu Minkpiti","lga":"Obio\u2013Akpor","is_primary":0,"in_plate":1},"geometry":{"type":"Point","coordinates":[6.9675,4.83744]}},{"type":"Feature","properties":{"name":"Mgbu Akatali","alt_name":"","kind":"settlement","source":"grid3","ward":"Mgbu Minkpiti","lga":"Obio\u2013Akpor","is_primary":0,"in_plate":1},"geometry":{"type":"Point","coordinates":[6.96231,4.81742]}},{"type":"Feature","properties":{"name":"Mgbu Ekwenna","alt_name":"","kind":"settlement","source":"grid3","ward":"Mgbuosimini","lga":"Obio\u2013Akpor","is_primary":0,"in_plate":1},"geometry":{"type":"Point","coordinates":[6.972,4.80775]}},{"type":"Feature","properties":{"name":"Mgbu Ikpokwu","alt_name":"","kind":"settlement","source":"grid3","ward":"Mgbuosimini","lga":"Obio\u2013Akpor","is_primary":0,"in_plate":1},"geometry":{"type":"Point","coordinates":[6.97233,4.80814]}},{"type":"Feature","properties":{"name":"Mgbu Minkpiti","alt_name":"","kind":"settlement","source":"grid3","ward":"Mgbu Minkpiti","lga":"Obio\u2013Akpor","is_primary":0,"in_plate":1},"geometry":{"type":"Point","coordinates":[6.94075,4.81419]}},{"type":"Feature","properties":{"name":"Mgbu Ogodoni","alt_name":"","kind":"settlement","source":"grid3","ward":"Mgbu Ogodoni","lga":"Obio\u2013Akpor","is_primary":0,"in_plate":1},"geometry":{"type":"Point","coordinates":[6.95958,4.82594]}},{"type":"Feature","properties":{"name":"Mgbu Wagwu","alt_name":"","kind":"settlement","source":"grid3","ward":"Mgbu Minkpiti","lga":"Obio\u2013Akpor","is_primary":0,"in_plate":1},"geometry":{"type":"Point","coordinates":[6.96425,4.80061]}},{"type":"Feature","properties":{"name":"Mgbuike","alt_name":"","kind":"settlement","source":"grid3","ward":"Eagle Island","lga":"Port-Harcourt","is_primary":0,"in_plate":1},"geometry":{"type":"Point","coordinates":[6.98333,4.81178]}},{"type":"Feature","properties":{"name":"Mgbuoshimini","alt_name":"","kind":"village","source":"osm","ward":"Mgbuosimini","lga":"Obio\u2013Akpor","is_primary":0,"in_plate":1},"geometry":{"type":"Point","coordinates":[6.9738,4.80754]}},{"type":"Feature","properties":{"name":"Mgbuosimini","alt_name":"","kind":"settlement","source":"grid3","ward":"Mgbuosimini","lga":"Obio\u2013Akpor","is_primary":0,"in_plate":1},"geometry":{"type":"Point","coordinates":[6.97758,4.8135]}},{"type":"Feature","properties":{"name":"Nkpogu","alt_name":"","kind":"settlement","source":"grid3","ward":"Rumukalagbo","lga":"Port-Harcourt","is_primary":0,"in_plate":1},"geometry":{"type":"Point","coordinates":[7.02,4.80606]}},{"type":"Feature","properties":{"name":"Nkpolu","alt_name":"","kind":"settlement","source":"grid3","ward":"Rukpakwolosi","lga":"Obio\u2013Akpor","is_primary":0,"in_plate":1},"geometry":{"type":"Point","coordinates":[6.99058,4.87106]}},{"type":"Feature","properties":{"name":"Nkpolu Orowo","alt_name":"","kind":"settlement","source":"grid3","ward":"Nkpolu Orowo","lga":"Port-Harcourt","is_primary":0,"in_plate":1},"geometry":{"type":"Point","coordinates":[6.99933,4.81047]}},{"type":"Feature","properties":{"name":"Nkpolu Oroworukwo","alt_name":"","kind":"settlement","source":"grid3","ward":"Oro Obasiolu","lga":"Port-Harcourt","is_primary":0,"in_plate":1},"geometry":{"type":"Point","coordinates":[6.99472,4.80514]}},{"type":"Feature","properties":{"name":"Odumini Orusa","alt_name":"","kind":"settlement","source":"grid3","ward":"Eagle Island","lga":"Port-Harcourt","is_primary":0,"in_plate":1},"geometry":{"type":"Point","coordinates":[6.98831,4.80106]}},{"type":"Feature","properties":{"name":"Ogbogoro","alt_name":"","kind":"settlement","source":"grid3","ward":"Rumuolata","lga":"Obio\u2013Akpor","is_primary":0,"in_plate":1},"geometry":{"type":"Point","coordinates":[6.9273,4.84712]}},{"type":"Feature","properties":{"name":"Ogboro","alt_name":"","kind":"village","source":"osm","ward":"Rukpakwolosi","lga":"Obio\u2013Akpor","is_primary":0,"in_plate":1},"geometry":{"type":"Point","coordinates":[6.98695,4.87339]}},{"type":"Feature","properties":{"name":"Ogbum Nu Abali","alt_name":"","kind":"settlement","source":"grid3","ward":"Orogbum","lga":"Port-Harcourt","is_primary":0,"in_plate":1},"geometry":{"type":"Point","coordinates":[7.0095,4.80225]}},{"type":"Feature","properties":{"name":"Oginigba","alt_name":"","kind":"village","source":"osm","ward":"Woji","lga":"Obio\u2013Akpor","is_primary":0,"in_plate":1},"geometry":{"type":"Point","coordinates":[7.0425,4.82425]}},{"type":"Feature","properties":{"name":"Ogwan Eligbam","alt_name":"","kind":"settlement","source":"grid3","ward":"Rumuohihe","lga":"Obio\u2013Akpor","is_primary":0,"in_plate":1},"geometry":{"type":"Point","coordinates":[6.9895,4.83808]}},{"type":"Feature","properties":{"name":"Ohia Oroto","alt_name":"","kind":"settlement","source":"grid3","ward":"Mgbuosimini","lga":"Obio\u2013Akpor","is_primary":0,"in_plate":1},"geometry":{"type":"Point","coordinates":[6.97576,4.82141]}},{"type":"Feature","properties":{"name":"Ojogbe Abuloma","alt_name":"","kind":"settlement","source":"grid3","ward":"Tere Ama Femie","lga":"Port-Harcourt","is_primary":0,"in_plate":1},"geometry":{"type":"Point","coordinates":[7.04564,4.78622]}},{"type":"Feature","properties":{"name":"Okujagu Azuabie","alt_name":"","kind":"settlement","source":"grid3","ward":"Woji","lga":"Obio\u2013Akpor","is_primary":0,"in_plate":1},"geometry":{"type":"Point","coordinates":[7.05927,4.81191]}},{"type":"Feature","properties":{"name":"Old GRA","alt_name":"","kind":"settlement","source":"grid3","ward":"Old GRA","lga":"Port-Harcourt","is_primary":0,"in_plate":1},"geometry":{"type":"Point","coordinates":[7.01258,4.78922]}},{"type":"Feature","properties":{"name":"Orazi","alt_name":"","kind":"settlement","source":"grid3","ward":"Rumuohihe","lga":"Obio\u2013Akpor","is_primary":0,"in_plate":1},"geometry":{"type":"Point","coordinates":[6.99153,4.83728]}},{"type":"Feature","properties":{"name":"Orije Layout","alt_name":"","kind":"settlement","source":"grid3","ward":"Nkpolu Orowo","lga":"Port-Harcourt","is_primary":0,"in_plate":1},"geometry":{"type":"Point","coordinates":[7.00033,4.79997]}},{"type":"Feature","properties":{"name":"Oro Ekpo Rumueme Rikom","alt_name":"","kind":"settlement","source":"grid3","ward":"Rumuohihe","lga":"Obio\u2013Akpor","is_primary":0,"in_plate":1},"geometry":{"type":"Point","coordinates":[6.98981,4.84044]}},{"type":"Feature","properties":{"name":"Oro Evo","alt_name":"","kind":"settlement","source":"grid3","ward":"Oro Evo","lga":"Obio\u2013Akpor","is_primary":0,"in_plate":1},"geometry":{"type":"Point","coordinates":[7.02278,4.83312]}},{"type":"Feature","properties":{"name":"Oro Obasiolu","alt_name":"","kind":"settlement","source":"grid3","ward":"Oro Obasiolu","lga":"Port-Harcourt","is_primary":0,"in_plate":1},"geometry":{"type":"Point","coordinates":[6.99428,4.80475]}},{"type":"Feature","properties":{"name":"Oro Obaziolu","alt_name":"","kind":"settlement","source":"grid3","ward":"Oro Obasiolu","lga":"Port-Harcourt","is_primary":0,"in_plate":1},"geometry":{"type":"Point","coordinates":[6.99528,4.80206]}},{"type":"Feature","properties":{"name":"Oro Ofu","alt_name":"","kind":"settlement","source":"grid3","ward":"Rumuohihe","lga":"Obio\u2013Akpor","is_primary":0,"in_plate":1},"geometry":{"type":"Point","coordinates":[6.99286,4.84339]}},{"type":"Feature","properties":{"name":"Oro Ogologo","alt_name":"","kind":"settlement","source":"grid3","ward":"Rumuohihe","lga":"Obio\u2013Akpor","is_primary":0,"in_plate":1},"geometry":{"type":"Point","coordinates":[6.98978,4.83689]}},{"type":"Feature","properties":{"name":"Oro Owo","alt_name":"","kind":"settlement","source":"grid3","ward":"Mgbuosimini","lga":"Obio\u2013Akpor","is_primary":0,"in_plate":1},"geometry":{"type":"Point","coordinates":[6.99131,4.82456]}},{"type":"Feature","properties":{"name":"Orogbum","alt_name":"","kind":"settlement","source":"grid3","ward":"Orogbum","lga":"Port-Harcourt","is_primary":0,"in_plate":1},"geometry":{"type":"Point","coordinates":[7.01222,4.80325]}},{"type":"Feature","properties":{"name":"Orolje Village","alt_name":"","kind":"settlement","source":"grid3","ward":"Rumukalagbo","lga":"Port-Harcourt","is_primary":0,"in_plate":1},"geometry":{"type":"Point","coordinates":[7.01892,4.80511]}},{"type":"Feature","properties":{"name":"Oromeruzimgbu","alt_name":"","kind":"settlement","source":"grid3","ward":"Rumukalagbo","lga":"Port-Harcourt","is_primary":0,"in_plate":1},"geometry":{"type":"Point","coordinates":[7.00975,4.82844]}},{"type":"Feature","properties":{"name":"Orominike","alt_name":"","kind":"settlement","source":"grid3","ward":"Rumukalagbo","lga":"Port-Harcourt","is_primary":0,"in_plate":1},"geometry":{"type":"Point","coordinates":[7.00772,4.82158]}},{"type":"Feature","properties":{"name":"Oroworukino","alt_name":"","kind":"settlement","source":"grid3","ward":"Rumukalagbo","lga":"Port-Harcourt","is_primary":0,"in_plate":1},"geometry":{"type":"Point","coordinates":[7.01652,4.82017]}},{"type":"Feature","properties":{"name":"Otumonye Mati","alt_name":"","kind":"settlement","source":"grid3","ward":"Otumonye Mati","lga":"Port-Harcourt","is_primary":0,"in_plate":1},"geometry":{"type":"Point","coordinates":[6.99392,4.78285]}},{"type":"Feature","properties":{"name":"Otumonye Okpotokpo","alt_name":"","kind":"settlement","source":"grid3","ward":"Otumonye Mati","lga":"Port-Harcourt","is_primary":0,"in_plate":1},"geometry":{"type":"Point","coordinates":[6.99439,4.78706]}},{"type":"Feature","properties":{"name":"Owabie Rumueme Rikom","alt_name":"","kind":"settlement","source":"grid3","ward":"Rumuohihe","lga":"Obio\u2013Akpor","is_primary":0,"in_plate":1},"geometry":{"type":"Point","coordinates":[6.99061,4.83769]}},{"type":"Feature","properties":{"name":"Owhonda","alt_name":"","kind":"settlement","source":"grid3","ward":"Rumuo Darawere","lga":"Obio\u2013Akpor","is_primary":0,"in_plate":1},"geometry":{"type":"Point","coordinates":[6.99106,4.83436]}},{"type":"Feature","properties":{"name":"Owule Ejuan Abuloma","alt_name":"","kind":"settlement","source":"grid3","ward":"Tere Ama Femie","lga":"Port-Harcourt","is_primary":0,"in_plate":1},"geometry":{"type":"Point","coordinates":[7.05072,4.79331]}},{"type":"Feature","properties":{"name":"Ozuoba","alt_name":"","kind":"settlement","source":"grid3","ward":"Alakahia","lga":"Obio\u2013Akpor","is_primary":0,"in_plate":1},"geometry":{"type":"Point","coordinates":[6.94169,4.87617]}},{"type":"Feature","properties":{"name":"Ozuoba","alt_name":"","kind":"village","source":"osm","ward":"Rumuolata","lga":"Obio\u2013Akpor","is_primary":0,"in_plate":1},"geometry":{"type":"Point","coordinates":[6.9334,4.87134]}},{"type":"Feature","properties":{"name":"Port Harcourt Main","alt_name":"","kind":"settlement","source":"grid3","ward":"Port Harcourt Main","lga":"Port-Harcourt","is_primary":0,"in_plate":1},"geometry":{"type":"Point","coordinates":[7.02553,4.77458]}},{"type":"Feature","properties":{"name":"Rukpakwadima","alt_name":"","kind":"settlement","source":"grid3","ward":"Rumuehienwota","lga":"Obio\u2013Akpor","is_primary":0,"in_plate":1},"geometry":{"type":"Point","coordinates":[7.00911,4.87364]}},{"type":"Feature","properties":{"name":"Rukpakwolosi","alt_name":"","kind":"settlement","source":"grid3","ward":"Rukpakwolosi","lga":"Obio\u2013Akpor","is_primary":0,"in_plate":1},"geometry":{"type":"Point","coordinates":[7.01961,4.86856]}},{"type":"Feature","properties":{"name":"Rumu Debere","alt_name":"","kind":"settlement","source":"grid3","ward":"Rumuodunwere","lga":"Obio\u2013Akpor","is_primary":0,"in_plate":1},"geometry":{"type":"Point","coordinates":[7.06206,4.87805]}},{"type":"Feature","properties":{"name":"Rumu Enyika","alt_name":"","kind":"settlement","source":"grid3","ward":"Nkpolu Orowo","lga":"Port-Harcourt","is_primary":0,"in_plate":1},"geometry":{"type":"Point","coordinates":[7.00203,4.79944]}},{"type":"Feature","properties":{"name":"Rumu Okocha","alt_name":"","kind":"settlement","source":"grid3","ward":"Alakahia","lga":"Obio\u2013Akpor","is_primary":0,"in_plate":1},"geometry":{"type":"Point","coordinates":[6.90761,4.885]}},{"type":"Feature","properties":{"name":"Rumu Okukwu","alt_name":"","kind":"settlement","source":"grid3","ward":"Oro Obasiolu","lga":"Port-Harcourt","is_primary":0,"in_plate":1},"geometry":{"type":"Point","coordinates":[6.98872,4.80606]}},{"type":"Feature","properties":{"name":"Rumu-Okoro-Odomey","alt_name":"","kind":"village","source":"osm","ward":"Rukpakwolosi","lga":"Obio\u2013Akpor","is_primary":0,"in_plate":1},"geometry":{"type":"Point","coordinates":[7.00626,4.86335]}},{"type":"Feature","properties":{"name":"Rumuadaolu","alt_name":"","kind":"settlement","source":"grid3","ward":"Rumuohihe","lga":"Obio\u2013Akpor","is_primary":0,"in_plate":1},"geometry":{"type":"Point","coordinates":[7.00383,4.84169]}},{"type":"Feature","properties":{"name":"Rumuadi","alt_name":"","kind":"settlement","source":"grid3","ward":"Alakahia","lga":"Obio\u2013Akpor","is_primary":0,"in_plate":1},"geometry":{"type":"Point","coordinates":[6.93683,4.87633]}},{"type":"Feature","properties":{"name":"Rumuadobo","alt_name":"","kind":"settlement","source":"grid3","ward":"Rumuo Darawere","lga":"Obio\u2013Akpor","is_primary":0,"in_plate":1},"geometry":{"type":"Point","coordinates":[6.96981,4.86675]}},{"type":"Feature","properties":{"name":"Rumuagarnolu","alt_name":"","kind":"settlement","source":"grid3","ward":"Rumuohihe","lga":"Obio\u2013Akpor","is_primary":0,"in_plate":1},"geometry":{"type":"Point","coordinates":[6.98817,4.85653]}},{"type":"Feature","properties":{"name":"Rumuagholu","alt_name":"","kind":"settlement","source":"grid3","ward":"Rukpakwolosi","lga":"Obio\u2013Akpor","is_primary":0,"in_plate":1},"geometry":{"type":"Point","coordinates":[7.00725,4.86736]}},{"type":"Feature","properties":{"name":"Rumuaholu","alt_name":"","kind":"village","source":"osm","ward":"Rukpakwolosi","lga":"Obio\u2013Akpor","is_primary":0,"in_plate":1},"geometry":{"type":"Point","coordinates":[6.98831,4.87442]}},{"type":"Feature","properties":{"name":"Rumualogu","alt_name":"","kind":"village","source":"osm","ward":"Alakahia","lga":"Obio\u2013Akpor","is_primary":0,"in_plate":1},"geometry":{"type":"Point","coordinates":[6.91785,4.87608]}},{"type":"Feature","properties":{"name":"Rumualogwu","alt_name":"","kind":"settlement","source":"grid3","ward":"Alakahia","lga":"Obio\u2013Akpor","is_primary":0,"in_plate":1},"geometry":{"type":"Point","coordinates":[6.92614,4.88192]}},{"type":"Feature","properties":{"name":"Rumuapara","alt_name":"","kind":"settlement","source":"grid3","ward":"Rukpakwolosi","lga":"Obio\u2013Akpor","is_primary":0,"in_plate":1},"geometry":{"type":"Point","coordinates":[6.98071,4.87082]}},{"type":"Feature","properties":{"name":"Rumuari Rumuekini","alt_name":"","kind":"settlement","source":"grid3","ward":"Alakahia","lga":"Obio\u2013Akpor","is_primary":0,"in_plate":1},"geometry":{"type":"Point","coordinates":[6.94672,4.90864]}},{"type":"Feature","properties":{"name":"Rumuchiwona","alt_name":"","kind":"settlement","source":"grid3","ward":"Rumuehienwota","lga":"Obio\u2013Akpor","is_primary":0,"in_plate":1},"geometry":{"type":"Point","coordinates":[7.01119,4.88636]}},{"type":"Feature","properties":{"name":"Rumuchukwu","alt_name":"","kind":"settlement","source":"grid3","ward":"Rumunduru","lga":"Obio\u2013Akpor","is_primary":0,"in_plate":1},"geometry":{"type":"Point","coordinates":[7.0555,4.87847]}},{"type":"Feature","properties":{"name":"Rumuchukwuwanya","alt_name":"","kind":"settlement","source":"grid3","ward":"Alakahia","lga":"Obio\u2013Akpor","is_primary":0,"in_plate":1},"geometry":{"type":"Point","coordinates":[6.93378,4.87547]}},{"type":"Feature","properties":{"name":"Rumueheleze Elelenwo","alt_name":"","kind":"settlement","source":"grid3","ward":"Rumuodunwere","lga":"Obio\u2013Akpor","is_primary":0,"in_plate":1},"geometry":{"type":"Point","coordinates":[7.06919,4.84539]}},{"type":"Feature","properties":{"name":"Rumuehienwota","alt_name":"","kind":"settlement","source":"grid3","ward":"Rumuehienwota","lga":"Obio\u2013Akpor","is_primary":0,"in_plate":1},"geometry":{"type":"Point","coordinates":[7.00361,4.88244]}},{"type":"Feature","properties":{"name":"Rumuekini","alt_name":"","kind":"settlement","source":"grid3","ward":"Alakahia","lga":"Obio\u2013Akpor","is_primary":0,"in_plate":1},"geometry":{"type":"Point","coordinates":[6.94339,4.89533]}},{"type":"Feature","properties":{"name":"Rumuekirika","alt_name":"","kind":"settlement","source":"grid3","ward":"Rumuohihe","lga":"Obio\u2013Akpor","is_primary":0,"in_plate":1},"geometry":{"type":"Point","coordinates":[6.99175,4.85297]}},{"type":"Feature","properties":{"name":"Rumueme","alt_name":"","kind":"settlement","source":"grid3","ward":"Rumuo Darawere","lga":"Obio\u2013Akpor","is_primary":0,"in_plate":1},"geometry":{"type":"Point","coordinates":[6.98894,4.83617]}},{"type":"Feature","properties":{"name":"Rumuepirikom","alt_name":"","kind":"village","source":"osm","ward":"Rumuepirikom","lga":"Obio\u2013Akpor","is_primary":0,"in_plate":1},"geometry":{"type":"Point","coordinates":[6.98135,4.82953]}},{"type":"Feature","properties":{"name":"Rumuewhara","alt_name":"","kind":"settlement","source":"grid3","ward":"Rumunduru","lga":"Obio\u2013Akpor","is_primary":0,"in_plate":1},"geometry":{"type":"Point","coordinates":[7.036,4.88183]}},{"type":"Feature","properties":{"name":"Rumuezolu","alt_name":"","kind":"settlement","source":"grid3","ward":"Oro Evo","lga":"Obio\u2013Akpor","is_primary":0,"in_plate":1},"geometry":{"type":"Point","coordinates":[7.03167,4.83547]}},{"type":"Feature","properties":{"name":"Rumuigbo","alt_name":"","kind":"village","source":"osm","ward":"Rumuohihe","lga":"Obio\u2013Akpor","is_primary":0,"in_plate":1},"geometry":{"type":"Point","coordinates":[6.99097,4.851]}},{"type":"Feature","properties":{"name":"Rumukalagbo","alt_name":"","kind":"settlement","source":"grid3","ward":"Rumukalagbo","lga":"Port-Harcourt","is_primary":0,"in_plate":1},"geometry":{"type":"Point","coordinates":[7.02389,4.81269]}},{"type":"Feature","properties":{"name":"Rumukesiorlu","alt_name":"","kind":"settlement","source":"grid3","ward":"Rumuohihe","lga":"Obio\u2013Akpor","is_primary":0,"in_plate":1},"geometry":{"type":"Point","coordinates":[6.99011,4.85442]}},{"type":"Feature","properties":{"name":"Rumukpalkani Rumueme","alt_name":"","kind":"settlement","source":"grid3","ward":"Rumuo Darawere","lga":"Obio\u2013Akpor","is_primary":0,"in_plate":1},"geometry":{"type":"Point","coordinates":[6.99225,4.83481]}},{"type":"Feature","properties":{"name":"Rumukwachi","alt_name":"","kind":"settlement","source":"grid3","ward":"Rumuolata","lga":"Obio\u2013Akpor","is_primary":0,"in_plate":1},"geometry":{"type":"Point","coordinates":[6.9254,4.8669]}},{"type":"Feature","properties":{"name":"Rumukwachi","alt_name":"","kind":"village","source":"osm","ward":"Rumuolata","lga":"Obio\u2013Akpor","is_primary":0,"in_plate":1},"geometry":{"type":"Point","coordinates":[6.92889,4.86528]}},{"type":"Feature","properties":{"name":"Rumundimadi","alt_name":"","kind":"settlement","source":"grid3","ward":"Rukpakwolosi","lga":"Obio\u2013Akpor","is_primary":0,"in_plate":1},"geometry":{"type":"Point","coordinates":[6.99017,4.86139]}},{"type":"Feature","properties":{"name":"Rumunduru","alt_name":"","kind":"settlement","source":"grid3","ward":"Rumunduru","lga":"Obio\u2013Akpor","is_primary":0,"in_plate":1},"geometry":{"type":"Point","coordinates":[7.04044,4.87694]}},{"type":"Feature","properties":{"name":"Rumunduru","alt_name":"","kind":"village","source":"osm","ward":"Rumunduru","lga":"Obio\u2013Akpor","is_primary":0,"in_plate":1},"geometry":{"type":"Point","coordinates":[7.03044,4.87048]}},{"type":"Feature","properties":{"name":"Rumunkara","alt_name":"","kind":"settlement","source":"grid3","ward":"Rumuohihe","lga":"Obio\u2013Akpor","is_primary":0,"in_plate":1},"geometry":{"type":"Point","coordinates":[7.00328,4.83444]}},{"type":"Feature","properties":{"name":"Rumunkwo","alt_name":"","kind":"settlement","source":"grid3","ward":"Rukpakwolosi","lga":"Obio\u2013Akpor","is_primary":0,"in_plate":1},"geometry":{"type":"Point","coordinates":[7.00333,4.86828]}},{"type":"Feature","properties":{"name":"Rumuo Darawere","alt_name":"","kind":"settlement","source":"grid3","ward":"Rumuo Darawere","lga":"Obio\u2013Akpor","is_primary":0,"in_plate":1},"geometry":{"type":"Point","coordinates":[6.97619,4.86292]}},{"type":"Feature","properties":{"name":"Rumuo Gologo","alt_name":"","kind":"settlement","source":"grid3","ward":"Rumuohihe","lga":"Obio\u2013Akpor","is_primary":0,"in_plate":1},"geometry":{"type":"Point","coordinates":[6.98842,4.85447]}},{"type":"Feature","properties":{"name":"Rumuobiekwe","alt_name":"","kind":"settlement","source":"grid3","ward":"Nkpolu Orowo","lga":"Port-Harcourt","is_primary":0,"in_plate":1},"geometry":{"type":"Point","coordinates":[6.99942,4.80656]}},{"type":"Feature","properties":{"name":"Rumuobiokani","alt_name":"","kind":"settlement","source":"grid3","ward":"Woji","lga":"Obio\u2013Akpor","is_primary":0,"in_plate":1},"geometry":{"type":"Point","coordinates":[7.04275,4.8375]}},{"type":"Feature","properties":{"name":"Rumuodani Elelenwo","alt_name":"","kind":"settlement","source":"grid3","ward":"Rumuodunwere","lga":"Obio\u2013Akpor","is_primary":0,"in_plate":1},"geometry":{"type":"Point","coordinates":[7.07136,4.84047]}},{"type":"Feature","properties":{"name":"Rumuodara","alt_name":"","kind":"settlement","source":"grid3","ward":"Mgbesilaru","lga":"Obio\u2013Akpor","is_primary":0,"in_plate":1},"geometry":{"type":"Point","coordinates":[7.04406,4.85606]}},{"type":"Feature","properties":{"name":"Rumuodara","alt_name":"","kind":"village","source":"osm","ward":"Mgbesilaru","lga":"Obio\u2013Akpor","is_primary":0,"in_plate":1},"geometry":{"type":"Point","coordinates":[7.03238,4.85374]}},{"type":"Feature","properties":{"name":"Rumuodomaya","alt_name":"","kind":"settlement","source":"grid3","ward":"Rukpakwolosi","lga":"Obio\u2013Akpor","is_primary":0,"in_plate":1},"geometry":{"type":"Point","coordinates":[7.00784,4.87026]}},{"type":"Feature","properties":{"name":"Rumuodumaya","alt_name":"","kind":"town","source":"osm","ward":"Rumuehienwota","lga":"Obio\u2013Akpor","is_primary":0,"in_plate":1},"geometry":{"type":"Point","coordinates":[7.00458,4.87786]}},{"type":"Feature","properties":{"name":"Rumuodunwere","alt_name":"","kind":"settlement","source":"grid3","ward":"Rumuodunwere","lga":"Obio\u2013Akpor","is_primary":0,"in_plate":1},"geometry":{"type":"Point","coordinates":[7.07236,4.84389]}},{"type":"Feature","properties":{"name":"Rumuofa","alt_name":"","kind":"village","source":"osm","ward":"Rumunduru","lga":"Obio\u2013Akpor","is_primary":0,"in_plate":1},"geometry":{"type":"Point","coordinates":[7.03038,4.8907]}},{"type":"Feature","properties":{"name":"Rumuogba","alt_name":"","kind":"settlement","source":"grid3","ward":"Mgbesilaru","lga":"Obio\u2013Akpor","is_primary":0,"in_plate":1},"geometry":{"type":"Point","coordinates":[7.04719,4.85225]}},{"type":"Feature","properties":{"name":"Rumuogbu","alt_name":"","kind":"settlement","source":"grid3","ward":"Alakahia","lga":"Obio\u2013Akpor","is_primary":0,"in_plate":1},"geometry":{"type":"Point","coordinates":[6.93578,4.87403]}},{"type":"Feature","properties":{"name":"Rumuogonoma","alt_name":"","kind":"village","source":"osm","ward":"Rumuoji Eneka","lga":"Obio\u2013Akpor","is_primary":0,"in_plate":1},"geometry":{"type":"Point","coordinates":[7.03813,4.89577]}},{"type":"Feature","properties":{"name":"Rumuogwunoma","alt_name":"","kind":"settlement","source":"grid3","ward":"Rumuoji Eneka","lga":"Obio\u2013Akpor","is_primary":0,"in_plate":1},"geometry":{"type":"Point","coordinates":[7.04411,4.90036]}},{"type":"Feature","properties":{"name":"Rumuohihe","alt_name":"","kind":"settlement","source":"grid3","ward":"Rumuohihe","lga":"Obio\u2013Akpor","is_primary":0,"in_plate":1},"geometry":{"type":"Point","coordinates":[7.00208,4.84917]}},{"type":"Feature","properties":{"name":"Rumuoji","alt_name":"","kind":"settlement","source":"grid3","ward":"Rumuoji Eneka","lga":"Obio\u2013Akpor","is_primary":0,"in_plate":1},"geometry":{"type":"Point","coordinates":[7.03525,4.89698]}},{"type":"Feature","properties":{"name":"Rumuoji Eneka","alt_name":"","kind":"settlement","source":"grid3","ward":"Rumuoji Eneka","lga":"Obio\u2013Akpor","is_primary":0,"in_plate":1},"geometry":{"type":"Point","coordinates":[7.0385,4.9105]}},{"type":"Feature","properties":{"name":"Rumuokani","alt_name":"","kind":"settlement","source":"grid3","ward":"Alakahia","lga":"Obio\u2013Akpor","is_primary":0,"in_plate":1},"geometry":{"type":"Point","coordinates":[6.94333,4.87975]}},{"type":"Feature","properties":{"name":"Rumuokoro","alt_name":"","kind":"settlement","source":"grid3","ward":"Rumuehienwota","lga":"Obio\u2013Akpor","is_primary":0,"in_plate":1},"geometry":{"type":"Point","coordinates":[6.99593,4.87184]}},{"type":"Feature","properties":{"name":"Rumuokoro","alt_name":"","kind":"village","source":"osm","ward":"Rukpakwolosi","lga":"Obio\u2013Akpor","is_primary":0,"in_plate":1},"geometry":{"type":"Point","coordinates":[6.997,4.86684]}},{"type":"Feature","properties":{"name":"Rumuokwachi","alt_name":"","kind":"settlement","source":"grid3","ward":"Alakahia","lga":"Obio\u2013Akpor","is_primary":0,"in_plate":1},"geometry":{"type":"Point","coordinates":[6.93386,4.87222]}},{"type":"Feature","properties":{"name":"Rumuokwurusi","alt_name":"","kind":"settlement","source":"grid3","ward":"Mgbesilaru","lga":"Obio\u2013Akpor","is_primary":0,"in_plate":1},"geometry":{"type":"Point","coordinates":[7.05294,4.86394]}},{"type":"Feature","properties":{"name":"Rumuokwuta","alt_name":"","kind":"village","source":"osm","ward":"Rumuo Darawere","lga":"Obio\u2013Akpor","is_primary":0,"in_plate":1},"geometry":{"type":"Point","coordinates":[6.98606,4.84083]}},{"type":"Feature","properties":{"name":"Rumuola","alt_name":"","kind":"settlement","source":"grid3","ward":"Rumuohihe","lga":"Obio\u2013Akpor","is_primary":0,"in_plate":1},"geometry":{"type":"Point","coordinates":[6.99906,4.83683]}},{"type":"Feature","properties":{"name":"Rumuolata","alt_name":"","kind":"settlement","source":"grid3","ward":"Rumuolata","lga":"Obio\u2013Akpor","is_primary":0,"in_plate":1},"geometry":{"type":"Point","coordinates":[6.93867,4.85225]}},{"type":"Feature","properties":{"name":"Rumuolukwu Eneka","alt_name":"","kind":"settlement","source":"grid3","ward":"Rumuoji Eneka","lga":"Obio\u2013Akpor","is_primary":0,"in_plate":1},"geometry":{"type":"Point","coordinates":[7.03906,4.90281]}},{"type":"Feature","properties":{"name":"Rumuolumene","alt_name":"","kind":"settlement","source":"grid3","ward":"Mgbu Minkpiti","lga":"Obio\u2013Akpor","is_primary":0,"in_plate":1},"geometry":{"type":"Point","coordinates":[6.95276,4.81421]}},{"type":"Feature","properties":{"name":"Rumuolumeni","alt_name":"","kind":"settlement","source":"grid3","ward":"Mgbu Ogodoni","lga":"Obio\u2013Akpor","is_primary":0,"in_plate":1},"geometry":{"type":"Point","coordinates":[6.96419,4.81942]}},{"type":"Feature","properties":{"name":"Rumuomasi","alt_name":"","kind":"settlement","source":"grid3","ward":"Oro Evo","lga":"Obio\u2013Akpor","is_primary":0,"in_plate":1},"geometry":{"type":"Point","coordinates":[7.02958,4.83553]}},{"type":"Feature","properties":{"name":"Rumuomasi","alt_name":"","kind":"village","source":"osm","ward":"Oro Evo","lga":"Obio\u2013Akpor","is_primary":0,"in_plate":1},"geometry":{"type":"Point","coordinates":[7.02921,4.83308]}},{"type":"Feature","properties":{"name":"Rumuoparaele","alt_name":"","kind":"settlement","source":"grid3","ward":"Alakahia","lga":"Obio\u2013Akpor","is_primary":0,"in_plate":1},"geometry":{"type":"Point","coordinates":[6.90745,4.86892]}},{"type":"Feature","properties":{"name":"Rumuorianwo","alt_name":"","kind":"settlement","source":"grid3","ward":"Rumuodunwere","lga":"Obio\u2013Akpor","is_primary":0,"in_plate":1},"geometry":{"type":"Point","coordinates":[7.06503,4.86358]}},{"type":"Feature","properties":{"name":"Rumuorianwo Nda","alt_name":"","kind":"settlement","source":"grid3","ward":"Rukpakwolosi","lga":"Obio\u2013Akpor","is_primary":0,"in_plate":1},"geometry":{"type":"Point","coordinates":[6.98697,4.87642]}},{"type":"Feature","properties":{"name":"Rumuorio","alt_name":"","kind":"settlement","source":"grid3","ward":"Alakahia","lga":"Obio\u2013Akpor","is_primary":0,"in_plate":1},"geometry":{"type":"Point","coordinates":[6.94169,4.87822]}},{"type":"Feature","properties":{"name":"Rumuosi","alt_name":"","kind":"village","source":"osm","ward":"Alakahia","lga":"Obio\u2013Akpor","is_primary":0,"in_plate":1},"geometry":{"type":"Point","coordinates":[6.94152,4.87854]}},{"type":"Feature","properties":{"name":"Rumuosi Rumu Ekpeni","alt_name":"","kind":"settlement","source":"grid3","ward":"Alakahia","lga":"Obio\u2013Akpor","is_primary":0,"in_plate":1},"geometry":{"type":"Point","coordinates":[6.94006,4.88344]}},{"type":"Feature","properties":{"name":"Rumuosunwo Eneka","alt_name":"","kind":"settlement","source":"grid3","ward":"Rumuoji Eneka","lga":"Obio\u2013Akpor","is_primary":0,"in_plate":1},"geometry":{"type":"Point","coordinates":[7.03492,4.89778]}},{"type":"Feature","properties":{"name":"Rumuowhormachi","alt_name":"","kind":"settlement","source":"grid3","ward":"Rumuehienwota","lga":"Obio\u2013Akpor","is_primary":0,"in_plate":1},"geometry":{"type":"Point","coordinates":[7.00992,4.87722]}},{"type":"Feature","properties":{"name":"Rumuowoloma","alt_name":"","kind":"settlement","source":"grid3","ward":"Rumuohihe","lga":"Obio\u2013Akpor","is_primary":0,"in_plate":1},"geometry":{"type":"Point","coordinates":[6.98575,4.85908]}},{"type":"Feature","properties":{"name":"Rumuriannwokpakani","alt_name":"","kind":"settlement","source":"grid3","ward":"Rumuo Darawere","lga":"Obio\u2013Akpor","is_primary":0,"in_plate":1},"geometry":{"type":"Point","coordinates":[6.98467,4.85469]}},{"type":"Feature","properties":{"name":"Rumuwede","alt_name":"","kind":"settlement","source":"grid3","ward":"Alakahia","lga":"Obio\u2013Akpor","is_primary":0,"in_plate":1},"geometry":{"type":"Point","coordinates":[6.9395,4.87781]}},{"type":"Feature","properties":{"name":"Rumuwoji","alt_name":"","kind":"settlement","source":"grid3","ward":"Coronation Layout","lga":"Port-Harcourt","is_primary":0,"in_plate":1},"geometry":{"type":"Point","coordinates":[7.00681,4.79842]}},{"type":"Feature","properties":{"name":"Rumuwokerebe","alt_name":"","kind":"settlement","source":"grid3","ward":"Rumuodunwere","lga":"Obio\u2013Akpor","is_primary":0,"in_plate":1},"geometry":{"type":"Point","coordinates":[7.0619,4.86817]}},{"type":"Feature","properties":{"name":"Rumuwore","alt_name":"","kind":"settlement","source":"grid3","ward":"Rumuolata","lga":"Obio\u2013Akpor","is_primary":0,"in_plate":1},"geometry":{"type":"Point","coordinates":[6.93086,4.85917]}},{"type":"Feature","properties":{"name":"Somiari","alt_name":"","kind":"settlement","source":"grid3","ward":"Tere Ama Femie","lga":"Port-Harcourt","is_primary":0,"in_plate":1},"geometry":{"type":"Point","coordinates":[7.03397,4.79319]}},{"type":"Feature","properties":{"name":"Tere Ama","alt_name":"","kind":"settlement","source":"grid3","ward":"Tere Ama Femie","lga":"Port-Harcourt","is_primary":0,"in_plate":1},"geometry":{"type":"Point","coordinates":[7.03419,4.78706]}},{"type":"Feature","properties":{"name":"Tere Ama Femie","alt_name":"","kind":"settlement","source":"grid3","ward":"Tere Ama Femie","lga":"Port-Harcourt","is_primary":0,"in_plate":1},"geometry":{"type":"Point","coordinates":[7.04264,4.78728]}},{"type":"Feature","properties":{"name":"Trans Amadi","alt_name":"","kind":"settlement","source":"grid3","ward":"Rumukalagbo","lga":"Port-Harcourt","is_primary":0,"in_plate":1},"geometry":{"type":"Point","coordinates":[7.03047,4.81133]}},{"type":"Feature","properties":{"name":"Woji","alt_name":"","kind":"settlement","source":"grid3","ward":"Woji","lga":"Obio\u2013Akpor","is_primary":0,"in_plate":1},"geometry":{"type":"Point","coordinates":[7.05064,4.83958]}},{"type":"Feature","properties":{"name":"Woji","alt_name":"","kind":"village","source":"osm","ward":"Mgbuosimini","lga":"Obio\u2013Akpor","is_primary":0,"in_plate":1},"geometry":{"type":"Point","coordinates":[6.9894,4.81637]}}]}