{"type": "FeatureCollection", "features": [{"id": "0", "type": "Feature", "properties": {"slug": "abuja", "name": "Abuja"}, "geometry": {"type": "Polygon", "coordinates": [[[7.496000767421549, 8.654301644305463], [7.477623463152327, 8.631333351353135], [7.456912993739707, 8.634128571076758], [7.434496880027041, 8.630393028315666], [7.429693699005043, 8.63410935885986], [7.335326218830005, 8.639574958017931], [7.342813129722231, 8.680459733629846], [7.388734535970116, 8.729217732012785], [7.452655704796996, 8.72583303366764], [7.497339492823357, 8.730061726867234], [7.499610423981949, 8.760086060123626], [7.485200405174623, 8.772360802409139], [7.478795527991281, 8.7953109740223], [7.48191377609993, 8.867957083852389], [7.409649450062147, 8.876676365421986], [7.412323346745097, 8.908670961295854], [7.334711401809784, 8.921356232404264], [7.327137483308263, 8.883738737852525], [7.278920971225887, 8.896868561834708], [7.272837510842521, 8.912822827211755], [7.252699382570484, 8.912179258865763], [7.228905550650666, 8.919915515788489], [7.21715922841571, 8.917981467071115], [7.190654705850022, 8.906674514916972], [7.164970398265325, 8.908992768401617], [7.132947444968636, 8.925538062831379], [7.126719293560598, 8.927460611018432], [7.118081851196507, 8.924819409188444], [7.109184181005219, 8.93491330990139], [7.112225645896899, 8.940281339812032], [7.106484307404912, 8.950491012949954], [7.118929212213402, 8.956726016292691], [7.127174044746425, 8.947192309577474], [7.131980555957966, 8.948715164873022], [7.130410112137042, 8.95737640239912], [7.142783308602873, 8.96132630666375], [7.14502000167181, 8.968940583141432], [7.151587315302436, 8.96974959886495], [7.152539099300043, 8.990260552782331], [7.156155880289703, 8.995876082415293], [7.154204721970416, 9.000801564940332], [7.16341323563239, 8.999338197100144], [7.169584368224037, 9.006203776283314], [7.154829501680183, 9.015735625898458], [7.167196106115455, 9.027113149652166], [7.171287480932563, 9.02584707867976], [7.179507329399769, 9.030644072366101], [7.195968440091463, 9.050517331409765], [7.208139382626428, 9.04333183369721], [7.216990977851367, 9.054205970928876], [7.219073006414135, 9.06306946328516], [7.209802628388616, 9.080315590392217], [7.214080274385196, 9.087809981845226], [7.216729302115652, 9.086160132384236], [7.218133446001787, 9.092270211800894], [7.249257240029635, 9.102459501804617], [7.282378813231674, 9.135622326908901], [7.343518237776493, 9.143679754217317], [7.375049377926473, 9.123645020101662], [7.414551748964072, 9.118576053442155], [7.465795497764077, 9.117449606714047], [7.504759435699441, 9.099728360575455], [7.504862301054402, 9.112138216105848], [7.58917264120447, 9.100944410356306], [7.594658851924521, 8.856400489790815], [7.591669082761996, 8.83487510690071], [7.496000767421549, 8.654301644305463]]]}}, {"id": "1", "type": "Feature", "properties": {"slug": "ibadan", "name": "Ibadan"}, "geometry": {"type": "Polygon", "coordinates": [[[3.9101006583710194, 7.342002502519727], [3.877638367616612, 7.333017169906498], [3.875242106038399, 7.330070035803544], [3.868061967385927, 7.331730195092462], [3.871448403087402, 7.3406384686633706], [3.855547123201234, 7.336330383840163], [3.842198409628963, 7.350075536556801], [3.846172380650899, 7.355505034230021], [3.841366489971563, 7.357352667991279], [3.838852082657525, 7.377493138097918], [3.847339424574841, 7.377474139020364], [3.850666155318834, 7.381037675648258], [3.852887819817056, 7.378997983570116], [3.854238161272903, 7.383680543521329], [3.845414780068097, 7.390294061122063], [3.849562179051361, 7.395881425787195], [3.849125931416665, 7.406717370610238], [3.835901551815198, 7.411205549696433], [3.824318601322432, 7.409414104677239], [3.823969680556388, 7.428359713929694], [3.815982842833989, 7.436465275651983], [3.833387797408989, 7.440170271141142], [3.839933104629097, 7.43666833537543], [3.852458290118022, 7.440544045571301], [3.8592178293394, 7.423197456997116], [3.865282244779848, 7.425445108305155], [3.865097581588145, 7.430802197963089], [3.879979848791038, 7.434599007937891], [3.876617968044854, 7.445159375304968], [3.881042521894926, 7.453092579259192], [3.905867546150375, 7.464584429327999], [3.907132349978042, 7.454417454202201], [3.911888149318656, 7.451107305158075], [3.920919079252144, 7.451486290260164], [3.921704779152265, 7.443980543067653], [3.932353326844634, 7.436539500297727], [3.943831985657653, 7.403640604630255], [3.941186255741172, 7.400194092283584], [3.93316129215998, 7.39948331220512], [3.927938113353321, 7.392627191191991], [3.939442168121616, 7.379588296762506], [3.936653295813016, 7.365715495174015], [3.940179559139381, 7.35846559700974], [3.93280937035621, 7.352088321818655], [3.934237456893186, 7.348459202130528], [3.928113212254971, 7.344810792883834], [3.925956839436651, 7.337504497334749], [3.920651504863088, 7.339326521102123], [3.914611232622349, 7.336701892878125], [3.9101006583710194, 7.342002502519727]], [[3.891567567721976, 7.3769968315802315], [3.898879044032697, 7.379420504852476], [3.891598749682601, 7.377265675270735], [3.891567567721976, 7.3769968315802315]], [[3.895745231357409, 7.374138224399587], [3.8934215521250737, 7.364339768733521], [3.895168089635661, 7.366188687857687], [3.895745231357409, 7.374138224399587]], [[3.880019533174959, 7.414881230884134], [3.8873664952933056, 7.409678434996262], [3.887376448864075, 7.409972739250577], [3.880019533174959, 7.414881230884134]], [[3.8758523477793103, 7.424498316064324], [3.879471756116686, 7.421269379778096], [3.876171690271349, 7.4244697117079], [3.8758523477793103, 7.424498316064324]]]}}, {"id": "2", "type": "Feature", "properties": {"slug": "kano", "name": "Kano"}, "geometry": {"type": "Polygon", "coordinates": [[[8.586834076331627, 12.039821431114206], [8.590872817426657, 12.023949931244374], [8.599313531294456, 12.02369359838093], [8.601931414603143, 12.019941432551093], [8.60033420695811, 12.011962990899349], [8.613833708958566, 12.01296915060584], [8.613945669157374, 12.004803706625808], [8.619986339797777, 12.003522028818622], [8.614393980298019, 11.996609847666377], [8.601370300598944, 11.998277390389319], [8.60359780259654, 11.980934366727695], [8.599009242659065, 11.97028017837063], [8.631900000684539, 11.962400001259084], [8.630382883962966, 11.927565564898941], [8.635491672602654, 11.91802672215556], [8.628106440859597, 11.913826770389164], [8.6091408531679, 11.91106029839409], [8.613739948339969, 11.892368592936236], [8.600499998775945, 11.886799998920878], [8.57984065762031, 11.884615946768577], [8.581284459810036, 11.882061854171297], [8.558455650807673, 11.880796446898557], [8.55322575856195, 11.890158605235513], [8.536232597256628, 11.891379002339136], [8.535360703633614, 11.887106076883981], [8.522531770324974, 11.889967952559005], [8.517926205430058, 11.879890120932373], [8.510231221094045, 11.876947047268459], [8.505883957678577, 11.866313902264835], [8.501721833196086, 11.864277078124701], [8.497177763942716, 11.869815468409172], [8.484109925732525, 11.871081265088378], [8.474144581307428, 11.879523668782326], [8.465459548619322, 11.877810456687257], [8.454466439174894, 11.88209348692493], [8.44989787418757, 11.89023124257784], [8.438333693445259, 11.888803567031061], [8.431338077690157, 11.883235627722115], [8.425147154617548, 11.888043004081396], [8.416347473657027, 11.902937565016657], [8.4067805037173, 11.905706529932445], [8.403807319851978, 11.9102495442811], [8.405033962747211, 11.928997211851879], [8.400964525092832, 11.95844871023985], [8.405501711834575, 11.957662604745451], [8.410544364330974, 11.96231110057687], [8.4171064034378, 11.978928258932058], [8.413394529034349, 11.994047599117437], [8.406970720222603, 12.004747115886744], [8.402296654866802, 12.005506766923816], [8.40274026704975, 12.011025441371089], [8.393768567365555, 12.011395666177123], [8.387695256730751, 12.022203651077689], [8.39776461494506, 12.01972176774541], [8.402520649008807, 12.032669326128541], [8.405922317560965, 12.033073503939079], [8.40856839281713, 12.048181763577588], [8.416069565158352, 12.053699931706547], [8.417838199773144, 12.060204774830538], [8.425249028919609, 12.0619601714248], [8.443168261705978, 12.075999031030506], [8.444653691714564, 12.083199362160883], [8.441149372745429, 12.092843573971834], [8.453506352636111, 12.097631367593578], [8.475805070647539, 12.11533773085165], [8.481822330136481, 12.123969952651237], [8.493972283394214, 12.129969183431115], [8.541637035320946, 12.137043525838124], [8.545644497995227, 12.131253821806467], [8.555660138804399, 12.127748685353595], [8.557514040840374, 12.12147448326084], [8.560960396705013, 12.12193924390101], [8.568516234336812, 12.115063870201482], [8.567579183032933, 12.110280767443498], [8.580378829919141, 12.095795194792458], [8.624488161599402, 12.093913063936782], [8.63735515781434, 12.098652649400321], [8.640911048406224, 12.097099413207388], [8.647971473804546, 12.083200840646327], [8.63441126306941, 12.061145376657862], [8.618367881172844, 12.0429859358523], [8.604945826988398, 12.037291093209433], [8.60431835290973, 12.025872726744979], [8.593128390862603, 12.026560817827544], [8.591798566051011, 12.031416037220367], [8.595921286738019, 12.03212871396903], [8.593354286171405, 12.036733176295115], [8.588979864129499, 12.034300386054042], [8.586834076331627, 12.039821431114206]], [[8.578674731828476, 12.032719369246529], [8.57892764609403, 12.032333637087731], [8.586834076331627, 12.039821431114206], [8.578674731828476, 12.032719369246529]], [[8.595299398108974, 11.961355350760694], [8.596632306409111, 11.964761164373897], [8.595400343650965, 11.961900667082148], [8.595299398108974, 11.961355350760694]], [[8.55253898960108, 12.052675097515403], [8.550939102757411, 12.053064942892831], [8.548548437660315, 12.053278564254413], [8.55253898960108, 12.052675097515403]], [[8.541577951196828, 12.06283240459798], [8.546606000066902, 12.065004236256527], [8.542093083329178, 12.064566072166542], [8.541577951196828, 12.06283240459798]], [[8.534871757864186, 11.989633028583619], [8.544548654296989, 11.99390837237354], [8.535127337656547, 11.991089496882807], [8.534871757864186, 11.989633028583619]], [[8.534335784069242, 11.986578683659388], [8.53498765792731, 11.985784417388434], [8.534642803454567, 11.9883282899089], [8.534335784069242, 11.986578683659388]], [[8.519516817447197, 12.064196150432053], [8.533645488748334, 12.059406031163462], [8.534033760782016, 12.05957374263896], [8.519516817447197, 12.064196150432053]], [[8.53313297259723, 11.9718414184364], [8.516715406790638, 11.955197786049041], [8.530499704297938, 11.967232732204877], [8.53313297259723, 11.9718414184364]], [[8.52026385864353, 12.011673647545972], [8.522409763690586, 12.010653847537407], [8.524925672082134, 12.014718646748179], [8.52026385864353, 12.011673647545972]], [[8.514196997282838, 12.00771090037762], [8.509587763364664, 12.00470024502033], [8.509262379165595, 12.002910381218117], [8.514196997282838, 12.00771090037762]], [[8.4968929657378, 12.069955504143252], [8.511249849001388, 12.072880248724573], [8.50074545004253, 12.071628354664881], [8.4968929657378, 12.069955504143252]], [[8.499760010715988, 11.952318388882588], [8.500364817838694, 11.951563281183205], [8.501103156094246, 11.953156768029727], [8.499760010715988, 11.952318388882588]], [[8.496679681467846, 11.979978053630608], [8.495986105574389, 11.979735969739238], [8.49827785873623, 11.972376094381275], [8.496679681467846, 11.979978053630608]], [[8.4978828517573, 11.946206684427624], [8.496717088805193, 11.944467815317925], [8.497107934283804, 11.944534252054154], [8.4978828517573, 11.946206684427624]], [[8.487170773712307, 11.962244521067817], [8.486462831831009, 11.963201783849103], [8.483115687439067, 11.953951297814172], [8.487170773712307, 11.962244521067817]], [[8.485928660679178, 11.963924077833951], [8.48007577477722, 11.962434107148397], [8.486314376470682, 11.96340252178378], [8.485928660679178, 11.963924077833951]], [[8.472780131697789, 12.027620056420517], [8.469515841079549, 12.024193628201683], [8.484415573819717, 12.032444895815331], [8.472780131697789, 12.027620056420517]], [[8.479789787900742, 11.934936047428463], [8.472705485269955, 11.938838459727208], [8.478497032911775, 11.934013971067941], [8.479789787900742, 11.934936047428463]], [[8.470108153268711, 12.047630212964009], [8.470151012556807, 12.047643511997233], [8.470094974386164, 12.047732029619604], [8.470108153268711, 12.047630212964009]], [[8.469010131658857, 12.023662800149824], [8.468627433009658, 12.023261092825237], [8.463819789551678, 11.979465924013255], [8.469010131658857, 12.023662800149824]], [[8.46496302392444, 12.06482329086225], [8.464972675416357, 12.064794063824761], [8.465236720292738, 12.06492346628865], [8.46496302392444, 12.06482329086225]]]}}, {"id": "3", "type": "Feature", "properties": {"slug": "lagos", "name": "Lagos"}, "geometry": {"type": "Polygon", "coordinates": [[[3.30223744829965, 6.402015350028421], [3.020770953716578, 6.397046120881839], [3.023929467171229, 6.404609361732696], [3.031011819839648, 6.409778886086769], [3.04766473434006, 6.41389438162048], [3.062168225982873, 6.415499753310996], [3.068432170408414, 6.409870998248039], [3.10629593530922, 6.410761619353309], [3.108923647308529, 6.427070461332789], [3.106125099194003, 6.434674156387246], [3.099830040923678, 6.439446966404432], [3.092193015195562, 6.467603272872793], [3.103042092818384, 6.467352774810763], [3.115053580158644, 6.475297141150179], [3.112118631869407, 6.490651678332313], [3.103014903614962, 6.499618730320208], [3.115875966102976, 6.504855879195532], [3.160445337882095, 6.508068376254585], [3.175323984414376, 6.514787462171682], [3.188700576070801, 6.530652173059366], [3.201396128228794, 6.532600029967455], [3.197977571307945, 6.561229263819541], [3.191670106889944, 6.569610689881472], [3.193281587675187, 6.577774588826287], [3.211792481737689, 6.59466287209392], [3.224616983187275, 6.60176481559381], [3.237830248067553, 6.619846251903027], [3.238407638901435, 6.660814232790642], [3.256104023282091, 6.681923241264599], [3.257746197029405, 6.696956686302087], [3.265772601324556, 6.700437230793625], [3.272455435569952, 6.698423097448028], [3.285464882598319, 6.686796528037405], [3.311824967748123, 6.674865138815164], [3.32807830177228, 6.671651784702135], [3.345033850731681, 6.672554372186596], [3.348417298119841, 6.661161793781787], [3.354048382426981, 6.657300231720342], [3.352703363569447, 6.652300889674393], [3.363685628988662, 6.649428232027333], [3.372670081059425, 6.64110208369425], [3.392538762553897, 6.638496015678641], [3.431207829877508, 6.640632217602786], [3.445165925866831, 6.626083430705819], [3.452423951204423, 6.622706991734333], [3.442611090429523, 6.613777920814471], [3.441761982029902, 6.607057575846511], [3.431595683194246, 6.602657869365203], [3.429827712279121, 6.595245632779779], [3.418978817218715, 6.59067486535281], [3.405223501263606, 6.59503917271968], [3.40564360336964, 6.584209185005932], [3.418608658063192, 6.584726377920049], [3.418648812792526, 6.577802732210387], [3.406492055264209, 6.574200260333782], [3.403490834134743, 6.568668819110769], [3.397895231679627, 6.566657941311007], [3.401835109402839, 6.564539218610093], [3.407570604100158, 6.551996999961602], [3.404821328941239, 6.533035817149312], [3.401208778362502, 6.535581460615958], [3.3974643807033496, 6.547947184790999], [3.40142478292745, 6.531220504123041], [3.399848308252899, 6.523963336738632], [3.382045169848766, 6.524038119863405], [3.400320160946706, 6.523885985150116], [3.405084522732579, 6.515358537066902], [3.397867026242295, 6.490917046684388], [3.389893602807547, 6.492842442125038], [3.393739022038289, 6.484783438305101], [3.384334541605881, 6.474879379979427], [3.383382048043131, 6.468350863101875], [3.3796819376260383, 6.466396319203035], [3.381221442691709, 6.463136183011627], [3.39207776557646, 6.465867444626895], [3.398721221207438, 6.459547853750507], [3.4062298028687894, 6.457403194003421], [3.403747557303973, 6.461351739990846], [3.411366434713216, 6.461651995743068], [3.422110011068185, 6.468054157873155], [3.43839236891273, 6.46331868231141], [3.44051924127001, 6.465717902659151], [3.446225942373417, 6.463943729119876], [3.443701182963252, 6.466266576341468], [3.445897214984541, 6.468906966083694], [3.46023942401024, 6.465413234832965], [3.462796872877448, 6.461240669221581], [3.475647035582256, 6.460363221385592], [3.482677570213752, 6.47008332068873], [3.486893508328819, 6.466893229339121], [3.483151262920501, 6.460922909065062], [3.479509236162357, 6.463714169073683], [3.476274825323003, 6.460286046064198], [3.484675970819467, 6.453921285838703], [3.486333300841181, 6.457565309991139], [3.491154605001043, 6.447052773067071], [3.493391357425253, 6.44810753303625], [3.491975462097969, 6.45664849073529], [3.504468888028782, 6.454223745829268], [3.509051807095261, 6.457669863373553], [3.51279957883753, 6.468863266226776], [3.522076342049616, 6.465529911975921], [3.517600673432355, 6.461536595637426], [3.523668604322665, 6.465175971194185], [3.534046169195392, 6.460294202915179], [3.531463411607206, 6.465305746063393], [3.538297796905852, 6.469541516028187], [3.551588040155991, 6.46707840784228], [3.565489831390664, 6.478122347868123], [3.579506365326552, 6.495761331220535], [3.572755503663586, 6.511791038026047], [3.606744494562804, 6.516055524243086], [3.62402721508397, 6.508602286666246], [3.628977640305891, 6.498063526410647], [3.619858647858337, 6.492422690754609], [3.618968568144965, 6.488604038945311], [3.639943676559483, 6.480210634812977], [3.654317411319539, 6.493403397848567], [3.667007243789328, 6.49151175036701], [3.673441592655422, 6.482332138217657], [3.673445859039191, 6.473999601100786], [3.642478942749051, 6.444158684575655], [3.630498591736682, 6.430177440036857], [3.628235537739897, 6.421851465272937], [3.467794528694583, 6.417299515260481], [3.460916052333971, 6.420120381850211], [3.439951745676581, 6.418639484424716], [3.430424059023153, 6.423817334702278], [3.408751440027004, 6.416107119448043], [3.404617598323568, 6.411924796192466], [3.401716955573079, 6.398581385922284], [3.359591686607075, 6.397662151986765], [3.30223744829965, 6.402015350028421]], [[3.407141088377147, 6.455953598206604], [3.407164501449784, 6.4502379854746295], [3.408511742822725, 6.453773277215021], [3.407141088377147, 6.455953598206604]], [[3.380115000806711, 6.548258517316754], [3.396825147746818, 6.550058226176987], [3.396775741207534, 6.550221389305705], [3.380115000806711, 6.548258517316754]], [[3.380637333052105, 6.462259581812534], [3.379778493382787, 6.460970680152798], [3.3814513723023727, 6.454272839196267], [3.380637333052105, 6.462259581812534]], [[3.364874820654207, 6.476104430376735], [3.370517971926915, 6.473995885102056], [3.3648771974154936, 6.476107885113966], [3.364874820654207, 6.476104430376735]], [[3.366925915098932, 6.558478963433458], [3.368154412396279, 6.572713978667252], [3.366813015341737, 6.558474046188655], [3.366925915098932, 6.558478963433458]], [[3.366925915098932, 6.558478963433458], [3.3672934166872492, 6.5236502404407455], [3.367503741204757, 6.524388646818636], [3.366925915098932, 6.558478963433458]], [[3.3561049313905853, 6.473378681041831], [3.356227864224593, 6.47319191007864], [3.363353890669543, 6.4738936852454], [3.3561049313905853, 6.473378681041831]], [[3.352297403302543, 6.478644506838577], [3.3509022814915648, 6.478643843422814], [3.3524463695050226, 6.478400053992079], [3.352297403302543, 6.478644506838577]], [[3.3517873660960555, 6.555765395155213], [3.351830654983732, 6.55578354762273], [3.337599370314763, 6.59028770091669], [3.3517873660960555, 6.555765395155213]], [[3.347875166393714, 6.43700347667222], [3.349059825050915, 6.436973870347913], [3.3497383371506357, 6.443118632089542], [3.347875166393714, 6.43700347667222]], [[3.345712182371358, 6.478641375399206], [3.340826897137279, 6.475596692267459], [3.3470785270739007, 6.478642025130724], [3.345712182371358, 6.478641375399206]], [[3.3276327918282576, 6.441393353739526], [3.337079658399546, 6.438062606703966], [3.33172460031011, 6.437407102555767], [3.345444843197477, 6.437064213945595], [3.3276327918282576, 6.441393353739526]], [[3.338039442766103, 6.548518371925354], [3.3379399831765255, 6.5476644436809845], [3.3392248385141547, 6.549136591117162], [3.338039442766103, 6.548518371925354]], [[3.327311841068649, 6.477952098110904], [3.316594405307626, 6.462509928290615], [3.3163587989957017, 6.461157023152393], [3.327311841068649, 6.477952098110904]], [[3.321313339638948, 6.443621446672466], [3.3222538426176143, 6.44328984703734], [3.315505790359964, 6.456258853163604], [3.321313339638948, 6.443621446672466]], [[3.3162006198210365, 6.460248722282114], [3.3161912631526436, 6.460194994159798], [3.3195015889823196, 6.462306003411508], [3.3162006198210365, 6.460248722282114]], [[3.306266054934554, 6.610407852640321], [3.31579280963091, 6.60472741659211], [3.315837909991615, 6.605385264018764], [3.306266054934554, 6.610407852640321]], [[3.2901639131354132, 6.492351768211483], [3.29004223306265, 6.491590370898962], [3.290324363878312, 6.482814275558439], [3.2901639131354132, 6.492351768211483]], [[3.290324363878312, 6.482814275558439], [3.315245758584922, 6.488811349764035], [3.3158280688715713, 6.489458687642106], [3.290324363878312, 6.482814275558439]], [[3.305436073411886, 6.648236542794804], [3.298327080030788, 6.622656364399745], [3.306024227236321, 6.64782754490534], [3.305436073411886, 6.648236542794804]], [[3.305681554959847, 6.568183038616382], [3.300672160292038, 6.571876735023352], [3.300235776107743, 6.571935183272112], [3.305681554959847, 6.568183038616382]], [[3.2995635511536667, 6.572025219466715], [3.294721756403987, 6.57267371781785], [3.291781833755043, 6.571043616791163], [3.2995635511536667, 6.572025219466715]], [[3.286108363520802, 6.554545670574783], [3.285935803594498, 6.545111615009091], [3.288593566439999, 6.533266540018872], [3.286108363520802, 6.554545670574783]], [[3.2877826971073763, 6.568826212616408], [3.286355092713393, 6.568034647780792], [3.28621519795568, 6.56038643567338], [3.2877826971073763, 6.568826212616408]], [[3.2731395665249736, 6.671421230341655], [3.273646308830109, 6.669817649764752], [3.2749796940577673, 6.668900489246362], [3.2731395665249736, 6.671421230341655]], [[3.237207096130646, 6.481482876033965], [3.241043890862898, 6.484684674758], [3.233668075921003, 6.478604721730562], [3.237207096130646, 6.481482876033965]], [[3.237207096130646, 6.481482876033965], [3.2396195564335684, 6.479815087232335], [3.239641460185283, 6.480057152915322], [3.237207096130646, 6.481482876033965]], [[3.2405665491326787, 6.47386595399804], [3.2395040950678813, 6.474984301975709], [3.239470335387693, 6.474404869788941], [3.2405665491326787, 6.47386595399804]], [[3.216797808771901, 6.499798281765322], [3.216751193358804, 6.498353718768898], [3.223276828762664, 6.501296635031736], [3.216797808771901, 6.499798281765322]], [[3.2161216323817614, 6.4980698007864905], [3.213275923345236, 6.501285630927157], [3.215709609311091, 6.497883987556008], [3.2161216323817614, 6.4980698007864905]], [[3.2004749267357364, 6.418448964748501], [3.199852182235802, 6.426564845909332], [3.199190467166375, 6.421918914426385], [3.2004749267357364, 6.418448964748501]]]}}, {"id": "4", "type": "Feature", "properties": {"slug": "port_harcourt", "name": "Port Harcourt"}, "geometry": {"type": "Polygon", "coordinates": [[[7.068897900617685, 4.802396338420351], [7.069483888970353, 4.795053570865662], [7.062478896883647, 4.791144675686269], [7.061384755602035, 4.785954222309556], [7.068110128679564, 4.779938110355545], [7.069121596184743, 4.774729335990116], [7.055811028256414, 4.766081534335399], [7.054881392762127, 4.753160870178078], [7.04352686377382, 4.750441810441259], [7.043108233857936, 4.747262281629048], [7.03561406183951, 4.753761839437402], [7.025004038405712, 4.75580431761523], [7.012799207617377, 4.749895325708735], [7.010190758196984, 4.735027981855922], [7.006603108946365, 4.73576748088459], [6.997975783955326, 4.754653149423348], [6.985037851915365, 4.764824023110236], [6.964681828703476, 4.764442477638283], [6.963751587066156, 4.771316719990693], [6.947376001001714, 4.774856260907768], [6.942020362849519, 4.789950754623703], [6.929063274350654, 4.781698499985851], [6.918856744343316, 4.803976161270896], [6.928841733559182, 4.811254913283676], [6.931541286101549, 4.820144253954197], [6.921545093131613, 4.824877018059965], [6.920236331341641, 4.829773596374423], [6.924786968343938, 4.839796376901347], [6.920706333230726, 4.847757639703332], [6.908563632105995, 4.849706925634166], [6.902635514317581, 4.855007600820159], [6.902724482448946, 4.870607097139896], [6.891383984683216, 4.885180725110445], [6.90010187680025, 4.893650079687461], [6.899056645148107, 4.904247741040479], [6.906099796368551, 4.902761691399007], [6.920404787850714, 4.922591952056962], [6.923262882775873, 4.917523995336182], [6.934628753114509, 4.910883004746893], [6.941655578941891, 4.910290076326021], [6.952952659237894, 4.91761397160758], [6.957077285588298, 4.910149455632904], [6.963468395949747, 4.910110147165597], [6.959278799876756, 4.936844695626235], [6.970929098798933, 4.936512808919019], [6.994999950687202, 4.924560211884341], [7.005567589972372, 4.93513043222373], [7.020431349127534, 4.931922594552134], [7.026829574025669, 4.939174662780488], [7.031976554174662, 4.929031196832341], [7.03108571183617, 4.918996509281499], [7.063447582739798, 4.924952507852026], [7.082051032329332, 4.921819751880093], [7.079867910076018, 4.903622529656047], [7.094181737397321, 4.901686425088485], [7.097363387710232, 4.888618943909194], [7.101770563960429, 4.889718945173229], [7.112798782937546, 4.872343714091187], [7.106472644097323, 4.85121499877323], [7.099470907556395, 4.857257117322149], [7.092813515131638, 4.856184744130701], [7.092414424785943, 4.849592511185506], [7.086080341334707, 4.841130277440413], [7.075112951601511, 4.837401675646845], [7.07006636097384, 4.831745585690271], [7.079142366726899, 4.826068569409017], [7.068017089317266, 4.809415752035363], [7.06185502340655, 4.807547268209138], [7.068897900617685, 4.802396338420351]], [[7.059246410446176, 4.809455122315094], [7.057078951832182, 4.812318171846186], [7.055180579213405, 4.812428738152091], [7.059246410446176, 4.809455122315094]]]}}]}