{"type": "FeatureCollection", "features": [{"id": "0", "type": "Feature", "properties": {"city": "Lagos", "slug": "lagos", "lga": "Lagos Mainland", "pop": 337260, "area_km2": 20.17, "people_per_km2": 16724}, "geometry": {"type": "Polygon", "coordinates": [[[3.379361278100532, 6.466226934225688], [3.383382048043131, 6.468350863101875], [3.384334541605881, 6.474879379979427], [3.393739022038289, 6.484783438305101], [3.389893602807547, 6.492842442125038], [3.397867026242295, 6.490917046684388], [3.404250809827033, 6.507011005553522], [3.405084522732579, 6.515358537066902], [3.400320160946706, 6.523885985150116], [3.382045169848766, 6.524038119863405], [3.376076182369957, 6.528977825166521], [3.367503741204757, 6.524388646818636], [3.365475556851493, 6.517268106238134], [3.367936905963461, 6.516397796321314], [3.37206335973633, 6.506423904739449], [3.368709632243792, 6.505286879286075], [3.367600150326723, 6.4959437883752], [3.363292387833496, 6.490003560316097], [3.369098765295803, 6.482244137756823], [3.364460226758126, 6.476264005879216], [3.370517971926915, 6.473995885102056], [3.372323610046635, 6.469404945881593], [3.377762054175491, 6.469418166814989], [3.379361278100532, 6.466226934225688]]]}}, {"id": "1", "type": "Feature", "properties": {"city": "Lagos", "slug": "lagos", "lga": "Lagos Island", "pop": 69799, "area_km2": 5.04, "people_per_km2": 13837}, "geometry": {"type": "Polygon", "coordinates": [[[3.403009752598052, 6.439335522416457], [3.407181067252509, 6.446193932204267], [3.407136210867463, 6.457144298670471], [3.398721221207438, 6.459547853750507], [3.39207776557646, 6.465867444626895], [3.380564823707687, 6.462970989119924], [3.381469291674534, 6.454097027755665], [3.403009752598052, 6.439335522416457]]]}}, {"id": "2", "type": "Feature", "properties": {"city": "Lagos", "slug": "lagos", "lga": "Apapa", "pop": 219660, "area_km2": 37.37, "people_per_km2": 5878}, "geometry": {"type": "Polygon", "coordinates": [[[3.364495326398242, 6.476246227181662], [3.363353890669543, 6.4738936852454], [3.356227864224593, 6.47319191007864], [3.352840853722455, 6.478337770571727], [3.348017322841201, 6.479099337164712], [3.33877777267611, 6.474598510013266], [3.345966864978891, 6.471067717701033], [3.350463364592656, 6.472901560358764], [3.350908198054924, 6.467430635415553], [3.35552390730254, 6.466604299648736], [3.356148276022168, 6.455160985990744], [3.351033641789172, 6.454849209023848], [3.349059825050915, 6.436973870347913], [3.33172460031011, 6.437407102555767], [3.332050874348397, 6.429896301173414], [3.354455468645028, 6.424548690369818], [3.359591686607075, 6.397662151986765], [3.377091507067462, 6.398044023013313], [3.380097831849525, 6.407384181235045], [3.384384480959056, 6.409898164968411], [3.400271547194222, 6.4104270562637], [3.403009752598052, 6.439335522416457], [3.381107816372662, 6.45451088137213], [3.379778493382787, 6.460970680152798], [3.381493660604008, 6.463544713417832], [3.377762054175491, 6.469418166814989], [3.372323610046635, 6.469404945881593], [3.370517971926915, 6.473995885102056], [3.364495326398242, 6.476246227181662]]]}}, {"id": "3", "type": "Feature", "properties": {"city": "Lagos", "slug": "lagos", "lga": "Mushin", "pop": 624556, "area_km2": 16.99, "people_per_km2": 36751}, "geometry": {"type": "Polygon", "coordinates": [[[3.36733558596859, 6.519653789091137], [3.366925915098932, 6.558478963433458], [3.357253935820552, 6.558057709295895], [3.341098258278066, 6.551283097437022], [3.337625322950316, 6.547303915743157], [3.334369288811672, 6.51700760321836], [3.325296549396285, 6.509868356739332], [3.322288649002019, 6.501563548419085], [3.326623777865109, 6.498641597132064], [3.337661645668447, 6.51110977999241], [3.348614369257803, 6.512583251715739], [3.34856855689344, 6.515553039741064], [3.351704268037565, 6.515332585330611], [3.352280596772175, 6.518192798159134], [3.358548668186529, 6.51278377894829], [3.362529928213689, 6.519399786371082], [3.364647604103709, 6.520376926753841], [3.365475556851493, 6.517268106238134], [3.36733558596859, 6.519653789091137]]]}}, {"id": "4", "type": "Feature", "properties": {"city": "Lagos", "slug": "lagos", "lga": "Surulere", "pop": 630848, "area_km2": 20.0, "people_per_km2": 31546}, "geometry": {"type": "Polygon", "coordinates": [[[3.367936905963461, 6.516397796321314], [3.364647604103709, 6.520376926753841], [3.362529928213689, 6.519399786371082], [3.358548668186529, 6.51278377894829], [3.352280596772175, 6.518192798159134], [3.351704268037565, 6.515332585330611], [3.34856855689344, 6.515553039741064], [3.348614369257803, 6.512583251715739], [3.337661645668447, 6.51110977999241], [3.326623777865109, 6.498641597132064], [3.322288649002019, 6.501563548419085], [3.321505119165977, 6.495769703908763], [3.327085736217782, 6.483558611141063], [3.327311841068649, 6.477952098110904], [3.315469131295401, 6.459792832673145], [3.345712182371358, 6.478641375399206], [3.352297403302543, 6.478644506838577], [3.355531165730781, 6.473337917710808], [3.363353890669543, 6.4738936852454], [3.369098765295803, 6.482244137756823], [3.363292387833496, 6.490003560316097], [3.367600150326723, 6.4959437883752], [3.368709632243792, 6.505286879286075], [3.37206335973633, 6.506423904739449], [3.367936905963461, 6.516397796321314]]]}}, {"id": "5", "type": "Feature", "properties": {"city": "Lagos", "slug": "lagos", "lga": "Shomolu", "pop": 329683, "area_km2": 10.29, "people_per_km2": 32043}, "geometry": {"type": "Polygon", "coordinates": [[[3.399848308252899, 6.523963336738632], [3.40142478292745, 6.531220504123041], [3.39696107979006, 6.550072866269829], [3.380115000806711, 6.548258517316754], [3.366925915098932, 6.558478963433458], [3.367503741204757, 6.524388646818636], [3.376076182369957, 6.528977825166521], [3.382045169848766, 6.524038119863405], [3.399848308252899, 6.523963336738632]]]}}, {"id": "6", "type": "Feature", "properties": {"city": "Lagos", "slug": "lagos", "lga": "Agege", "pop": 388498, "area_km2": 12.24, "people_per_km2": 31739}, "geometry": {"type": "Polygon", "coordinates": [[[3.315837909991615, 6.605385264018764], [3.326572612735959, 6.608228860073893], [3.333082450694576, 6.601756581401162], [3.332995035692363, 6.613932372181296], [3.335731116897591, 6.614195815984147], [3.336822006230648, 6.617538864027381], [3.334602512695881, 6.625781363719], [3.33667874422872, 6.62653436516888], [3.327416160627365, 6.62893397312439], [3.322574685573329, 6.627355057689783], [3.314487191230967, 6.647884274139983], [3.306024227236321, 6.64782754490534], [3.298327080030788, 6.622656364399745], [3.306266054934554, 6.610407852640321], [3.315837909991615, 6.605385264018764]]]}}, {"id": "7", "type": "Feature", "properties": {"city": "Lagos", "slug": "lagos", "lga": "Oshodi/Isolo", "pop": 1411229, "area_km2": 54.0, "people_per_km2": 26134}, "geometry": {"type": "Polygon", "coordinates": [[[3.351813450230566, 6.555701927102291], [3.337599370314763, 6.59028770091669], [3.334182436670176, 6.589321696838908], [3.333924585751106, 6.582823288364125], [3.330452235882035, 6.58053615142228], [3.321354997135472, 6.582732538675771], [3.315655504098288, 6.580645277857343], [3.31505501687559, 6.587875704800012], [3.308792337796206, 6.588147725437238], [3.305681554959847, 6.568183038616382], [3.300021295746262, 6.572082960360376], [3.288108470329689, 6.570580250777994], [3.285730812127326, 6.557778390660246], [3.288593566439999, 6.533266540018872], [3.287136316687736, 6.525356408171774], [3.281847893865233, 6.5214507208741], [3.292480813139036, 6.506849470226939], [3.290031230756767, 6.500238657288264], [3.290324363878312, 6.482814275558439], [3.317316301006542, 6.489846412781787], [3.321505119165977, 6.495769703908763], [3.325296549396285, 6.509868356739332], [3.334369288811672, 6.51700760321836], [3.338039442766103, 6.548518371925354], [3.351813450230566, 6.555701927102291]]]}}, {"id": "8", "type": "Feature", "properties": {"city": "Lagos", "slug": "lagos", "lga": "Ajeromi/Ifelodun", "pop": 657013, "area_km2": 12.48, "people_per_km2": 52640}, "geometry": {"type": "Polygon", "coordinates": [[[3.33877777267611, 6.474598510013266], [3.315561577105143, 6.459793440614817], [3.315505790359964, 6.456258853163604], [3.322604776888966, 6.442615390388028], [3.347724835432871, 6.436510071982298], [3.351494311413376, 6.448881955437969], [3.351033641789172, 6.454849209023848], [3.356148276022168, 6.455160985990744], [3.35552390730254, 6.466604299648736], [3.350908198054924, 6.467430635415553], [3.350463364592656, 6.472901560358764], [3.345966864978891, 6.471067717701033], [3.33877777267611, 6.474598510013266]]]}}, {"id": "9", "type": "Feature", "properties": {"city": "Lagos", "slug": "lagos", "lga": "Amuwo Odofin", "pop": 706953, "area_km2": 114.07, "people_per_km2": 6198}, "geometry": {"type": "Polygon", "coordinates": [[[3.337079658399546, 6.438062606703966], [3.321313339638948, 6.443621446672466], [3.315505790359964, 6.456258853163604], [3.316594405307626, 6.462509928290615], [3.327311841068649, 6.477952098110904], [3.327085736217782, 6.483558611141063], [3.321505119165977, 6.495769703908763], [3.315245758584922, 6.488811349764035], [3.290324363878312, 6.482814275558439], [3.29004223306265, 6.491590370898962], [3.270153190017766, 6.478077237874288], [3.246353579953791, 6.477089897380893], [3.243996609755811, 6.472179682646299], [3.239470335387693, 6.474404869788941], [3.23977912570615, 6.479704773356673], [3.237207096130646, 6.481482876033965], [3.233668075921003, 6.478604721730562], [3.237753321858349, 6.470576159961865], [3.237870032276192, 6.458153151846545], [3.230856720561235, 6.459259281091022], [3.230180985264326, 6.442034421151675], [3.21582589704758, 6.435147022617059], [3.200987033824617, 6.434532690331423], [3.199435570195476, 6.431994317883493], [3.201732267829925, 6.402062740702945], [3.30223744829965, 6.402015350028421], [3.359591686607075, 6.397662151986765], [3.354455468645028, 6.424548690369818], [3.332050874348397, 6.429896301173414], [3.33172460031011, 6.437407102555767], [3.337079658399546, 6.438062606703966]]]}}, {"id": "10", "type": "Feature", "properties": {"city": "Lagos", "slug": "lagos", "lga": "Eti Osa", "pop": 500453, "area_km2": 177.81, "people_per_km2": 2815}, "geometry": {"type": "Polygon", "coordinates": [[[3.403009752598052, 6.439335522416457], [3.400271547194222, 6.4104270562637], [3.384384480959056, 6.409898164968411], [3.380097831849525, 6.407384181235045], [3.377091507067462, 6.398044023013313], [3.401716955573079, 6.398581385922284], [3.404617598323568, 6.411924796192466], [3.408751440027004, 6.416107119448043], [3.430424059023153, 6.423817334702278], [3.439951745676581, 6.418639484424716], [3.460916052333971, 6.420120381850211], [3.467794528694583, 6.417299515260481], [3.481826360098466, 6.419277814219811], [3.628235537739897, 6.421851465272937], [3.630498591736682, 6.430177440036857], [3.642478942749051, 6.444158684575655], [3.673445859039191, 6.473999601100786], [3.673441592655422, 6.482332138217657], [3.667007243789328, 6.49151175036701], [3.654317411319539, 6.493403397848567], [3.646528508983579, 6.488851585432371], [3.639943676559483, 6.480210634812977], [3.630620325767495, 6.485855609149098], [3.618968568144965, 6.488604038945311], [3.619858647858337, 6.492422690754609], [3.628977640305891, 6.498063526410647], [3.62402721508397, 6.508602286666246], [3.606744494562804, 6.516055524243086], [3.586925040158519, 6.514531900926556], [3.572755503663586, 6.511791038026047], [3.574262117202977, 6.503364746585817], [3.578838710438163, 6.501169140843217], [3.579506365326552, 6.495761331220535], [3.565489831390664, 6.478122347868123], [3.551588040155991, 6.46707840784228], [3.550563629607893, 6.46906885484384], [3.538297796905852, 6.469541516028187], [3.531463411607206, 6.465305746063393], [3.534046169195392, 6.460294202915179], [3.523668604322665, 6.465175971194185], [3.520908503124986, 6.461625126698266], [3.517600673432355, 6.461536595637426], [3.522076342049616, 6.465529911975921], [3.51279957883753, 6.468863266226776], [3.509051807095261, 6.457669863373553], [3.504468888028782, 6.454223745829268], [3.491975462097969, 6.45664849073529], [3.493391357425253, 6.44810753303625], [3.491154605001043, 6.447052773067071], [3.487537439101573, 6.451674518564232], [3.489805885433327, 6.453824474719795], [3.486333300841181, 6.457565309991139], [3.484675970819467, 6.453921285838703], [3.482007909837193, 6.458297011897628], [3.476274825323003, 6.460286046064198], [3.479509236162357, 6.463714169073683], [3.483151262920501, 6.460922909065062], [3.486893508328819, 6.466893229339121], [3.482677570213752, 6.47008332068873], [3.475647035582256, 6.460363221385592], [3.462796872877448, 6.461240669221581], [3.46023942401024, 6.465413234832965], [3.445897214984541, 6.468906966083694], [3.443701182963252, 6.466266576341468], [3.446225942373417, 6.463943729119876], [3.44051924127001, 6.465717902659151], [3.43839236891273, 6.46331868231141], [3.422110011068185, 6.468054157873155], [3.411366434713216, 6.461651995743068], [3.403747557303973, 6.461351739990846], [3.408511742822725, 6.453773277215021], [3.403009752598052, 6.439335522416457]]]}}, {"id": "11", "type": "Feature", "properties": {"city": "Lagos", "slug": "lagos", "lga": "Kosofe", "pop": 1114889, "area_km2": 61.15, "people_per_km2": 18232}, "geometry": {"type": "Polygon", "coordinates": [[[3.366925915098932, 6.558478963433458], [3.380115000806711, 6.548258517316754], [3.396775741207534, 6.550221389305705], [3.401208778362502, 6.535581460615958], [3.404821328941239, 6.533035817149312], [3.407570604100158, 6.551996999961602], [3.401835109402839, 6.564539218610093], [3.397895231679627, 6.566657941311007], [3.399412762089355, 6.56880420305157], [3.403490834134743, 6.568668819110769], [3.406492055264209, 6.574200260333782], [3.418648812792526, 6.577802732210387], [3.418835726087934, 6.581509465189697], [3.418608658063192, 6.584726377920049], [3.40564360336964, 6.584209185005932], [3.405223501263606, 6.59503917271968], [3.418978817218715, 6.59067486535281], [3.429827712279121, 6.595245632779779], [3.431595683194246, 6.602657869365203], [3.441761982029902, 6.607057575846511], [3.442611090429523, 6.613777920814471], [3.452423951204423, 6.622706991734333], [3.445165925866831, 6.626083430705819], [3.431207829877508, 6.640632217602786], [3.392538762553897, 6.638496015678641], [3.372670081059425, 6.64110208369425], [3.364607869357712, 6.629776905879567], [3.365734665922162, 6.616624152782492], [3.358641588838282, 6.610784242299019], [3.366563910995751, 6.605027889625433], [3.369491963283508, 6.607523428263676], [3.383009806057771, 6.593480401199599], [3.368154412396279, 6.572713978667252], [3.366925915098932, 6.558478963433458]]]}}, {"id": "12", "type": "Feature", "properties": {"city": "Lagos", "slug": "lagos", "lga": "Alimosho", "pop": 2565257, "area_km2": 182.69, "people_per_km2": 14042}, "geometry": {"type": "Polygon", "coordinates": [[[3.199649774317663, 6.531850140171855], [3.203169315211767, 6.523913973850881], [3.206186324839052, 6.52331534462752], [3.2085329870078, 6.512959980418827], [3.214227717235417, 6.506585280886043], [3.213275923345236, 6.501285630927157], [3.216720203574596, 6.497393377702281], [3.216797808771901, 6.499798281765322], [3.223276828762664, 6.501296635031736], [3.233314326694881, 6.494262075934103], [3.237349744794926, 6.485854419346026], [3.241043890862898, 6.484684674758], [3.237207096130646, 6.481482876033965], [3.239641460185283, 6.480057152915322], [3.239210407034705, 6.475293440439998], [3.241594447725618, 6.472783979397207], [3.243996609755811, 6.472179682646299], [3.246353579953791, 6.477089897380893], [3.270153190017766, 6.478077237874288], [3.29004223306265, 6.491590370898962], [3.292480813139036, 6.506849470226939], [3.281847893865233, 6.5214507208741], [3.287136316687736, 6.525356408171774], [3.288593566439999, 6.533266540018872], [3.285935803594498, 6.545111615009091], [3.286355092713393, 6.568034647780792], [3.294721756403987, 6.57267371781785], [3.300672160292038, 6.571876735023352], [3.305681554959847, 6.568183038616382], [3.308655055386566, 6.57756343880169], [3.309860772856439, 6.600609835175817], [3.315565406418443, 6.601410444936107], [3.31603845431124, 6.604580948152261], [3.306266054934554, 6.610407852640321], [3.298327080030788, 6.622656364399745], [3.305545983060711, 6.64863202894503], [3.294366927092085, 6.655933946594416], [3.290023912073934, 6.662791268202511], [3.283187544669488, 6.663254771590459], [3.273646308830109, 6.669817649764752], [3.269936403941927, 6.68155760390033], [3.257394661034823, 6.693006797325893], [3.256104023282091, 6.681923241264599], [3.238407638901435, 6.660814232790642], [3.237830248067553, 6.619846251903027], [3.224616983187275, 6.60176481559381], [3.211792481737689, 6.59466287209392], [3.193281587675187, 6.577774588826287], [3.191670106889944, 6.569610689881472], [3.197977571307945, 6.561229263819541], [3.200131982704875, 6.550461392279487], [3.198629080667615, 6.545774662670567], [3.201186285818494, 6.544073342310924], [3.201396128228794, 6.532600029967455], [3.199649774317663, 6.531850140171855]]]}}, {"id": "13", "type": "Feature", "properties": {"city": "Lagos", "slug": "lagos", "lga": "Ifako/Ijaye", "pop": 707918, "area_km2": 32.02, "people_per_km2": 22107}, "geometry": {"type": "Polygon", "coordinates": [[[3.257394661034823, 6.693006797325893], [3.269936403941927, 6.68155760390033], [3.270587719947343, 6.674916936167733], [3.27523892273814, 6.668545378866213], [3.283187544669488, 6.663254771590459], [3.290023912073934, 6.662791268202511], [3.294366927092085, 6.655933946594416], [3.306024227236321, 6.64782754490534], [3.314487191230967, 6.647884274139983], [3.322574685573329, 6.627355057689783], [3.327416160627365, 6.62893397312439], [3.33667874422872, 6.62653436516888], [3.343197168014967, 6.635904322426597], [3.34170480063608, 6.651030555016177], [3.353350238722612, 6.658239752562565], [3.348417298119841, 6.661161793781787], [3.345033850731681, 6.672554372186596], [3.32807830177228, 6.671651784702135], [3.317225298608719, 6.675666171256864], [3.311824967748123, 6.674865138815164], [3.306930614356418, 6.679075956190502], [3.285464882598319, 6.686796528037405], [3.272455435569952, 6.698423097448028], [3.265772601324556, 6.700437230793625], [3.257746197029405, 6.696956686302087], [3.257394661034823, 6.693006797325893]]]}}, {"id": "14", "type": "Feature", "properties": {"city": "Lagos", "slug": "lagos", "lga": "Ikeja", "pop": 588416, "area_km2": 40.83, "people_per_km2": 14412}, "geometry": {"type": "Polygon", "coordinates": [[[3.366861745773008, 6.558483755021314], [3.368154412396279, 6.572713978667252], [3.383009806057771, 6.593480401199599], [3.369491963283508, 6.607523428263676], [3.366563910995751, 6.605027889625433], [3.358641588838282, 6.610784242299019], [3.365734665922162, 6.616624152782492], [3.364607869357712, 6.629776905879567], [3.372670081059425, 6.64110208369425], [3.363685628988662, 6.649428232027333], [3.352703363569447, 6.652300889674393], [3.35207960818741, 6.655970486049114], [3.354048382426981, 6.657300231720342], [3.353197073386298, 6.658285815837758], [3.34170480063608, 6.651030555016177], [3.343197168014967, 6.635904322426597], [3.334602512695881, 6.625781363719], [3.336822006230648, 6.617538864027381], [3.335731116897591, 6.614195815984147], [3.332995035692363, 6.613932372181296], [3.333082450694576, 6.601756581401162], [3.326572612735959, 6.608228860073893], [3.315837909991615, 6.605385264018764], [3.315565406418443, 6.601410444936107], [3.309860772856439, 6.600609835175817], [3.308792337796206, 6.588147725437238], [3.31505501687559, 6.587875704800012], [3.315655504098288, 6.580645277857343], [3.321354997135472, 6.582732538675771], [3.330452235882035, 6.58053615142228], [3.333924585751106, 6.582823288364125], [3.334182436670176, 6.589321696838908], [3.337599370314763, 6.59028770091669], [3.351942905840474, 6.555511392237008], [3.366861745773008, 6.558483755021314]]]}}, {"id": "15", "type": "Feature", "properties": {"city": "Lagos", "slug": "lagos", "lga": "Ojo", "pop": 956238, "area_km2": 172.33, "people_per_km2": 5549}, "geometry": {"type": "Polygon", "coordinates": [[[3.103014903614962, 6.499618730320208], [3.112118631869407, 6.490651678332313], [3.115053580158644, 6.475297141150179], [3.111759945365236, 6.470779018237124], [3.103042092818384, 6.467352774810763], [3.092193015195562, 6.467603272872793], [3.099830040923678, 6.439446966404432], [3.106125099194003, 6.434674156387246], [3.106377215136433, 6.429254759], [3.108923647308529, 6.427070461332789], [3.10629593530922, 6.410761619353309], [3.094272060707112, 6.40862229588231], [3.082213752862458, 6.411017840700822], [3.068432170408414, 6.409870998248039], [3.062168225982873, 6.415499753310996], [3.04766473434006, 6.41389438162048], [3.031011819839648, 6.409778886086769], [3.023929467171229, 6.404609361732696], [3.020770953716578, 6.397046120881839], [3.201732267829925, 6.402062740702945], [3.201821495865374, 6.414811226956601], [3.199190467166375, 6.421918914426385], [3.200987033824617, 6.434532690331423], [3.21582589704758, 6.435147022617059], [3.230180985264326, 6.442034421151675], [3.230856720561235, 6.459259281091022], [3.237870032276192, 6.458153151846545], [3.237753321858349, 6.470576159961865], [3.233668075921003, 6.478604721730562], [3.241043890862898, 6.484684674758], [3.237349744794926, 6.485854419346026], [3.233314326694881, 6.494262075934103], [3.223276828762664, 6.501296635031736], [3.215709609311091, 6.497883987556008], [3.213275923345236, 6.501285630927157], [3.214227717235417, 6.506585280886043], [3.2085329870078, 6.512959980418827], [3.206186324839052, 6.52331534462752], [3.203169315211767, 6.523913973850881], [3.199649774317663, 6.531850140171855], [3.188700576070801, 6.530652173059366], [3.175323984414376, 6.514787462171682], [3.163365843059239, 6.511083193334741], [3.160445337882095, 6.508068376254585], [3.115875966102976, 6.504855879195532], [3.103014903614962, 6.499618730320208]]]}}, {"id": "16", "type": "Feature", "properties": {"city": "Kano", "slug": "kano", "lga": "Nassarawa", "pop": 421729, "area_km2": 49.13, "people_per_km2": 8585}, "geometry": {"type": "Polygon", "coordinates": [[[8.534488862171315, 11.989463861667957], [8.549644881206348, 11.986641293560922], [8.580014723200975, 11.96679263996839], [8.595400343650965, 11.961900667082148], [8.60359780259654, 11.980934366727695], [8.601370300598944, 11.998277390389319], [8.614393980298019, 11.996609847666377], [8.618692945622968, 11.999421381991226], [8.619986339797777, 12.003522028818622], [8.613945669157374, 12.004803706625808], [8.613833708958566, 12.01296915060584], [8.60033420695811, 12.011962990899349], [8.601931414603143, 12.019941432551093], [8.599313531294456, 12.02369359838093], [8.590872817426657, 12.023949931244374], [8.586834076331627, 12.039821431114206], [8.57892764609403, 12.032333637087731], [8.572857887781367, 12.041590928178834], [8.565535554622215, 12.034728886029313], [8.56105520413439, 12.034977848948643], [8.55368041262102, 12.052502487100128], [8.548548437660315, 12.053278564254413], [8.54404751518075, 12.042215227650672], [8.535848370006306, 12.034778816389291], [8.544519482088504, 12.021787152555078], [8.541720715438714, 12.004684916975407], [8.544548654296989, 11.99390837237354], [8.534488862171315, 11.989463861667957]]]}}, {"id": "17", "type": "Feature", "properties": {"city": "Kano", "slug": "kano", "lga": "Fagge", "pop": 286408, "area_km2": 35.56, "people_per_km2": 8054}, "geometry": {"type": "Polygon", "coordinates": [[[8.550939102757411, 12.053064942892831], [8.552273247912126, 12.055955006918111], [8.546606000066902, 12.065004236256527], [8.533645488748334, 12.059406031163462], [8.519516817447197, 12.064196150432053], [8.518274583904997, 12.06962839013812], [8.511249849001388, 12.072880248724573], [8.4968929657378, 12.069955504143252], [8.496487020759446, 12.064256449975232], [8.503976074736102, 12.062779800047792], [8.505431863989372, 12.058450728118657], [8.489766447363706, 12.053208044815449], [8.478605941710896, 12.069816726161037], [8.466312809188821, 12.06545083328939], [8.479959542798724, 12.047368943721835], [8.499175142918546, 12.03117696234699], [8.5008545656857, 12.026610013441427], [8.509591806716571, 12.027481719106106], [8.515527129873192, 12.019472822812588], [8.518090062806209, 12.02095217790071], [8.524925672082134, 12.014718646748179], [8.522074926416792, 12.011168951585887], [8.535127337656547, 11.991089496882807], [8.544548654296989, 11.99390837237354], [8.541720715438714, 12.004684916975407], [8.544519482088504, 12.021787152555078], [8.535848370006306, 12.034778816389291], [8.54404751518075, 12.042215227650672], [8.548548437660315, 12.053278564254413], [8.550939102757411, 12.053064942892831]]]}}, {"id": "18", "type": "Feature", "properties": {"city": "Kano", "slug": "kano", "lga": "Tarauni", "pop": 242522, "area_km2": 23.35, "people_per_km2": 10386}, "geometry": {"type": "Polygon", "coordinates": [[[8.534488862171315, 11.989463861667957], [8.535085935567508, 11.985059457128273], [8.540391629869873, 11.979200025960495], [8.534868567630326, 11.974879017352805], [8.530499704297938, 11.967232732204877], [8.53951761474616, 11.953127982870171], [8.535543380222862, 11.94836985878203], [8.536280924125379, 11.933129387111592], [8.554818474992658, 11.941009522971171], [8.553661454912287, 11.937297616192097], [8.558970691644163, 11.935540356202523], [8.563307421300522, 11.938088253370267], [8.565682156706202, 11.946007605966315], [8.57037096824564, 11.945751354941137], [8.572314036263833, 11.948057885762864], [8.578724065663152, 11.944700942294673], [8.590589405976345, 11.959048453723199], [8.59308979555766, 11.955709430146158], [8.594682953555491, 11.95802526535374], [8.595400343650965, 11.961900667082148], [8.580014723200975, 11.96679263996839], [8.549644881206348, 11.986641293560922], [8.534488862171315, 11.989463861667957]]]}}, {"id": "19", "type": "Feature", "properties": {"city": "Kano", "slug": "kano", "lga": "Kano Municipal", "pop": 405992, "area_km2": 15.03, "people_per_km2": 27018}, "geometry": {"type": "Polygon", "coordinates": [[[8.535127337656547, 11.991089496882807], [8.52317002817432, 12.010072193277153], [8.520777798256859, 12.011902412566315], [8.516588986392662, 12.01003788683903], [8.508000316061782, 12.00168261486084], [8.508854144103509, 11.999451749398759], [8.512767451356865, 11.999428386810678], [8.511543790613473, 11.997033047037519], [8.516611283284135, 11.988341333285973], [8.514464321871003, 11.986706570851595], [8.51744522911406, 11.981737685246003], [8.506089819689464, 11.983262543331762], [8.496653934931203, 11.980100520722488], [8.49827785873623, 11.972376094381275], [8.506816284843694, 11.961534789598886], [8.516715406790638, 11.955197786049041], [8.540391629869873, 11.979200025960495], [8.534335784069242, 11.986578683659388], [8.535127337656547, 11.991089496882807]]]}}, {"id": "20", "type": "Feature", "properties": {"city": "Kano", "slug": "kano", "lga": "Ungogo", "pop": 706178, "area_km2": 216.25, "people_per_km2": 3265}, "geometry": {"type": "Polygon", "coordinates": [[[8.588979864129499, 12.034300386054042], [8.593354286171405, 12.036733176295115], [8.595921286738019, 12.03212871396903], [8.591798566051011, 12.031416037220367], [8.593128390862603, 12.026560817827544], [8.60431835290973, 12.025872726744979], [8.604945826988398, 12.037291093209433], [8.618367881172844, 12.0429859358523], [8.63441126306941, 12.061145376657862], [8.647971473804546, 12.083200840646327], [8.640911048406224, 12.097099413207388], [8.63735515781434, 12.098652649400321], [8.624488161599402, 12.093913063936782], [8.580378829919141, 12.095795194792458], [8.567579183032933, 12.110280767443498], [8.568516234336812, 12.115063870201482], [8.560960396705013, 12.12193924390101], [8.557514040840374, 12.12147448326084], [8.555660138804399, 12.127748685353595], [8.545644497995227, 12.131253821806467], [8.541637035320946, 12.137043525838124], [8.493972283394214, 12.129969183431115], [8.481822330136481, 12.123969952651237], [8.475805070647539, 12.11533773085165], [8.453506352636111, 12.097631367593578], [8.441149372745429, 12.092843573971834], [8.444653691714564, 12.083199362160883], [8.443168261705978, 12.075999031030506], [8.425249028919609, 12.0619601714248], [8.417838199773144, 12.060204774830538], [8.419069083871193, 12.058269652322622], [8.416069565158352, 12.053699931706547], [8.40856839281713, 12.048181763577588], [8.409309953991226, 12.04558767273295], [8.405416760075468, 12.040929405767486], [8.405922317560965, 12.033073503939079], [8.402520649008807, 12.032669326128541], [8.403080684725865, 12.029334059918995], [8.399429924651372, 12.027306996121013], [8.39776461494506, 12.01972176774541], [8.387695256730751, 12.022203651077689], [8.393768567365555, 12.011395666177123], [8.40274026704975, 12.011025441371089], [8.402296654866802, 12.005506766923816], [8.406970720222603, 12.004747115886744], [8.413394529034349, 11.994047599117437], [8.4171064034378, 11.978928258932058], [8.410544364330974, 11.96231110057687], [8.405501711834575, 11.957662604745451], [8.400964525092832, 11.95844871023985], [8.402848075978, 11.94753503071712], [8.41747387991569, 11.95963055790395], [8.42562629361862, 11.961374457565228], [8.463819789551678, 11.979465924013255], [8.468627433009658, 12.023261092825237], [8.472780131697789, 12.027620056420517], [8.484415573819717, 12.032444895815331], [8.475424859769532, 12.049279961700904], [8.470108153268711, 12.047630212964009], [8.469410350407372, 12.053021258324463], [8.464611984355656, 12.059555948148557], [8.46643398833794, 12.06036885703719], [8.46496302392444, 12.06482329086225], [8.478605941710896, 12.069816726161037], [8.489766447363706, 12.053208044815449], [8.505431863989372, 12.058450728118657], [8.503976074736102, 12.062779800047792], [8.496487020759446, 12.064256449975232], [8.4968929657378, 12.069955504143252], [8.50074545004253, 12.071628354664881], [8.511249849001388, 12.072880248724573], [8.518274583904997, 12.06962839013812], [8.519516817447197, 12.064196150432053], [8.536025824232468, 12.058939440402924], [8.541028982101864, 12.060984859363828], [8.542093083329178, 12.064566072166542], [8.546606000066902, 12.065004236256527], [8.56105520413439, 12.034977848948643], [8.565535554622215, 12.034728886029313], [8.572857887781367, 12.041590928178834], [8.578086283555194, 12.032207171723655], [8.586834076331627, 12.039821431114206], [8.588979864129499, 12.034300386054042]]]}}, {"id": "21", "type": "Feature", "properties": {"city": "Kano", "slug": "kano", "lga": "Kumbotso", "pop": 1137292, "area_km2": 188.23, "people_per_km2": 6042}, "geometry": {"type": "Polygon", "coordinates": [[[8.598800000419715, 11.970300001344015], [8.59308979555766, 11.955709430146158], [8.590589405976345, 11.959048453723199], [8.578724065663152, 11.944700942294673], [8.572314036263833, 11.948057885762864], [8.57037096824564, 11.945751354941137], [8.565682156706202, 11.946007605966315], [8.563307421300522, 11.938088253370267], [8.558970691644163, 11.935540356202523], [8.553661454912287, 11.937297616192097], [8.554818474992658, 11.941009522971171], [8.536280924125379, 11.933129387111592], [8.535543380222862, 11.94836985878203], [8.53951761474616, 11.953127982870171], [8.530499704297938, 11.967232732204877], [8.516715406790638, 11.955197786049041], [8.510949271291906, 11.959302623717178], [8.501214611065507, 11.953397310937191], [8.497107934283804, 11.944534252054154], [8.49203835068937, 11.943672513575677], [8.478497032911775, 11.934013971067941], [8.472705485269955, 11.938838459727208], [8.474425657218376, 11.944431457745623], [8.477073716378982, 11.943683325225322], [8.48030000184366, 11.948300000344773], [8.48030000184366, 11.953400000809438], [8.483115687439067, 11.953951297814172], [8.486548622720818, 11.963438883697563], [8.48007577477722, 11.962434107148397], [8.470760129376515, 11.95150192857119], [8.469365828570176, 11.955175532325029], [8.465823479070366, 11.955604376740666], [8.468649898074375, 11.95670922714919], [8.465505968925356, 11.963662831974148], [8.456999999350558, 11.953099999565381], [8.445599998840919, 11.958900000834433], [8.444448354907706, 11.97142750927219], [8.42562629361862, 11.961374457565228], [8.41747387991569, 11.95963055790395], [8.402848075978, 11.94753503071712], [8.401787325624639, 11.940539550759695], [8.405033962747211, 11.928997211851879], [8.405638932191039, 11.914814731414765], [8.403807319851978, 11.9102495442811], [8.4067805037173, 11.905706529932445], [8.416347473657027, 11.902937565016657], [8.425147154617548, 11.888043004081396], [8.431338077690157, 11.883235627722115], [8.438333693445259, 11.888803567031061], [8.44989787418757, 11.89023124257784], [8.45332429657907, 11.887946960983527], [8.454466439174894, 11.88209348692493], [8.458321164590132, 11.882664557323494], [8.465459548619322, 11.877810456687257], [8.474144581307428, 11.879523668782326], [8.484109925732525, 11.871081265088378], [8.493180269354013, 11.871814215253892], [8.497177763942716, 11.869815468409172], [8.501721833196086, 11.864277078124701], [8.505883957678577, 11.866313902264835], [8.510231221094045, 11.876947047268459], [8.517926205430058, 11.879890120932373], [8.522531770324974, 11.889967952559005], [8.535360703633614, 11.887106076883981], [8.536232597256628, 11.891379002339136], [8.55322575856195, 11.890158605235513], [8.558455650807673, 11.880796446898557], [8.581284459810036, 11.882061854171297], [8.57984065762031, 11.884615946768577], [8.600499998775945, 11.886799998920878], [8.613739948339969, 11.892368592936236], [8.6091408531679, 11.91106029839409], [8.628106440859597, 11.913826770389164], [8.635491672602654, 11.91802672215556], [8.630382883962966, 11.927565564898941], [8.63336142868701, 11.952530202606795], [8.631900000684539, 11.962400001259084], [8.60829999964534, 11.969400000309804], [8.598800000419715, 11.970300001344015]]]}}, {"id": "22", "type": "Feature", "properties": {"city": "Kano", "slug": "kano", "lga": "Dala", "pop": 435281, "area_km2": 14.02, "people_per_km2": 31053}, "geometry": {"type": "Polygon", "coordinates": [[[8.466312809188821, 12.06545083328939], [8.464386044980017, 12.06450656942269], [8.46643398833794, 12.06036885703719], [8.464611984355656, 12.059555948148557], [8.469410350407372, 12.053021258324463], [8.469409646238205, 12.048814570635955], [8.470966681167454, 12.046355085818618], [8.475424859769532, 12.049279961700904], [8.484415573819717, 12.032444895815331], [8.469041630167169, 12.023931016703102], [8.48793896920813, 12.012082898407073], [8.491638162271443, 12.018378343385905], [8.49388220819742, 12.016651224174723], [8.492690084879541, 12.01471219231388], [8.499192938703231, 12.01209570655169], [8.495033681259429, 12.0049961138796], [8.494610776865898, 11.996875403976787], [8.501088250922066, 11.997575455143192], [8.502850662228354, 11.993909667397304], [8.50879465215155, 12.000337522258917], [8.509587763364664, 12.00470024502033], [8.524925672082134, 12.014718646748179], [8.518090062806209, 12.02095217790071], [8.515527129873192, 12.019472822812588], [8.509591806716571, 12.027481719106106], [8.5008545656857, 12.026610013441427], [8.499175142918546, 12.03117696234699], [8.479959542798724, 12.047368943721835], [8.466312809188821, 12.06545083328939]]]}}, {"id": "23", "type": "Feature", "properties": {"city": "Kano", "slug": "kano", "lga": "Gwale", "pop": 1100173, "area_km2": 36.38, "people_per_km2": 30241}, "geometry": {"type": "Polygon", "coordinates": [[[8.508735955200223, 12.000304458683843], [8.502850662228354, 11.993909667397304], [8.501088250922066, 11.997575455143192], [8.494610776865898, 11.996875403976787], [8.495033681259429, 12.0049961138796], [8.499192938703231, 12.01209570655169], [8.492690084879541, 12.01471219231388], [8.49388220819742, 12.016651224174723], [8.491638162271443, 12.018378343385905], [8.48793896920813, 12.012082898407073], [8.469041630167169, 12.023931016703102], [8.463819789551678, 11.979465924013255], [8.444448354907706, 11.97142750927219], [8.445599998840919, 11.958900000834433], [8.456999999350558, 11.953099999565381], [8.465505968925356, 11.963662831974148], [8.468649898074375, 11.95670922714919], [8.465823479070366, 11.955604376740666], [8.469365828570176, 11.955175532325029], [8.470760129376515, 11.95150192857119], [8.48007577477722, 11.962434107148397], [8.485928660679178, 11.963924077833951], [8.487170773712307, 11.962244521067817], [8.483115687439067, 11.953951297814172], [8.48030000184366, 11.953400000809438], [8.48030000184366, 11.948300000344773], [8.477073716378982, 11.943683325225322], [8.474425657218376, 11.944431457745623], [8.472705485269955, 11.938838459727208], [8.480913259439433, 11.934317179294453], [8.49203835068937, 11.943672513575677], [8.49641866239142, 11.944022678104147], [8.500968607815025, 11.95080944340117], [8.499760010715988, 11.952318388882588], [8.510949271291906, 11.959302623717178], [8.49827785873623, 11.972376094381275], [8.495986105574389, 11.979735969739238], [8.506089819689464, 11.983262543331762], [8.51744522911406, 11.981737685246003], [8.514464321871003, 11.986706570851595], [8.516611283284135, 11.988341333285973], [8.511543790613473, 11.997033047037519], [8.512767451356865, 11.999428386810678], [8.508735955200223, 12.000304458683843]]]}}, {"id": "24", "type": "Feature", "properties": {"city": "Ibadan", "slug": "ibadan", "lga": "Ibadan North East", "pop": 466567, "area_km2": 18.4, "people_per_km2": 25362}, "geometry": {"type": "Polygon", "coordinates": [[[3.940188823955111, 7.419529316624732], [3.933737053422306, 7.416361678648627], [3.920016025019606, 7.396376955831897], [3.909136725679389, 7.389945271656984], [3.898879044032697, 7.379420504852476], [3.905062534208639, 7.371348707277093], [3.90990395710196, 7.372937665440929], [3.913129640020941, 7.370412555295218], [3.916966407773543, 7.371126693442193], [3.919456224924886, 7.367045504346606], [3.9260974394453, 7.364146954318528], [3.918485280871039, 7.34577851556611], [3.909787461622102, 7.342370556256242], [3.914611232622349, 7.336701892878125], [3.920651504863088, 7.339326521102123], [3.925956839436651, 7.337504497334749], [3.928113212254971, 7.344810792883834], [3.934237456893186, 7.348459202130528], [3.93280937035621, 7.352088321818655], [3.937450235440053, 7.354095176950921], [3.940179559139381, 7.35846559700974], [3.940494379412144, 7.361443531094153], [3.936653295813016, 7.365715495174015], [3.937691576605005, 7.371681093108009], [3.939850144668469, 7.372687405699253], [3.937558163078791, 7.376967119237236], [3.939442168121616, 7.379588296762506], [3.927938113353321, 7.392627191191991], [3.93316129215998, 7.39948331220512], [3.941186255741172, 7.400194092283584], [3.943831985657653, 7.403640604630255], [3.940188823955111, 7.419529316624732]]]}}, {"id": "25", "type": "Feature", "properties": {"city": "Ibadan", "slug": "ibadan", "lga": "Ibadan North", "pop": 436868, "area_km2": 38.91, "people_per_km2": 11229}, "geometry": {"type": "Polygon", "coordinates": [[[3.936608622889707, 7.423113963038986], [3.932353326844634, 7.436539500297727], [3.921704779152265, 7.443980543067653], [3.920919079252144, 7.451486290260164], [3.911888149318656, 7.451107305158075], [3.907132349978042, 7.454417454202201], [3.905867546150375, 7.464584429327999], [3.890964189845533, 7.455956104290806], [3.881042521894926, 7.453092579259192], [3.879337190558942, 7.445955179088287], [3.876617968044854, 7.445159375304968], [3.879979848791038, 7.434599007937891], [3.865097581588145, 7.430802197963089], [3.865282244779848, 7.425445108305155], [3.876171690271349, 7.4244697117079], [3.879471756116686, 7.421269379778096], [3.877575564360882, 7.42032526340023], [3.880019533174959, 7.414881230884134], [3.887376448864075, 7.409972739250577], [3.887198606130823, 7.404714337596658], [3.883672712425778, 7.403126312029713], [3.882358417107298, 7.398577576194214], [3.885718079226024, 7.399487685608278], [3.886781884576351, 7.396080284777383], [3.889728746184744, 7.400005733777618], [3.893362314819001, 7.385108646646756], [3.897831835670729, 7.384918384276034], [3.898879044032697, 7.379420504852476], [3.909136725679389, 7.389945271656984], [3.920016025019606, 7.396376955831897], [3.933737053422306, 7.416361678648627], [3.940188823955111, 7.419529316624732], [3.936608622889707, 7.423113963038986]]]}}, {"id": "26", "type": "Feature", "properties": {"city": "Ibadan", "slug": "ibadan", "lga": "Ibadan North West", "pop": 131927, "area_km2": 29.15, "people_per_km2": 4526}, "geometry": {"type": "Polygon", "coordinates": [[[3.865282244779848, 7.425445108305155], [3.8592178293394, 7.423197456997116], [3.852458290118022, 7.440544045571301], [3.839933104629097, 7.43666833537543], [3.833387797408989, 7.440170271141142], [3.815982842833989, 7.436465275651983], [3.823969680556388, 7.428359713929694], [3.824318601322432, 7.409414104677239], [3.827861916694133, 7.408117796699003], [3.828956726172009, 7.410280901842214], [3.834234939890621, 7.409419801882393], [3.835901551815198, 7.411205549696433], [3.845394654140023, 7.40601564490612], [3.849125931416665, 7.406717370610238], [3.849562179051361, 7.395881425787195], [3.845414780068097, 7.390294061122063], [3.854137902642151, 7.38364781579412], [3.867547002991842, 7.388024988862185], [3.872359383179059, 7.383239785287913], [3.877463953998301, 7.388708042841927], [3.881057027060194, 7.384943592273032], [3.885357222657774, 7.38465919066914], [3.891598749682601, 7.377265675270735], [3.898879044032697, 7.379420504852476], [3.897831835670729, 7.384918384276034], [3.893362314819001, 7.385108646646756], [3.889728746184744, 7.400005733777618], [3.886781884576351, 7.396080284777383], [3.885718079226024, 7.399487685608278], [3.882358417107298, 7.398577576194214], [3.883672712425778, 7.403126312029713], [3.887198606130823, 7.404714337596658], [3.887551127782388, 7.409547686376698], [3.880019533174959, 7.414881230884134], [3.877575564360882, 7.42032526340023], [3.879471756116686, 7.421269379778096], [3.875702980708013, 7.424631568991742], [3.865282244779848, 7.425445108305155]]]}}, {"id": "27", "type": "Feature", "properties": {"city": "Ibadan", "slug": "ibadan", "lga": "Ibadan South West", "pop": 276614, "area_km2": 24.03, "people_per_km2": 11509}, "geometry": {"type": "Polygon", "coordinates": [[[3.871010179776022, 7.340181785361153], [3.893168756432999, 7.363273783658258], [3.895745231357409, 7.374138224399587], [3.891272613240574, 7.374453801901495], [3.891598749682601, 7.377265675270735], [3.885357222657774, 7.38465919066914], [3.881057027060194, 7.384943592273032], [3.877463953998301, 7.388708042841927], [3.872359383179059, 7.383239785287913], [3.867547002991842, 7.388024988862185], [3.85428348219699, 7.383837702248229], [3.852887819817056, 7.378997983570116], [3.850666155318834, 7.381037675648258], [3.847697603861377, 7.380056598033605], [3.847339424574841, 7.377474139020364], [3.838852082657525, 7.377493138097918], [3.840307874608754, 7.36540847921799], [3.842158748627412, 7.364830537099635], [3.841366489971563, 7.357352667991279], [3.846172380650899, 7.355505034230021], [3.842198409628963, 7.350075536556801], [3.855547123201234, 7.336330383840163], [3.871010179776022, 7.340181785361153]]]}}, {"id": "28", "type": "Feature", "properties": {"city": "Ibadan", "slug": "ibadan", "lga": "Ibadan South East", "pop": 341913, "area_km2": 15.98, "people_per_km2": 21395}, "geometry": {"type": "Polygon", "coordinates": [[[3.898879044032697, 7.379420504852476], [3.8913188240046, 7.376914375797867], [3.891272613240574, 7.374453801901495], [3.895745231357409, 7.374138224399587], [3.895168089635661, 7.366188687857687], [3.871728366670823, 7.341374933906138], [3.868061967385927, 7.331730195092462], [3.875242106038399, 7.330070035803544], [3.877638367616612, 7.333017169906498], [3.902314087325294, 7.338495821824779], [3.918485280871039, 7.34577851556611], [3.9260974394453, 7.364146954318528], [3.919456224924886, 7.367045504346606], [3.916966407773543, 7.371126693442193], [3.913129640020941, 7.370412555295218], [3.90990395710196, 7.372937665440929], [3.905062534208639, 7.371348707277093], [3.898879044032697, 7.379420504852476]]]}}, {"id": "29", "type": "Feature", "properties": {"city": "Abuja", "slug": "abuja", "lga": "Municipal Area Council", "pop": 2291903, "area_km2": 1483.1, "people_per_km2": 1545}, "geometry": {"type": "Polygon", "coordinates": [[[7.496000767421549, 8.654301644305463], [7.591669082761996, 8.83487510690071], [7.594658851924521, 8.856400489790815], [7.58917264120447, 9.100944410356306], [7.548148290811014, 9.10447648510177], [7.504862301054402, 9.112138216105848], [7.504759435699441, 9.099728360575455], [7.465795497764077, 9.117449606714047], [7.414551748964072, 9.118576053442155], [7.375049377926473, 9.123645020101662], [7.343518237776493, 9.143679754217317], [7.282378813231674, 9.135622326908901], [7.249257240029635, 9.102459501804617], [7.218133446001787, 9.092270211800894], [7.216729302115652, 9.086160132384236], [7.214080274385196, 9.087809981845226], [7.209802628388616, 9.080315590392217], [7.219073006414135, 9.06306946328516], [7.216990977851367, 9.054205970928876], [7.208139382626428, 9.04333183369721], [7.195968440091463, 9.050517331409765], [7.179507329399769, 9.030644072366101], [7.178265249641584, 9.031729107112653], [7.171287480932563, 9.02584707867976], [7.167196106115455, 9.027113149652166], [7.154829501680183, 9.015735625898458], [7.169584368224037, 9.006203776283314], [7.16341323563239, 8.999338197100144], [7.159879736360779, 9.001836630656044], [7.154204721970416, 9.000801564940332], [7.156155880289703, 8.995876082415293], [7.152539099300043, 8.990260552782331], [7.151587315302436, 8.96974959886495], [7.14502000167181, 8.968940583141432], [7.142783308602873, 8.96132630666375], [7.130410112137042, 8.95737640239912], [7.131980555957966, 8.948715164873022], [7.127174044746425, 8.947192309577474], [7.118929212213402, 8.956726016292691], [7.106484307404912, 8.950491012949954], [7.109846184553817, 8.948371506939566], [7.112225645896899, 8.940281339812032], [7.109184181005219, 8.93491330990139], [7.113466739998103, 8.9330101007356], [7.114099258374097, 8.927739367577828], [7.118081851196507, 8.924819409188444], [7.126719293560598, 8.927460611018432], [7.132947444968636, 8.925538062831379], [7.14682388341555, 8.91646480630584], [7.164970398265325, 8.908992768401617], [7.190654705850022, 8.906674514916972], [7.21715922841571, 8.917981467071115], [7.228905550650666, 8.919915515788489], [7.252699382570484, 8.912179258865763], [7.272837510842521, 8.912822827211755], [7.278920971225887, 8.896868561834708], [7.327137483308263, 8.883738737852525], [7.334711401809784, 8.921356232404264], [7.412323346745097, 8.908670961295854], [7.409649450062147, 8.876676365421986], [7.48191377609993, 8.867957083852389], [7.478800475161847, 8.837407429609243], [7.478795527991281, 8.7953109740223], [7.485200405174623, 8.772360802409139], [7.490537166557033, 8.765422820606716], [7.499610423981949, 8.760086060123626], [7.497339492823357, 8.730061726867234], [7.452655704796996, 8.72583303366764], [7.388734535970116, 8.729217732012785], [7.342813129722231, 8.680459733629846], [7.335326218830005, 8.639574958017931], [7.429693699005043, 8.63410935885986], [7.434496880027041, 8.630393028315666], [7.456912993739707, 8.634128571076758], [7.477623463152327, 8.631333351353135], [7.496000767421549, 8.654301644305463]]]}}, {"id": "30", "type": "Feature", "properties": {"city": "Port Harcourt", "slug": "port_harcourt", "lga": "Port-Harcourt", "pop": 647061, "area_km2": 72.56, "people_per_km2": 8917}, "geometry": {"type": "Polygon", "coordinates": [[[6.985037851915365, 4.764824023110236], [6.997975783955326, 4.754653149423348], [7.006603108946365, 4.73576748088459], [7.010190758196984, 4.735027981855922], [7.012799207617377, 4.749895325708735], [7.025004038405712, 4.75580431761523], [7.03561406183951, 4.753761839437402], [7.03867401499383, 4.748931393668954], [7.043108233857936, 4.747262281629048], [7.044748438989302, 4.748000503620403], [7.04352686377382, 4.750441810441259], [7.054881392762127, 4.753160870178078], [7.055811028256414, 4.766081534335399], [7.068218853117628, 4.77200519598307], [7.069121596184743, 4.774729335990116], [7.068110128679564, 4.779938110355545], [7.061384755602035, 4.785954222309556], [7.062478896883647, 4.791144675686269], [7.069483888970353, 4.795053570865662], [7.068897900617685, 4.802396338420351], [7.053430800690933, 4.8137084688708], [7.047772493006221, 4.812860204934566], [7.046599345383527, 4.814680204327999], [7.037418236762278, 4.806880844675277], [7.03128434689512, 4.819906678250675], [7.029559976911457, 4.818077339397746], [7.027568013652967, 4.825395142671766], [7.024672247026615, 4.824379803585089], [7.025044433254038, 4.829150982232079], [7.004304528131513, 4.830876610367341], [7.005698103184955, 4.82164389774772], [6.994408609569746, 4.820227664275308], [6.995157827571745, 4.816031657834799], [6.982935477090621, 4.813581535859214], [6.977448548711607, 4.808325956277884], [6.975997148149929, 4.797496973106888], [6.971233952784758, 4.795113452224086], [6.974462188878988, 4.789789021446211], [6.972979012571443, 4.783838417908726], [6.957880245277124, 4.774509469736302], [6.963751587066156, 4.771316719990693], [6.964681828703476, 4.764442477638283], [6.985037851915365, 4.764824023110236]]]}}, {"id": "31", "type": "Feature", "properties": {"city": "Port Harcourt", "slug": "port_harcourt", "lga": "Obio/Akpor", "pop": 717297, "area_km2": 264.19, "people_per_km2": 2715}, "geometry": {"type": "Polygon", "coordinates": [[[6.957880245277124, 4.774509469736302], [6.972979012571443, 4.783838417908726], [6.974462188878988, 4.789789021446211], [6.971233952784758, 4.795113452224086], [6.975997148149929, 4.797496973106888], [6.977448548711607, 4.808325956277884], [6.982935477090621, 4.813581535859214], [6.995157827571745, 4.816031657834799], [6.994408609569746, 4.820227664275308], [7.005698103184955, 4.82164389774772], [7.004304528131513, 4.830876610367341], [7.025044433254038, 4.829150982232079], [7.024672247026615, 4.824379803585089], [7.027568013652967, 4.825395142671766], [7.029559976911457, 4.818077339397746], [7.03128434689512, 4.819906678250675], [7.037418236762278, 4.806880844675277], [7.046599345383527, 4.814680204327999], [7.047772493006221, 4.812860204934566], [7.057078951832182, 4.812318171846186], [7.060908110420996, 4.807260141842107], [7.068017089317266, 4.809415752035363], [7.077570465104941, 4.821488669366659], [7.079142366726899, 4.826068569409017], [7.07006636097384, 4.831745585690271], [7.075112951601511, 4.837401675646845], [7.086080341334707, 4.841130277440413], [7.092414424785943, 4.849592511185506], [7.092813515131638, 4.856184744130701], [7.099470907556395, 4.857257117322149], [7.106472644097323, 4.85121499877323], [7.110471250248054, 4.858713787011709], [7.110752452963368, 4.870953801976441], [7.112798782937546, 4.872343714091187], [7.101770563960429, 4.889718945173229], [7.097363387710232, 4.888618943909194], [7.094181737397321, 4.901686425088485], [7.079867910076018, 4.903622529656047], [7.082105218281242, 4.908523617171227], [7.082051032329332, 4.921819751880093], [7.063447582739798, 4.924952507852026], [7.038860752022117, 4.922330762854472], [7.03108571183617, 4.918996509281499], [7.031976554174662, 4.929031196832341], [7.026829574025669, 4.939174662780488], [7.020431349127534, 4.931922594552134], [7.005567589972372, 4.93513043222373], [6.994999950687202, 4.924560211884341], [6.970929098798933, 4.936512808919019], [6.959278799876756, 4.936844695626235], [6.961697279206135, 4.933448920331443], [6.959743942728835, 4.924830766626599], [6.963468395949747, 4.910110147165597], [6.957077285588298, 4.910149455632904], [6.954747413762163, 4.917492262757776], [6.952952659237894, 4.91761397160758], [6.941655578941891, 4.910290076326021], [6.934628753114509, 4.910883004746893], [6.923262882775873, 4.917523995336182], [6.920404787850714, 4.922591952056962], [6.906099796368551, 4.902761691399007], [6.901794321750572, 4.905304172849355], [6.899056645148107, 4.904247741040479], [6.897466555637095, 4.900511632605799], [6.90010187680025, 4.893650079687461], [6.897965920390959, 4.889055632211694], [6.891383984683216, 4.885180725110445], [6.902724482448946, 4.870607097139896], [6.902635514317581, 4.855007600820159], [6.908563632105995, 4.849706925634166], [6.920706333230726, 4.847757639703332], [6.924786968343938, 4.839796376901347], [6.920236331341641, 4.829773596374423], [6.921545093131613, 4.824877018059965], [6.931541286101549, 4.820144253954197], [6.928841733559182, 4.811254913283676], [6.920328867982903, 4.807421160058539], [6.918856744343316, 4.803976161270896], [6.929063274350654, 4.781698499985851], [6.942020362849519, 4.789950754623703], [6.947376001001714, 4.774856260907768], [6.949610381014338, 4.77313398364646], [6.957880245277124, 4.774509469736302]]]}}]}