{"type":"FeatureCollection","features":[{"type":"Feature","properties":{"name":"Ibadan"},"geometry":{"type":"Polygon","coordinates":[[[3.8670572753729853,7.338283854316443],[3.8668025576919263,7.33824555129121],[3.8665171983100772,7.338214907791838],[3.8661514017658187,7.338186180747699],[3.865714743140927,7.338186180747699],[3.865429383759078,7.338126811103505],[3.865380933683185,7.338119069739323],[3.865105719553355,7.3380751009851775],[3.8648835609276366,7.338017645997639],[3.8647111959649574,7.33800998467308],[3.8639278927581127,7.337973597203815],[3.8637670193324993,7.337956360797479],[3.8632441777766076,7.337837619710455],[3.86300095163267,7.337778250066208],[3.8625298210944274,7.337732285716472],[3.862119974857024,7.337653764109973],[3.86161820171867,7.337519703071903],[3.8612926228562965,7.337500551109599],[3.860702752130351,7.3374565023157725],[3.859948175967588,7.337377979809956],[3.8591016720046127,7.337232428134085],[3.8586420321041714,7.337159651396861],[3.8579287447158213,7.337178695440513],[3.8578529840280558,7.337180718015757],[3.8574527137717505,7.337144329647117],[3.8571807596843537,7.33706963915256],[3.856788150752607,7.336935577215171],[3.856443420827247,7.336759382039872],[3.8561887040455076,7.33666745423966],[3.8559799498148664,7.336565949558974],[3.855759705845799,7.336391669040325],[3.855653967156911,7.336311802947422],[3.855614280075031,7.336318705244084],[3.855547123201233,7.336330383840164],[3.8554459953364817,7.336485027661922],[3.8550223669886914,7.337132839009372],[3.8545646417448447,7.337877839190979],[3.854346313331746,7.338239804623357],[3.8542505553189126,7.338364290579592],[3.8538330477570075,7.338712851616831],[3.853635785962808,7.338900538329256],[3.8535285373121724,7.338996296342031],[3.853107200437023,7.33951530678604],[3.852505838173953,7.3402603060683305],[3.852025130755237,7.340913378449726],[3.851419938279548,7.341639226669031],[3.850897097623033,7.342292299050426],[3.850318716635512,7.343004741076015],[3.849677135791239,7.343830176621394],[3.848796159914911,7.3449907688090015],[3.848618049183699,7.3452148429906865],[3.848418871833531,7.345391038165931],[3.8479400799707832,7.345758750266156],[3.8471586923198515,7.346319893948022],[3.846690882977897,7.346698264813145],[3.8463268958695953,7.346980311092523],[3.8461225869878612,7.347147245948689],[3.845807356624278,7.347374548696505],[3.845477175930966,7.347612631617724],[3.844734091305327,7.348202503242987],[3.843872265592608,7.348890048437058],[3.8433724071109623,7.3492501001121004],[3.842684861916894,7.349725060862908],[3.842198409628964,7.350075536556801],[3.8424492970974033,7.350395368751323],[3.842546969766886,7.350598377213372],[3.842726996054069,7.350843518014014],[3.843029591842253,7.351262940232573],[3.8432996312729983,7.351578942214474],[3.843491148197984,7.351875793133387],[3.8436018169703066,7.351989670686805],[3.8436232936800825,7.352011769727426],[3.8437611858300893,7.3521860502460745],[3.8440542074357613,7.3524867322769305],[3.8442131653054044,7.352636115064685],[3.844395106249181,7.352911899364699],[3.844441069699655,7.353061282152509],[3.8444870340494504,7.353304508296446],[3.844877728324548,7.353300677184563],[3.845017536030525,7.353306422953098],[3.8451439366434106,7.353900124790983],[3.8452358653429433,7.354422965447553],[3.845245440424776,7.354673852016729],[3.8452723301539895,7.354767966968154],[3.8452837443493877,7.35480791395412],[3.8455288851499745,7.354989854897953],[3.845983076058189,7.355290947918945],[3.8460402351687444,7.3553288390547245],[3.846157059800533,7.35541693664237],[3.846157465394755,7.3554192658864395],[3.846172380650899,7.35550503423002],[3.8460574706757598,7.35566973876746],[3.845936815831409,7.355798054936316],[3.8454905821247394,7.356091075642665],[3.845111379386707,7.356278762355033],[3.844027394148953,7.3565392249053625],[3.843257497135823,7.356728826274376],[3.842642728679039,7.356922257855959],[3.842135208872832,7.357075470856331],[3.8416085389030177,7.357247835819011],[3.8414949752129806,7.357273740790561],[3.8413664899715623,7.357352667991277],[3.8414200949614496,7.357508873935443],[3.8414582675850406,7.357638977956528],[3.841546881383522,7.357857346839124],[3.8417209433669086,7.358427005302075],[3.8418570278795983,7.358971345151532],[3.8419677946780553,7.359474541916599],[3.842078562375775,7.35987646782479],[3.8421798341320823,7.360215097648677],[3.842195189156712,7.360325866245773],[3.842224141031352,7.360534739186904],[3.8422557890734765,7.360699307027458],[3.842334907829808,7.360825897397319],[3.8424286090930764,7.361081859740066],[3.8424646629139274,7.361180350792609],[3.8424704473533207,7.361217364190053],[3.842496310956051,7.361382896103802],[3.842460786835886,7.361482807185833],[3.842445674628209,7.361525310944387],[3.84222730574561,7.361531640372962],[3.841812721879649,7.361604429700719],[3.8415365175962393,7.36166503681204],[3.8416717648401004,7.362521293922613],[3.841752573422582,7.363032896650909],[3.841980801572788,7.363821043606323],[3.8420606577731737,7.364214499699471],[3.842158748627413,7.364830537099636],[3.841703536988689,7.364941676217428],[3.8410832430972164,7.365090419587262],[3.8403316113148667,7.365345183133742],[3.840307874608755,7.365408479217989],[3.840279393079583,7.3655603873020805],[3.840280974987081,7.365726537949399],[3.8403062927013143,7.365935411789849],[3.8403664240712487,7.366243977277803],[3.8403869951637266,7.366468674689659],[3.8403806648358336,7.366688627278391],[3.840382246743332,7.366987696824822],[3.8403664240712496,7.367395952161532],[3.8403521824073437,7.367872249304925],[3.840317369650961,7.368278920935496],[3.840322117172036,7.368840667163112],[3.840314204936647,7.369343864827558],[3.840318951558402,7.369761614307096],[3.8403205343652194,7.370112902988127],[3.840339522650879,7.370574959366934],[3.8403132678431007,7.370607551697218],[3.840293633844168,7.370631925123293],[3.8401227365750974,7.37063983735868],[3.8398521485578385,7.370646165887876],[3.839667009624862,7.370685726165389],[3.839667009624861,7.3707996576781065],[3.8396670096248617,7.371008532417874],[3.8397002395744266,7.371241142065116],[3.839657516381351,7.371329755863599],[3.8394059166498096,7.371358239191408],[3.8391733070025675,7.371361403905722],[3.8390433162960567,7.371364708014937],[3.839068869632683,7.371552872267275],[3.839102099582306,7.371945303133259],[3.8391084290108215,7.372049739603825],[3.8389596847417238,7.372223801587214],[3.838554595018593,7.372584586209712],[3.838377368320949,7.373135254588361],[3.838361700332257,7.373213597229778],[3.8383096062034388,7.373474063377386],[3.8383140731360195,7.373483378555134],[3.838371038892376,7.373673265009247],[3.838301414278873,7.373818843664765],[3.8383457202788236,7.3739897418331575],[3.8384406626065584,7.374179628287265],[3.838472310648683,7.374318876614893],[3.838431169363048,7.374613201338208],[3.838502125872481,7.37500477784829],[3.8385166184472155,7.375084750960526],[3.838649538245647,7.375385403313771],[3.8386938451448605,7.375752515566203],[3.8386811862877726,7.3762715377013715],[3.838703339287746,7.376591179239595],[3.8387254922876655,7.376822206979341],[3.838706504002004,7.377015258147709],[3.838763469758362,7.377309581072382],[3.838852082657525,7.377493138097919],[3.8391559006243487,7.377534280282873],[3.839326797893477,7.377543774425703],[3.839576813918882,7.377512126383576],[3.8397255581880354,7.377499466627116],[3.8398141719865184,7.377518455812152],[3.8399629162556166,7.377534280282875],[3.8402667333231184,7.377543774425703],[3.8405357394328803,7.377502632240749],[3.841956717728408,7.377499466627114],[3.8432447780241423,7.37744883119865],[3.844586639361978,7.377420347870781],[3.8452876348165432,7.377418765963341],[3.84566265930431,7.377414018442267],[3.8459659313826933,7.377384669966603],[3.846055090170296,7.377376040971568],[3.8465393004483985,7.377417183156522],[3.8466088863910386,7.377422666323013],[3.8468387890789018,7.377412155946272],[3.8470852222052936,7.377469402291127],[3.84733942457484,7.377474139020363],[3.8474808177855375,7.377558015190287],[3.847433346172011,7.377852339014284],[3.847329066183534,7.3781569528811115],[3.8472371311887055,7.378346041636576],[3.847142187961652,7.378513775090711],[3.847142187961652,7.378637200746256],[3.8471706703901987,7.378808098015384],[3.8472165600962285,7.37898690662047],[3.8473225793736097,7.379134068982125],[3.8474238520291806,7.379257494637725],[3.847539366348712,7.379398326671492],[3.84760424344114,7.379477446327145],[3.8476311439621895,7.379657837739044],[3.8476501331471695,7.379812911436775],[3.8476580435839196,7.379937918999812],[3.8476976038613775,7.3800565980336055],[3.8478162828951663,7.380111980983204],[3.8480030037356983,7.380170530445696],[3.848107441105583,7.380248066395211],[3.8481897245761734,7.380352503765096],[3.848237197089021,7.3803920631432325],[3.8482878334168054,7.380441116664259],[3.848324228080684,7.380472764706382],[3.848374864408526,7.3805075765634465],[3.848422335122734,7.3805170716055954],[3.848487213114424,7.380502829941689],[3.848561585249001,7.3804870063702905],[3.848653362862478,7.380420545571779],[3.848764129660878,7.380406304807196],[3.8488511606526,7.380415798950026],[3.8489745872074645,7.380420545571781],[3.849121748669802,7.380450610807091],[3.8492467571321636,7.380471181899565],[3.849327458695314,7.3804806769417155],[3.8494556318719333,7.380498083319934],[3.84959171638468,7.380479094134955],[3.849757867031997,7.380482258849215],[3.8499050275950144,7.3804996652274335],[3.8499873119649233,7.380543972126644],[3.850030036956696,7.380600937883004],[3.8500363663852677,7.380661068353674],[3.8500268722423816,7.380724364437924],[3.849998388914571,7.380793989051426],[3.849961994250691,7.380839877858136],[3.8499477525867865,7.3808841838580275],[3.849998388914571,7.380922162228046],[3.850105990998714,7.380945897135519],[3.850204098940083,7.3809284907573],[3.850333854024199,7.380901591135568],[3.850412972780532,7.380885766664846],[3.8505047512932715,7.380901591135568],[3.8505933650917545,7.380966468227998],[3.850666155318834,7.3810376756482565],[3.8509683895795788,7.380819306765658],[3.8513054365966473,7.380551884362037],[3.851582354042477,7.380289207680847],[3.8518244587318122,7.380031280319372],[3.852114035034731,7.37971796820972],[3.852492225136132,7.3793128775872665],[3.852825118184684,7.379047895044381],[3.8528878198170555,7.378997983570116],[3.8529242153802556,7.379050202704717],[3.8530302346576373,7.379172045553504],[3.8530693048046483,7.379223857295244],[3.8531031525884596,7.379248247808449],[3.8531520784057425,7.379304966251254],[3.853416336095108,7.379585048411287],[3.8536188814063053,7.379816076151031],[3.853732812919019,7.379992512344642],[3.853817469700515,7.380091410790043],[3.853933775423456,7.380180815092613],[3.8540089389613854,7.38022828670614],[3.8541165410455847,7.380294746605329],[3.8542296811548913,7.380364372118151],[3.8543048437935568,7.380405514303106],[3.854391874785222,7.380397602067716],[3.8544827530766383,7.380399567086385],[3.854549593389095,7.380468447960538],[3.8544489637487236,7.3809383797025125],[3.8544164019954215,7.381600213279285],[3.8544290608525102,7.381878711733237],[3.8544290608525094,7.3821382228007915],[3.8544417197096545,7.382372416154113],[3.854432225566825,7.382679397935931],[3.8543752598104675,7.382929413961335],[3.854289811625562,7.383220573071015],[3.8542170222978025,7.383413624239439],[3.854137902642151,7.383647815794118],[3.8538053756176396,7.384237407730212],[3.8531101142404514,7.385086054777672],[3.8525471674178675,7.385739476095978],[3.851447587935866,7.3870694277119915],[3.850276746174927,7.38811012318371],[3.848038670848041,7.388935761975857],[3.846466510221318,7.389632389423297],[3.845414780068097,7.390294061122065],[3.849562179051361,7.395881425787191],[3.849225760660375,7.400295676104631],[3.8486586373862792,7.4039342971301485],[3.8491259314166655,7.406717370610239],[3.847771562307799,7.406306294100263],[3.8460995247733085,7.405912254347127],[3.845394654140023,7.406015644906121],[3.844062742901314,7.406501380434406],[3.842466800602437,7.4071440629481895],[3.8419659213902264,7.407336216593192],[3.840719485316015,7.40781416039522],[3.8396254897245967,7.408527569192015],[3.8389016254097332,7.409497911599374],[3.838260391703783,7.410049427139426],[3.837448533223267,7.4105009236787405],[3.8365585065698724,7.410833901263572],[3.8359015518151978,7.411205549696431],[3.8352974133450175,7.410778742245212],[3.834708467122084,7.410080004088967],[3.83423493989062,7.409419801882393],[3.8337857636021795,7.409796422666828],[3.8331409451985228,7.4110044289113235],[3.833122885013153,7.4110109678819045],[3.8312100890743754,7.410543684643356],[3.830027223377727,7.4104804362232235],[3.828956726172009,7.410280901842214],[3.829172823367174,7.408827312330629],[3.828180178672369,7.408976937036074],[3.827861916694132,7.408117796699002],[3.8271345027551438,7.408153415247966],[3.825883943289397,7.408516680200705],[3.8249225806126783,7.409174281567913],[3.8243186013224326,7.409414104677241],[3.8243982227998004,7.410993548913212],[3.8245240496452197,7.412895874944697],[3.824534682329784,7.41378430080488],[3.8246675068000395,7.41529163470125],[3.82464074387525,7.416734319033648],[3.8247978482421563,7.4193334271959674],[3.824920038229209,7.421122521387305],[3.8248034420252575,7.422887650444752],[3.824787253329135,7.425450994367966],[3.823969680556388,7.428359713929692],[3.822930852077207,7.4297088417896475],[3.821336183218307,7.430378010237005],[3.8205698780974444,7.429967875317229],[3.818929338418287,7.431629999624818],[3.8168786638193515,7.43484632239989],[3.8163821840905707,7.435914831204571],[3.8159828428339893,7.436465275651983],[3.817635841720744,7.436453391111173],[3.824698681798793,7.436935890878717],[3.8288314748926946,7.4396859880179695],[3.8296205481498196,7.439281513431125],[3.8300502541159753,7.439875080370712],[3.8333877974089883,7.440170271141141],[3.834688738694411,7.4394694708394695],[3.836738194711984,7.4370103331604005],[3.839933104629096,7.436668335375429],[3.8410910276288623,7.437779125806058],[3.852458290118023,7.4405440455713014],[3.855333798615959,7.434489196219488],[3.8569038620236706,7.428654571051649],[3.8592178293394004,7.423197456997115],[3.8600363131254194,7.4235027993148055],[3.8608760020259174,7.423782695315197],[3.8615757420268997,7.424011701378959],[3.862177943357438,7.424138925770875],[3.862958259016466,7.424486675619621],[3.863679204132041,7.424741127101356],[3.864196587702395,7.425156729899183],[3.86434765492038,7.425196856749609],[3.865282244779849,7.425445108305155],[3.8650735588976777,7.428519339995604],[3.8650975815881448,7.430802197963089],[3.8658405502012565,7.432011590062871],[3.869930633591934,7.433390679736132],[3.872834647001411,7.433598502269091],[3.874272955232754,7.434528101790532],[3.8760335193314863,7.43469115877002],[3.877639742680004,7.434733640944843],[3.8791177559796775,7.434653288318653],[3.879979848791038,7.43459900793789],[3.8799910714308217,7.435249875181625],[3.87998545966127,7.43633278393088],[3.879992941121372,7.437621426987332],[3.8799929411213725,7.438592118331655],[3.879968627050573,7.4390840088199734],[3.8786529305883173,7.438976001141612],[3.8774296313724226,7.438968722928281],[3.8771296993761557,7.439102157138905],[3.8770343577494373,7.439319365896042],[3.8769632726369987,7.439628826209403],[3.877010853068441,7.442043194737721],[3.8770547004141354,7.443576744771006],[3.8770092450806715,7.444468991850556],[3.876617968044855,7.4451593753049705],[3.8793371905589424,7.445955179088285],[3.880239126034894,7.448634797258138],[3.880239147618625,7.449478840676021],[3.880321340257694,7.451515441784238],[3.8810425218949254,7.45309257925919],[3.8818126824094175,7.453232942746185],[3.8828322429137088,7.4535894088241985],[3.8842628574449796,7.453649977264659],[3.8846834460842383,7.453898775608082],[3.8858187511344795,7.454220028731412],[3.88777636928404,7.454821227317833],[3.890964189845534,7.455956104290805],[3.8917128223889113,7.456918401363171],[3.892008695744778,7.457035347403404],[3.892772415314766,7.45710818709318],[3.8939434180543344,7.4577253558405205],[3.8955756003337583,7.458437299641729],[3.8972138206613636,7.459373139558806],[3.8987473050441395,7.460417640062074],[3.898843750139008,7.461112140612842],[3.901048174633616,7.462001690625582],[3.9023756809929178,7.462947093933279],[3.903505805048894,7.46415222774317],[3.9045855760635386,7.464566245036222],[3.905867546150375,7.464584429327998],[3.9075538082616963,7.457392734387213],[3.9072577514441496,7.456219935701538],[3.9071323499780424,7.4544174542022],[3.909355421015903,7.45184678799893],[3.910686489589863,7.451532508218747],[3.9118881493186555,7.451107305158074],[3.913274678183882,7.451255202265828],[3.914291466977658,7.451236714902507],[3.9148553221155,7.451218228438563],[3.9151141407050996,7.45154175055137],[3.915983033290388,7.451541750551371],[3.91626958157599,7.451236714902507],[3.9168149511491492,7.4509316783543245],[3.917351075691613,7.450940921586324],[3.9178872002341336,7.451107305158075],[3.918672901033631,7.451144279884657],[3.9193014605939993,7.451199741075242],[3.919708176291351,7.451236714902505],[3.919976238112951,7.451550994682691],[3.920919079252144,7.451486290260161],[3.9207342083171284,7.449175406719687],[3.9206972335904884,7.448195592652554],[3.9207711821443922,7.447188047990095],[3.92113167988316,7.445524213171949],[3.921704779152265,7.443980543067652],[3.922952655041058,7.44199318433806],[3.9250047190925557,7.439950362619186],[3.926418980351684,7.439109202427802],[3.9290071680464385,7.4381663621879275],[3.9314659477952887,7.437297469602583],[3.932353326844635,7.436539500297727],[3.9330558349588496,7.435448763849421],[3.9333516282750907,7.434478193014229],[3.934371495448204,7.4298967767149415],[3.9349462413759966,7.426695972641084],[3.935492273749503,7.425019550911597],[3.9361459127037506,7.4237878250481195],[3.936608622889707,7.423113963038984],[3.9371176679460396,7.422399791617124],[3.9379509680627502,7.421578627851431],[3.9388601062090056,7.42070844024238],[3.9401888239551117,7.419529316624735],[3.941015532041206,7.418678112804685],[3.9411070938173793,7.418434490059724],[3.941238334581499,7.418269307082879],[3.9414890853530564,7.4178642497353735],[3.941766839168337,7.4173666080825456],[3.9420330196082314,7.416760949758098],[3.9422413349697085,7.416178438184433],[3.9424187891958127,7.415665365064569],[3.942603957806454,7.414967123334123],[3.9426733962602616,7.414670080859594],[3.942779072895973,7.414109749265547],[3.943060816103809,7.4123395030656525],[3.9435249885874,7.409359966389389],[3.943861815270622,7.407264984891183],[3.9440776246826768,7.405374776324892],[3.943831985657653,7.403640604630256],[3.943130818432565,7.402255619900984],[3.942536662437078,7.401470000040489],[3.9420259446416708,7.400987166624476],[3.941863280665928,7.40082096741378],[3.941394572001968,7.400331040145428],[3.941186255741172,7.400194092283584],[3.9408853560743755,7.400111151408568],[3.940732976745551,7.400037854863172],[3.9405574515652115,7.399960701125507],[3.9404147183645932,7.399924052852782],[3.9402661971273574,7.399958772079745],[3.9400077310720008,7.400016638057424],[3.939818704369771,7.4000667878520385],[3.9396489663267857,7.400057144421739],[3.939531306224865,7.399997349398176],[3.9393577100902926,7.399951056795885],[3.9392130469445865,7.399922123807017],[3.9390413789565186,7.399972273601579],[3.938881285243156,7.400095720840908],[3.9386999738247828,7.40019602132935],[3.93859388709825,7.400224953418898],[3.9384357224307114,7.400219167180866],[3.9382158327944694,7.40021338004351],[3.938009447378136,7.40021338004351],[3.9378647833331115,7.400340683575733],[3.9377162620958766,7.400489204813028],[3.937499267377348,7.4005605723126004],[3.9373883575866553,7.400574073834493],[3.937211869232442,7.400644477260868],[3.937064312068401,7.400671481203914],[3.9368135621961646,7.400751528060593],[3.9365522039211096,7.400789141305892],[3.9364740852109312,7.400656049736936],[3.936380535933041,7.4004544855860654],[3.936268662968473,7.4002461711239675],[3.9361722205715637,7.400094755868338],[3.93607481410146,7.400151656873505],[3.935885787399229,7.400241348059806],[3.935684223248358,7.400331040145433],[3.935489410308094,7.400399513626722],[3.935269520671909,7.400440984064233],[3.9352000831173646,7.400227845638597],[3.9351451111580213,7.399950092722632],[3.9350814589422503,7.399767817231009],[3.93503902443149,7.3995720393182305],[3.934969585977684,7.399377224579324],[3.934830709070013,7.399091756379503],[3.9346754366221717,7.398849685864377],[3.9345182360278277,7.398908515915309],[3.934300276336728,7.398971203158567],[3.934012878191822,7.399077289885042],[3.933836388938233,7.399146728338907],[3.9336068558717447,7.399232562332941],[3.93341300700473,7.399333825995313],[3.93316129215998,7.39948331220512],[3.9331043911547567,7.39934443529751],[3.9330320595819326,7.399195914060214],[3.932902827003887,7.398990491817813],[3.932782273782949,7.398838113388252],[3.9326260381611746,7.398617259678819],[3.9324775169239388,7.398435949159765],[3.93241386470811,7.398416659601195],[3.9323087429541483,7.398492850164929],[3.9322499129032167,7.398569038930078],[3.932211101760971,7.398595907974821],[3.932129359682279,7.398517925062264],[3.931995304939392,7.39842726890339],[3.931813994420338,7.398318289057837],[3.931510199835885,7.39811672490697],[3.9313115288040876,7.397995206713462],[3.9312478765882592,7.397861151970632],[3.9311595856464123,7.397637343988264],[3.9311196278685534,7.397492467703274],[3.931225500556479,7.397340118951377],[3.93121533282141,7.397248602141303],[3.93108743034071,7.397072433945706],[3.9309136741268285,7.396886612427295],[3.930785770746752,7.396746641943994],[3.9306819997744924,7.396597019936565],[3.9305299639867144,7.396514967591713],[3.9303055300762257,7.39639913131492],[3.9300931632689076,7.3962832941387555],[3.9299169941739933,7.3961746974044305],[3.9297311717562033,7.3961022992817185],[3.929557417340959,7.396073340212525],[3.9294850192183057,7.396054033566827],[3.929465712572608,7.395906824440431],[3.92943675260409,7.395692043852762],[3.92941262109565,7.3954555428391],[3.9293571158382865,7.395303507051266],[3.929185773404753,7.3951949103168895],[3.928999951886339,7.395100792667504],[3.9288068899260797,7.395057353614048],[3.9287344918034246,7.394989782152778],[3.9286620936807135,7.3948473987884995],[3.9286331346115166,7.394714668746987],[3.928584868896621,7.394475755751558],[3.9285148845543176,7.393978622215684],[3.9284835117047683,7.393669723978631],[3.928428007346724,7.393336693333766],[3.928403874039589,7.393049513724121],[3.928358022105101,7.392793706964028],[3.9283145830515878,7.392569273053537],[3.92793811335332,7.392627191191991],[3.92794535289579,7.392086618602604],[3.9279871174115892,7.391550711696028],[3.9280390676489105,7.391084746863612],[3.9281678685523502,7.391051397304181],[3.928304450390102,7.391025075047194],[3.9285510840653037,7.390974102372979],[3.928643180938083,7.390934080743306],[3.928749357596813,7.390953499804199],[3.92887688056362,7.390955102396104],[3.9289955434096555,7.390928864675402],[3.9290747628900253,7.390901704250326],[3.9291881871851606,7.390906530012388],[3.929427002154455,7.390806887827637],[3.929596276147265,7.390681550213401],[3.9296780802792455,7.3906338312863245],[3.9297732519340802,7.3905058415713825],[3.9298108220118597,7.390438749448776],[3.9299290720690587,7.3902529270309865],[3.9300062851619937,7.390136697750452],[3.9300859228271183,7.389979835301232],[3.93017762669615,7.389767466695274],[3.9302427852763913,7.389494767969211],[3.930315183399045,7.389333078858554],[3.9304711636133334,7.389254249683916],[3.9305396182088543,7.389219654563476],[3.930643388281794,7.389142430678706],[3.9306008584429155,7.388985843422007],[3.9305902959054606,7.38894695583741],[3.930520310663837,7.388534286628099],[3.930491839027183,7.388321490844192],[3.9304829060612865,7.388298993403849],[3.930456359873176,7.388226595281194],[3.930438260117683,7.388175915785952],[3.930445499660152,7.388149369597783],[3.9304648063057916,7.388124031199139],[3.930492559384163,7.388113170986117],[3.930540824199739,7.388092658349535],[3.9305734030401704,7.388081799035829],[3.9306156361028,7.3880661121613675],[3.930709752852862,7.388027499769349],[3.9307664650004313,7.388009400913178],[3.9308014567218943,7.3880154335654415],[3.930850929326995,7.388009400913176],[3.930896781261481,7.387997333809951],[3.9309643527227527,7.387990094267481],[3.9310343379643764,7.387973202301509],[3.931092256102773,7.387958722317252],[3.93110019801577,7.387952445948659],[3.931120216025193,7.3879110159806505],[3.9313010454069395,7.387703835563626],[3.9313577161856874,7.387600350575781],[3.9314011552391435,7.387368678022142],[3.9314011552391435,7.387209401792518],[3.9313480628628663,7.387021167393016],[3.9313432362014282,7.38685223784057],[3.9314011552391426,7.386692961610946],[3.931570083892325,7.386466114819371],[3.9318017573452835,7.386388890035278],[3.931922421182833,7.386374410950337],[3.932284410896898,7.386350277643259],[3.932550079622502,7.3862727911564425],[3.9326319224253434,7.386248921350671],[3.9327767177713326,7.386137909936619],[3.932969779731593,7.386079991798228],[3.9331387092840377,7.385988287929194],[3.9333221170221577,7.385843490784508],[3.9334112443335134,7.385798927578491],[3.9334958723366644,7.385756613576914],[3.9336841067361656,7.385727653608397],[3.933891648680685,7.385761440238294],[3.9340750573180676,7.385669736369268],[3.934205373579175,7.385563551616655],[3.934326037416725,7.385457367763364],[3.9343936088779974,7.385298092433059],[3.9344273937093135,7.385095378049298],[3.934485312747028,7.384902316089039],[3.934494966069849,7.384728560774533],[3.934451527016392,7.384472754014439],[3.9343646489094786,7.384052846161979],[3.9345287518004857,7.383748773686987],[3.9345856932751526,7.383640229113324],[3.934606498191385,7.3836005699104135],[3.9346663076040613,7.3835557117267845],[3.934745946168504,7.383505033130802],[3.934852130021852,7.383406088819982],[3.9349390081287647,7.383326451154858],[3.9349679671979634,7.383292666323541],[3.9350572581859637,7.383205788216629],[3.935148962054996,7.383123736771095],[3.93521411973586,7.383036858664127],[3.935264799231164,7.382928261929803],[3.9353275440309967,7.382855863807095],[3.9354144221379106,7.382778639023002],[3.935518192210849,7.382725546646728],[3.9355833498917145,7.382689348035057],[3.935679881321504,7.382621776573784],[3.935771585190537,7.382573510858889],[3.935870528602038,7.382508353178025],[3.9359670600318277,7.382421475071056],[3.9360273919506317,7.38235631739019],[3.9361190958196626,7.382271853063629],[3.936184254399848,7.382199454940917],[3.93625182586112,7.3821270568182635],[3.9363459444098785,7.382025698727091],[3.936447300702411,7.381909861550922],[3.9365679636406403,7.381673362335847],[3.9366138155751855,7.38161785707848],[3.936664495070432,7.381572005143994],[3.936744132735612,7.381540632294388],[3.9368261841810868,7.381506845664432],[3.9369106494069683,7.381480300375586],[3.9370120056995583,7.381436862221449],[3.937079577160829,7.381405489371899],[3.93720265387941,7.3813330912491875],[3.937296772428169,7.381270346449356],[3.937352276786214,7.38120518786917],[3.937415021586048,7.381125550204047],[3.937482593047264,7.381045911639547],[3.937567058273146,7.380963861093392],[3.937644282157919,7.380862503002162],[3.9377022011956906,7.3807780386756],[3.9377528797916175,7.380683921925482],[3.937810797930012,7.380597043818566],[3.9378976760369815,7.380539124780855],[3.937977313702106,7.3804570742346405],[3.9379942056681325,7.380452247573201],[3.9380641909097553,7.380452247573201],[3.9381462423552303,7.380445008030732],[3.9382171233216354,7.3804317178495475],[3.9382432648148438,7.380394580345636],[3.9382681130829837,7.380385883002132],[3.9383224105508816,7.380354510152585],[3.938369470274892,7.380306245337009],[3.9384201488708177,7.380255565841767],[3.9385202991725237,7.380139728665599],[3.9385347791567837,7.380125249580658],[3.9385685648874187,7.380079397646114],[3.9386120030415555,7.380034751702455],[3.9386614747473345,7.379984073106527],[3.9386590618662463,7.379860997287265],[3.938649409442746,7.3797089606001105],[3.938686814944617,7.37965466223295],[3.93876645260974,7.379636563376719],[3.938888323337495,7.379655869123097],[3.939005365605169,7.3796546622329515],[3.939054838210267,7.379688447963532],[3.939103103925163,7.37973550678828],[3.9391537816217683,7.37975239965357],[3.939228594424151,7.379793424926677],[3.939268320176893,7.379781507110922],[3.9393009916474866,7.379771706299266],[3.9393492573623803,7.379731887017046],[3.9393782164315785,7.379705340828878],[3.9393951092969255,7.379680000631596],[3.939416828823653,7.379637769367606],[3.939442168121616,7.379588296762507],[3.9394444461043467,7.3795807028871545],[3.939456648105874,7.379540031946987],[3.9394361345700304,7.379478494037301],[3.9394194791257178,7.379452399308833],[3.9393999359583063,7.379421781889791],[3.939373389770197,7.379367482623251],[3.9393444307009418,7.379315598036442],[3.939333571387237,7.3792142408445915],[3.9393606589673027,7.379150131773201],[3.9393456951477788,7.379073235241665],[3.9391968753355973,7.378534165419468],[3.938982825896743,7.378424359996245],[3.9387659957541246,7.378299266098281],[3.9385519463153287,7.378150543412913],[3.9384254620654815,7.378000430375608],[3.9382586702014915,7.377759971445585],[3.93814191481755,7.3776334871957365],[3.9380015324447863,7.377497273180667],[3.9379097962001883,7.377418047405001],[3.9377291053140198,7.3773165822944975],[3.937676287230942,7.377245695032856],[3.9375975201095357,7.37712333057732],[3.937558163078791,7.376967119237238],[3.937602253241437,7.37688829725715],[3.9377284101380505,7.376768253052489],[3.937833350228971,7.376669567746375],[3.937910491376101,7.376553508437724],[3.93797581812953,7.376438837682258],[3.9380710293545467,7.376305405270273],[3.9381502551302106,7.376167800903318],[3.938226701101428,7.376014908061621],[3.93833928632904,7.375749430891572],[3.9384393610877173,7.375549279575635],[3.9385575059242224,7.375294921623379],[3.9387534861845097,7.374998865705152],[3.9388327128594365,7.374854313176059],[3.9389675356233047,7.374577715888902],[3.939045372845726,7.374438722968762],[3.939141278347393,7.374267760948441],[3.939221893575564,7.374117647911192],[3.9392719318541936,7.373959194561223],[3.9393636680988493,7.3737354162565225],[3.9394623534049056,7.373501907287219],[3.939574937733255,7.373290636753553],[3.939687522061546,7.3730946555939445],[3.939755628619423,7.372987630874492],[3.9397973265853916,7.372877827249963],[3.9398501446684695,7.372687405699254],[3.9397514593624123,7.372610958828715],[3.939618026051107,7.3725748213709625],[3.9394929312538243,7.3725345128575555],[3.9393886863388734,7.37253590320944],[3.9393136298202185,7.3725108840700955],[3.9392635924409083,7.372465015947799],[3.9392079945533283,7.372414977669108],[3.9391662965873597,7.372349650915681],[3.9391176486606123,7.372270425140075],[3.939091240068706,7.372242626196282],[3.9390365010337396,7.372175179740793],[3.938903599221761,7.372120312102766],[3.9387493169274985,7.372070274723454],[3.9386357721232343,7.372037521414541],[3.938604762599766,7.372028576757487],[3.938449090852885,7.371981319182565],[3.938379593943182,7.371947959730619],[3.9383448459379338,7.371927110747604],[3.9382906384022927,7.371889582937968],[3.9382294809058753,7.371853444580834],[3.938182223331012,7.371824256184537],[3.938091878337559,7.371770048648899],[3.93804601021526,7.371760318883673],[3.93799875174102,7.371753369822218],[3.9379431547528156,7.371749199665887],[3.9378722683905494,7.371736690096213],[3.9377582928109978,7.371682482560574],[3.937691576605006,7.371681093108012],[3.9376510000936378,7.371539091955584],[3.937794970761331,7.371236258746361],[3.937782807430666,7.37105583226088],[3.937772797076945,7.370964033963048],[3.9377527341014233,7.370836012771804],[3.9376790670353903,7.370667830555987],[3.937644319030141,7.370563585641037],[3.9376387594212474,7.370489918574949],[3.9376318085611515,7.370391234168152],[3.9376526584434823,7.370332857375501],[3.937734664023594,7.370253629801197],[3.9377680225762224,7.370223051952337],[3.9377944320674487,7.370163284807799],[3.9378305704245236,7.37011185707661],[3.9378611491727606,7.370028461144613],[3.9378819981557167,7.369952015173398],[3.9378569790164315,7.369876957755422],[3.9378027705814698,7.369785222410143],[3.937648489186472,7.369551714340218],[3.937592891298948,7.369409939816932],[3.9375734317685,7.369237588344049],[3.9375178347802935,7.369079135893456],[3.937395519787457,7.36892068344281],[3.9372926652243914,7.3688011491537395],[3.9372037096835024,7.368695513886906],[3.9370730561766436,7.368542621045149],[3.937025797702461,7.368434205973868],[3.9370313582106746,7.368311891880354],[3.937036916920249,7.368181238373494],[3.9370341380151217,7.368086723223769],[3.9370146775853527,7.368061704084425],[3.9369479622786794,7.367817074998072],[3.9369118230222857,7.3676002457547725],[3.9368423270118456,7.367308359093555],[3.9368506664251868,7.367049831884287],[3.9369090432178373,7.366782964362358],[3.9369285027482315,7.366630070621284],[3.9369062643127104,7.366404901964701],[3.93680062904582,7.366207531352529],[3.93670055338788,7.366035179879701],[3.936675534248536,7.365887845747522],[3.936653295813017,7.365715495174014],[3.9366607619846263,7.36561096877125],[3.93680479830283,7.365579281158945],[3.93699799875867,7.3655250736233056],[3.937120312852186,7.365447237300201],[3.937277375850272,7.365309633832567],[3.937398299591905,7.365190098644176],[3.9375595327462625,7.365052496075859],[3.9376985256664625,7.364902383038612],[3.9378027705814698,7.36479674777172],[3.937990412327736,7.364627176103341],[3.938236430866653,7.364413125765168],[3.9384727196403446,7.364193515818159],[3.938649241269502,7.364011434580106],[3.938740976614838,7.363923869391102],[3.93882993305499,7.363864102246565],[3.938955026952954,7.363748737214507],[3.939105139990261,7.363638932690662],[3.9392663722453563,7.363465190865895],[3.939424824695948,7.363258091387876],[3.9395582580072523,7.363028750776266],[3.9396333154252265,7.362818870594424],[3.9396725672352204,7.362640645649321],[3.939681662079068,7.36263963840861],[3.9397862082669235,7.362294866215167],[3.940031689011277,7.362368668179558],[3.9402267042989934,7.36198468824284],[3.940266910289721,7.361888259335727],[3.9403261971962706,7.361774335916892],[3.9404943794121436,7.361443531094152],[3.940654222214618,7.361112727170678],[3.940556926361125,7.361054350378026],[3.9402539213814407,7.360837520235407],[3.9400079019431473,7.360654048645475],[3.939745204577604,7.360420539676228],[3.9395686829483902,7.3602537469129174],[3.939297646169507,7.3599743707206935],[3.9391950883826903,7.3598518713668],[3.9391475331322012,7.359795069287088],[3.938994640290445,7.359558779614019],[3.9388730213728995,7.359379479079734],[3.9389126338110714,7.3593419503707755],[3.9390418978653647,7.3592481303969635],[3.9391850609418393,7.359136934621858],[3.9392646293592293,7.359078642365489],[3.939315020172103,7.359041725195482],[3.939511695608302,7.358910375613389],[3.9397285248516023,7.358725514570894],[3.939807752425906,7.35869632617454],[3.9398779427129402,7.35874844818238],[3.939936321304231,7.358760262576083],[3.9400961632073863,7.358586520751374],[3.9401795591393802,7.35846559700974],[3.9399029618522827,7.358261276436794],[3.939588836755433,7.357977730088238],[3.9393848354418424,7.357742072638588],[3.9393469883728467,7.357698352996634],[3.939205214748939,7.357532950585265],[3.939009233589331,7.357291102202679],[3.9388452224291086,7.357014504915525],[3.9386659209955037,7.356726789309899],[3.938612941034421,7.356607585072027],[3.93859084109448,7.356557858858138],[3.9393595950692766,7.35622845607844],[3.9392986543094834,7.356190903987056],[3.939242372937201,7.356106339835777],[3.9389543722465423,7.355796557565155],[3.9386385402364685,7.355420220966493],[3.9383348077052474,7.3551310106876135],[3.9381157832168574,7.354898674434308],[3.9378882862154683,7.354599782953642],[3.9374502354400533,7.354095176950919],[3.9373788400614553,7.354083075673428],[3.9372965538929066,7.354130270295798],[3.9372106380605487,7.354189564396904],[3.9371162524131478,7.35426822000238],[3.937036386320244,7.354337194406071],[3.9369456294372753,7.354384388129062],[3.9368790751092884,7.354418270087138],[3.9368064701425283,7.354432791440218],[3.9367411254026483,7.354447311893978],[3.936690301116528,7.354481194751373],[3.936644601167472,7.354526894700484],[3.936615276074178,7.354556219793776],[3.936499107947498,7.354669967844813],[3.936448283661435,7.354713531004677],[3.9364071405771033,7.354708690853442],[3.936327276282839,7.354686909273483],[3.9362449901142327,7.354640926037973],[3.936109459583918,7.354553799718133],[3.9360223341634537,7.354510236558211],[3.9358601819019436,7.354466674297612],[3.9356859301615827,7.354454573020179],[3.9354898959419984,7.354396489406498],[3.9353374248822783,7.35419803511127],[3.9352502985624938,7.354052824278483],[3.9351365514107783,7.353880991714447],[3.934998600804818,7.353689799444735],[3.934834029366982,7.353544587712578],[3.934613794391168,7.353554268914424],[3.9344976262644877,7.353488924174542],[3.934359675658527,7.353416319207837],[3.934228987078143,7.353389696577266],[3.9340789360940676,7.353372756047916],[3.9339821285724383,7.353367915896626],[3.9338248182608035,7.353302571156803],[3.933728010739174,7.353200924383202],[3.933636044268098,7.353092015584083],[3.9335973221587324,7.352990368810537],[3.9335900610325325,7.352845158877018],[3.933461791628417,7.352690267741705],[3.9333383632749124,7.352586199993198],[3.9331423290552725,7.3523998469754],[3.932932730361245,7.3521667579895515],[3.9328093703562113,7.352088321818656],[3.932781649653463,7.3520292894202175],[3.9327877740365693,7.351900686367627],[3.9327563121541393,7.351697391921166],[3.932814395767821,7.351532819584009],[3.9328773213313752,7.351385189574901],[3.9329450852475247,7.351264181296984],[3.9329547664493707,7.3511697947502626],[3.9329208835919767,7.35106572700175],[3.9328773213313752,7.350930198270078],[3.9328894208101697,7.3508116091684865],[3.93294750622249,7.3506809196887275],[3.9330322115673644,7.350632516377573],[3.9331072366097137,7.350501826897867],[3.933199203080789,7.350390498922424],[3.933216145408835,7.350274330795795],[3.933165321122715,7.350175104097843],[3.93314111856779,7.350056514996198],[3.9331677411983597,7.3499863301050805],[3.933184681727709,7.349918566188933],[3.933271808946869,7.34982659881854],[3.933371035644825,7.349722531969347],[3.9334145988047453,7.349635405649507],[3.9334605820402535,7.349519236623508],[3.933533187007016,7.349420009925553],[3.9336517761086047,7.349383707891833],[3.933743741680359,7.349354666085048],[3.9338284479245544,7.349291741420755],[3.9339058939419256,7.349207035176563],[3.933973657858075,7.34909086704994],[3.9340535239510364,7.348974698923255],[3.9341406502708196,7.348848849594786],[3.9342156762125455,7.348696379434387],[3.934259239372466,7.348635874845796],[3.9342568192968197,7.3485439083747215],[3.934237456893186,7.348459202130526],[3.9341987338845006,7.348401117617529],[3.934121288766505,7.3482825294152585],[3.9340511038753903,7.3481469997842614],[3.933995440337355,7.348045353010662],[3.9339421959755896,7.347934025035271],[3.933857489731394,7.347798495404275],[3.9338105361273965,7.347733797276987],[3.9337703643109307,7.347679907202007],[3.9336227334024443,7.347517754940498],[3.9335235058051707,7.347404006889463],[3.9333419938379848,7.347312041317707],[3.9331604809714813,7.347234595300393],[3.9329354049450562,7.347103905820631],[3.9326885473386137,7.346997417996477],[3.93245621108531,7.346878829794209],[3.9323134203281143,7.3468062248274455],[3.932211772655251,7.346748141213824],[3.932131908360929,7.346653753767785],[3.9320520422679683,7.346573887674819],[3.9319249833513363,7.346426257665711],[3.9318330159809416,7.346359703337667],[3.9315801077358397,7.346235063597362],[3.931496611979128,7.346239903748598],[3.931376814188696,7.346230224345448],[3.9313138904237803,7.346162458630603],[3.931161419364059,7.345972475049736],[3.930972645371355,7.345725618342669],[3.9308346947653945,7.345587667736709],[3.9306568133612814,7.3454606088200745],[3.9305043423016164,7.345315398886611],[3.9302974172920244,7.345170188053771],[3.930077182316154,7.344964474430981],[3.9298266941466404,7.344730926790872],[3.929726256961259,7.3446692126141215],[3.9295955665821793,7.344828943900668],[3.929496339884224,7.344992305750336],[3.929465042577704,7.344966223612402],[3.92930030656396,7.344828943900667],[3.9292226968699993,7.344767441963937],[3.9291042732436385,7.344711566185877],[3.929024407150735,7.3447986916064005],[3.928832002594902,7.345061281053347],[3.9286855830732743,7.345264574600493],[3.9286299186358633,7.345274255802337],[3.928500439643642,7.345143567221897],[3.928334657718324,7.345008036691581],[3.928226960306005,7.344910019581791],[3.928113212254971,7.344810792883832],[3.9281144218431336,7.344767229723913],[3.9283673300882365,7.344457448352612],[3.928495598593031,7.344258994057384],[3.9286807429219825,7.3440302883671515],[3.9288416837966897,7.34382941309701],[3.9289215498896506,7.343687832827302],[3.9289475043239013,7.343653494013609],[3.9290328778650974,7.343478487742059],[3.9288804068053764,7.343243732312431],[3.928552472618548,7.342730654696025],[3.928269312978443,7.342280502643122],[3.9281120017674884,7.342034856423538],[3.928087800111939,7.341918688296858],[3.9281604059780193,7.341854553145138],[3.92821122936482,7.341790417993422],[3.9282100188773375,7.34170450216112],[3.92819670801174,7.341504838277729],[3.9281458846249384,7.341336636276766],[3.9280756997338235,7.341314854696862],[3.928032135674585,7.341306383982499],[3.927993413565219,7.3412228882257855],[3.9279159684472233,7.341112769838502],[3.927808271034906,7.340996601711821],[3.927729615429485,7.340827190122755],[3.927716303664511,7.340679560113643],[3.927738086143791,7.340443593297264],[3.9277332450932363,7.340329845246231],[3.927659429638993,7.340312903817504],[3.927540842336043,7.340266919682618],[3.927423462822617,7.3402233574220785],[3.927269782174733,7.340165272909074],[3.9272051640871264,7.340153575427222],[3.926989041710953,7.340114448622957],[3.9268758989036314,7.340078146589235],[3.926788772583848,7.340012196605641],[3.9267204034239285,7.339918415302691],[3.926676840264009,7.339840364940928],[3.926595159339172,7.339837944865337],[3.9265455464398547,7.339831894226562],[3.9265394949018178,7.339752634276691],[3.926503798111866,7.339550549418389],[3.926479595556941,7.339369641795599],[3.926430587901336,7.3391403299623335],[3.926397914632105,7.338864431448429],[3.926360403010221,7.338678076631993],[3.926289007631624,7.338385236689365],[3.9261468230175183,7.3379387151995825],[3.9260489030344847,7.337691196591492],[3.925956839436651,7.337504497334748],[3.9258873596140234,7.337524389439066],[3.9258247029477507,7.337535033814789],[3.9254268536664085,7.337627475127932],[3.9249740090433534,7.337763211602976],[3.9245925427117077,7.337889587034852],[3.9245913259289864,7.337890107742339],[3.924398299941629,7.337972667304825],[3.9242087372434744,7.338081489768968],[3.9239091802645016,7.338310837575137],[3.923740679688649,7.338378705812657],[3.9235370749760823,7.338465297035897],[3.9233276201735516,7.338508592197796],[3.92317316071285,7.338531995255438],[3.922984768032677,7.338509762215777],[3.9227753132301473,7.33845944604667],[3.9222943845782074,7.338316688564363],[3.921976106412216,7.338251161262121],[3.9218520710163034,7.338259352287311],[3.921781862742819,7.3383248795895515],[3.9217526086960097,7.338418490920674],[3.921699953390202,7.338562418420905],[3.921632084253362,7.338784745219867],[3.9215981501345705,7.338915800723669],[3.921523260889841,7.338994200921663],[3.921426138605455,7.339023454069206],[3.9213173161412556,7.338981328925229],[3.921111371392726,7.33887133644305],[3.9209943570040195,7.338838572342295],[3.9209194677592896,7.338899418673293],[3.920822346374223,7.339063239177221],[3.920715863046666,7.33925631192932],[3.9206515048630872,7.339326521102124],[3.9205356613916824,7.339300778008521],[3.9203343967150763,7.339177912630587],[3.9201951501860886,7.339028135040451],[3.920061753747007,7.3388865475761795],[3.919971653369146,7.338801127270247],[3.919858149034383,7.338729748978779],[3.9196896493579056,7.338666560813181],[3.9195351898971467,7.33861039365479],[3.919441578566023,7.338524974248229],[3.919468491677606,7.338422000974616],[3.9194963760569403,7.338369903248464],[3.9194926789440387,7.3383702512861095],[3.919316374051448,7.338294456424079],[3.9191268113532933,7.3382499912441395],[3.918886931586656,7.338234779211747],[3.918734813061235,7.338262862341254],[3.9185230173234227,7.338286265398892],[3.9181555930062486,7.33824882032684],[3.917809230811428,7.338182122107298],[3.9177682756854324,7.338120104859002],[3.917775296692639,7.337998410398368],[3.91779752973224,7.337840440883667],[3.917798699750221,7.337732788437509],[3.91778582775379,7.337606412106254],[3.9177554036890005,7.3375010996960555],[3.917747212663756,7.337352492123842],[3.917735511584624,7.337214414713514],[3.9177027483831917,7.337073998166545],[3.917653602232007,7.33692070872377],[3.9176032860628425,7.336876244443145],[3.917462868616553,7.336823588238074],[3.917348195163129,7.336813056277548],[3.9172019267275564,7.336777952140835],[3.917040448058287,7.336719444946482],[3.9168941796227164,7.336686680845673],[3.916739721061333,7.3366773198025035],[3.916613345629458,7.33668434080971],[3.916484630161619,7.336693701852882],[3.9163196396397097,7.336705402932069],[3.916092632768824,7.336703062896105],[3.915814138811527,7.33670891388533],[3.9156924443508956,7.336684340809712],[3.9154958606454775,7.33667263883126],[3.9152606618500845,7.336659767734145],[3.915012591957577,7.336649235773676],[3.9147844141694463,7.336673808849241],[3.9146112326223483,7.336701892878125],[3.914470816075323,7.3367615700904585],[3.9143549717046544,7.336816567230868],[3.91428125337717,7.336859862392772],[3.914292955355677,7.336921879641066],[3.914321037585864,7.336969854874949],[3.9144064587910625,7.337023681997381],[3.914445072981778,7.337063467105394],[3.9144743270286413,7.337139526368105],[3.914487198125755,7.33716526856233],[3.914511771201319,7.337249518850283],[3.9145281532516947,7.3373162170698265],[3.9145386852122215,7.337382915289368],[3.9145574072985587,7.337455463598813],[3.914592511435331,7.337590030955198],[3.9146042116151425,7.3377234273942795],[3.9145983624245564,7.3378404408836655],[3.914542195266165,7.337923521153642],[3.9144942191329624,7.337992559409141],[3.9144719860933046,7.338049895686198],[3.914292955355677,7.338116593905738],[3.914103391758147,7.338217227143388],[3.913951273232726,7.338304986585912],[3.913869362980791,7.33838104584862],[3.9138202168296057,7.338465297035896],[3.913757029563327,7.338596351640374],[3.913706714293483,7.3386923039067256],[3.913673950192674,7.338693473924705],[3.9135323627284038,7.3386724118024045],[3.9134001372066223,7.338613904608053],[3.913160257439984,7.338519123259004],[3.9129285686985322,7.338453595057387],[3.9126804988060258,7.338377535794675],[3.912623075294732,7.338365691723369],[3.9124932770431546,7.338338920704701],[3.9124257010852834,7.338329673875421],[3.9123821127443543,7.338323708672246],[3.9123542652371834,7.338330218864544],[3.91229201236655,7.338344771693927],[3.912250851295824,7.338391572413173],[3.9122065920606133,7.338441893978254],[3.912182376915212,7.3385016728140045],[3.9121152982824587,7.338582513772054],[3.9121141687339223,7.338716610783026],[3.912078369421238,7.338816749393516],[3.912052556180583,7.338878056177408],[3.912017061738083,7.338986151090072],[3.9119993163154168,7.339092630820289],[3.9119718887916974,7.339179751744214],[3.9119315550972265,7.339291073424361],[3.911875087565306,7.3394588608377935],[3.9117750613700086,7.339476608059045],[3.911594365987241,7.339441113616543],[3.9113265505798718,7.33945724655473],[3.9109635482292333,7.3394637009890875],[3.9109086940810016,7.339571795002371],[3.9108893343753275,7.339626649150603],[3.910845773913366,7.339684729166947],[3.910800600067661,7.339770235807803],[3.910778012695175,7.33980411686656],[3.9107715600595157,7.33982186318849],[3.9107618797569907,7.339849289812946],[3.9107489726869744,7.339894463658595],[3.910752200353784,7.339954157958062],[3.9107489726869744,7.340009012106294],[3.9107376790007597,7.340055799335744],[3.910682825751849,7.3401396925928],[3.9106311992704823,7.3401929333572316],[3.9106247448361278,7.340294573835536],[3.910674758833125,7.340401053565814],[3.9107054131243895,7.340467202299578],[3.9107473602025493,7.340538189385996],[3.910765105625159,7.34059626940234],[3.9107796260789196,7.340678550174969],[3.9107554262220106,7.340786644188313],[3.910647564233727,7.340939582895488],[3.910602158362963,7.3409705654393065],[3.910468251108966,7.3411028602088795],[3.9103972640225484,7.34122547377666],[3.9103036895636483,7.341338407941237],[3.910229475709797,7.341451342105812],[3.9101407423014507,7.341654623961803],[3.910021353702575,7.3418885592096785],[3.9099358470617176,7.341991813071786],[3.9098487261378527,7.342149921082068],[3.909787461622102,7.342370556256242],[3.9092277721439923,7.342070787936563],[3.908112601115704,7.341425795064423],[3.9071090170675116,7.340811978090359],[3.905445234410081,7.339780969216406],[3.9038750756742497,7.33905630270624],[3.902314087325295,7.338495821824777],[3.9005447827155986,7.338173143275982],[3.8978794457798362,7.338009158196142],[3.895791839621723,7.337679930784248],[3.8938830006999865,7.337169064600687],[3.891957532414211,7.3363620435735015],[3.8914670754452336,7.336129722608632],[3.8911153658814897,7.336016788444057],[3.8909378981655323,7.336032922281562],[3.888741883231376,7.334894162035995],[3.886598584756939,7.333966008624429],[3.885228949656323,7.333597093231332],[3.8836205139755866,7.333331117836852],[3.882474622106202,7.333242934813655],[3.8806931056024037,7.333312099873581],[3.879209906811808,7.333453431031047],[3.8776383676166124,7.333017169906495],[3.876669544164202,7.3324995444185115],[3.8756263737581667,7.331423868916489],[3.8752421060384004,7.330070035803544],[3.8745177605862287,7.330232331956609],[3.8741211883422,7.330548253898825],[3.8727939409876626,7.330608269256286],[3.8713925481276314,7.331239078920419],[3.8705073832092003,7.331447012969306],[3.868061967385926,7.331730195092462],[3.868305332924819,7.332276568309053],[3.8689754285732074,7.333104569620215],[3.8698427716266797,7.334229454225976],[3.8700919413900587,7.335663836017259],[3.870314625219805,7.3371445949471195],[3.870466248218804,7.33849678859599],[3.8706200502751362,7.338885203089716],[3.870834543079752,7.339583084192043],[3.8710101797760217,7.340181785361154],[3.8704739329257336,7.340011335055125],[3.870460612167563,7.340006442743174],[3.8701349487689076,7.339886849098831],[3.8695450771436413,7.339704908155056],[3.8692712083995957,7.339605319030283],[3.8691467224433613,7.339521051655252],[3.867921015742353,7.338739664004322],[3.8678271723861717,7.338638160222957],[3.8676777886990417,7.338519420035255],[3.867444152026053,7.338436321778889],[3.8673062472855126,7.338387272754458],[3.8670572753729853,7.338283854316443]]]}}]}