{"type":"FeatureCollection","features":[{"type":"Feature","properties":{"name":"Oke Ado\u2013Liberty","label":"Oke Ado\u2013Liberty","place":"ward","rank":10,"pinned":1,"priority":10,"always":0},"geometry":{"type":"Point","coordinates":[3.8776,7.36677]}},{"type":"Feature","properties":{"name":"Oja Gbo","label":"Oja Gbo","place":"ward","rank":10,"pinned":1,"priority":10,"always":0},"geometry":{"type":"Point","coordinates":[3.91197,7.37655]}},{"type":"Feature","properties":{"name":"Odeaje","label":"Odeaje","place":"ward","rank":10,"pinned":1,"priority":10,"always":0},"geometry":{"type":"Point","coordinates":[3.92321,7.34607]}},{"type":"Feature","properties":{"name":"Oke Adu","label":"Oke Adu","place":"ward","rank":10,"pinned":1,"priority":10,"always":0},"geometry":{"type":"Point","coordinates":[3.92104,7.39109]}},{"type":"Feature","properties":{"name":"Owode","label":"Owode","place":"ward","rank":10,"pinned":1,"priority":10,"always":0},"geometry":{"type":"Point","coordinates":[3.90792,7.3529]}},{"type":"Feature","properties":{"name":"Aperin","label":"Aperin","place":"ward","rank":10,"pinned":1,"priority":10,"always":0},"geometry":{"type":"Point","coordinates":[3.93227,7.3686]}},{"type":"Feature","properties":{"name":"Afonta","label":"Afonta","place":"ward","rank":10,"pinned":1,"priority":10,"always":0},"geometry":{"type":"Point","coordinates":[3.85557,7.39572]}},{"type":"Feature","properties":{"name":"Agbowo","label":"Agbowo","place":"neighbourhood","rank":8,"pinned":1,"priority":10,"always":0},"geometry":{"type":"Point","coordinates":[3.91252,7.44273]}},{"type":"Feature","properties":{"name":"Bodija","label":"Bodija","place":"locality","rank":8,"pinned":1,"priority":10,"always":0},"geometry":{"type":"Point","coordinates":[3.89472,7.41342]}},{"type":"Feature","properties":{"name":"Mokola","label":"Mokola","place":"locality","rank":8,"pinned":1,"priority":10,"always":0},"geometry":{"type":"Point","coordinates":[3.8922,7.40475]}},{"type":"Feature","properties":{"name":"Dugbe","label":"Dugbe","place":"locality","rank":8,"pinned":1,"priority":10,"always":0},"geometry":{"type":"Point","coordinates":[3.87773,7.38849]}},{"type":"Feature","properties":{"name":"Challenge","label":"Challenge","place":"locality","rank":8,"pinned":1,"priority":10,"always":0},"geometry":{"type":"Point","coordinates":[3.88198,7.34619]}},{"type":"Feature","properties":{"name":"Olopomewa","label":"Olopomewa","place":"locality","rank":8,"pinned":1,"priority":10,"always":0},"geometry":{"type":"Point","coordinates":[3.87298,7.42082]}},{"type":"Feature","properties":{"name":"Sango","label":"Sango","place":"locality","rank":8,"pinned":1,"priority":10,"always":0},"geometry":{"type":"Point","coordinates":[3.88109,7.42512]}},{"type":"Feature","properties":{"name":"Ring Road","label":"Ring Road","place":"locality","rank":8,"pinned":1,"priority":10,"always":0},"geometry":{"type":"Point","coordinates":[3.87392,7.35163]}},{"type":"Feature","properties":{"name":"Molete","label":"Molete","place":"locality","rank":8,"pinned":1,"priority":10,"always":0},"geometry":{"type":"Point","coordinates":[3.89706,7.35354]}},{"type":"Feature","properties":{"name":"Eleyele","label":"Eleyele","place":"locality","rank":8,"pinned":1,"priority":10,"always":0},"geometry":{"type":"Point","coordinates":[3.86837,7.41746]}},{"type":"Feature","properties":{"name":"Agugu","label":"Agugu","place":"locality","rank":8,"pinned":1,"priority":10,"always":0},"geometry":{"type":"Point","coordinates":[3.92734,7.38052]}},{"type":"Feature","properties":{"name":"Bashorun","label":"Bashorun","place":"locality","rank":8,"pinned":1,"priority":10,"always":0},"geometry":{"type":"Point","coordinates":[3.92894,7.41295]}},{"type":"Feature","properties":{"name":"Agodi","label":"Agodi","place":"locality","rank":8,"pinned":1,"priority":10,"always":0},"geometry":{"type":"Point","coordinates":[3.91621,7.39826]}},{"type":"Feature","properties":{"name":"Apata\u2013Odo Ona","label":"Apata","place":"locality","rank":8,"pinned":1,"priority":10,"always":0},"geometry":{"type":"Point","coordinates":[3.8531,7.37147]}},{"type":"Feature","properties":{"name":"Jericho","label":"Jericho","place":"village","rank":5,"pinned":1,"priority":10,"always":0},"geometry":{"type":"Point","coordinates":[3.86613,7.39611]}},{"type":"Feature","properties":{"name":"University of Ibadan","label":"University of Ibadan","place":"neighbourhood","rank":8,"pinned":1,"priority":8,"always":0},"geometry":{"type":"Point","coordinates":[3.89671,7.44772]}}]}