{"type":"FeatureCollection","features":[{"type":"Feature","properties":{"name":"Aare","alt_name":"","kind":"settlement","source":"grid3","ward":"Bashorun","lga":"Ibadan North","is_primary":1,"in_plate":1},"geometry":{"type":"Point","coordinates":[3.91028,7.42258]}},{"type":"Feature","properties":{"name":"Aba Alaka","alt_name":"","kind":"settlement","source":"grid3","ward":"Ago Tapa","lga":"Ibadan North","is_primary":1,"in_plate":1},"geometry":{"type":"Point","coordinates":[3.89304,7.4079]}},{"type":"Feature","properties":{"name":"Abebi","alt_name":"","kind":"settlement","source":"grid3","ward":"Abebi","lga":"Ibadan North West","is_primary":1,"in_plate":1},"geometry":{"type":"Point","coordinates":[3.8941,7.38674]}},{"type":"Feature","properties":{"name":"Academy Olomi","alt_name":"","kind":"settlement","source":"grid3","ward":"Odeaje","lga":"Ibadan North East","is_primary":1,"in_plate":1},"geometry":{"type":"Point","coordinates":[3.9181,7.33991]}},{"type":"Feature","properties":{"name":"Ago Taylor Ibadan South West","alt_name":"","kind":"settlement","source":"grid3","ward":"Apata\u2013Odo Ona","lga":"Ibadan South West","is_primary":1,"in_plate":1},"geometry":{"type":"Point","coordinates":[3.85522,7.378]}},{"type":"Feature","properties":{"name":"Alabosa GRA","alt_name":"","kind":"settlement","source":"grid3","ward":"Alesinloye","lga":"Ibadan South West","is_primary":1,"in_plate":1},"geometry":{"type":"Point","coordinates":[3.86136,7.38281]}},{"type":"Feature","properties":{"name":"Alaro Ijokodo","alt_name":"Ijokodo","kind":"settlement","source":"grid3","ward":"Sango","lga":"Ibadan North","is_primary":1,"in_plate":1},"geometry":{"type":"Point","coordinates":[3.88817,7.42652]}},{"type":"Feature","properties":{"name":"Apata Kekere","alt_name":"","kind":"settlement","source":"grid3","ward":"Agbowo","lga":"Ibadan North","is_primary":1,"in_plate":1},"geometry":{"type":"Point","coordinates":[3.91359,7.45008]}},{"type":"Feature","properties":{"name":"Awolowo","alt_name":"","kind":"settlement","source":"grid3","ward":"Old Bodija","lga":"Ibadan North","is_primary":1,"in_plate":1},"geometry":{"type":"Point","coordinates":[3.91071,7.41675]}},{"type":"Feature","properties":{"name":"Ayeye","alt_name":"","kind":"settlement","source":"grid3","ward":"Bere","lga":"Ibadan North West","is_primary":1,"in_plate":1},"geometry":{"type":"Point","coordinates":[3.89411,7.37952]}},{"type":"Feature","properties":{"name":"Barracks","alt_name":"","kind":"settlement","source":"grid3","ward":"Basorun","lga":"Ibadan North East","is_primary":1,"in_plate":1},"geometry":{"type":"Point","coordinates":[3.93235,7.40391]}},{"type":"Feature","properties":{"name":"Benjamin","alt_name":"","kind":"settlement","source":"grid3","ward":"Eleyele","lga":"Ibadan North West","is_primary":1,"in_plate":1},"geometry":{"type":"Point","coordinates":[3.86754,7.41456]}},{"type":"Feature","properties":{"name":"Born Photo","alt_name":"","kind":"settlement","source":"grid3","ward":"Beere\u2013Mapo","lga":"Ibadan South East","is_primary":1,"in_plate":1},"geometry":{"type":"Point","coordinates":[3.89163,7.37451]}},{"type":"Feature","properties":{"name":"College Cresicent","alt_name":"","kind":"settlement","source":"grid3","ward":"Ring Road\u2013Challenge\u2013Oluyole","lga":"Ibadan South West","is_primary":1,"in_plate":1},"geometry":{"type":"Point","coordinates":[3.85416,7.36302]}},{"type":"Feature","properties":{"name":"Ekeyedo Oga Nla","alt_name":"","kind":"settlement","source":"grid3","ward":"Inalende","lga":"Ibadan North West","is_primary":1,"in_plate":1},"geometry":{"type":"Point","coordinates":[3.88856,7.39527]}},{"type":"Feature","properties":{"name":"Felele","alt_name":"","kind":"settlement","source":"grid3","ward":"Challenge","lga":"Ibadan South East","is_primary":1,"in_plate":1},"geometry":{"type":"Point","coordinates":[3.88737,7.3435]}},{"type":"Feature","properties":{"name":"Gege","alt_name":"","kind":"settlement","source":"grid3","ward":"Foko\u2013Ologede","lga":"Ibadan South West","is_primary":1,"in_plate":1},"geometry":{"type":"Point","coordinates":[3.89148,7.37729]}},{"type":"Feature","properties":{"name":"IDI Oro","alt_name":"","kind":"settlement","source":"grid3","ward":"Irefin","lga":"Ibadan North East","is_primary":1,"in_plate":1},"geometry":{"type":"Point","coordinates":[3.91772,7.3921]}},{"type":"Feature","properties":{"name":"Ikolaba Estate","alt_name":"","kind":"settlement","source":"grid3","ward":"Bashorun","lga":"Ibadan North","is_primary":1,"in_plate":1},"geometry":{"type":"Point","coordinates":[3.91925,7.41573]}},{"type":"Feature","properties":{"name":"Ilupeju","alt_name":"","kind":"settlement","source":"grid3","ward":"Molete","lga":"Ibadan South East","is_primary":1,"in_plate":1},"geometry":{"type":"Point","coordinates":[3.8993,7.36023]}},{"type":"Feature","properties":{"name":"Jericho","alt_name":"","kind":"settlement","source":"grid3","ward":"Afonta","lga":"Ibadan North West","is_primary":1,"in_plate":1},"geometry":{"type":"Point","coordinates":[3.86321,7.39166]}},{"type":"Feature","properties":{"name":"Joyce B","alt_name":"Oke Ado","kind":"settlement","source":"grid3","ward":"Oke Ado\u2013Liberty","lga":"Ibadan South West","is_primary":1,"in_plate":1},"geometry":{"type":"Point","coordinates":[3.86651,7.36873]}},{"type":"Feature","properties":{"name":"Kudeti","alt_name":"","kind":"settlement","source":"grid3","ward":"Molete","lga":"Ibadan South East","is_primary":1,"in_plate":1},"geometry":{"type":"Point","coordinates":[3.89652,7.36272]}},{"type":"Feature","properties":{"name":"Nfallence","alt_name":"","kind":"settlement","source":"grid3","ward":"Popoyemoja","lga":"Ibadan South West","is_primary":1,"in_plate":1},"geometry":{"type":"Point","coordinates":[3.88603,7.35895]}},{"type":"Feature","properties":{"name":"Ode Ige","alt_name":"","kind":"settlement","source":"grid3","ward":"Odinjo","lga":"Ibadan South East","is_primary":1,"in_plate":1},"geometry":{"type":"Point","coordinates":[3.91145,7.36045]}},{"type":"Feature","properties":{"name":"Oke Itunu","alt_name":"","kind":"settlement","source":"grid3","ward":"Oke Itunu","lga":"Ibadan North","is_primary":1,"in_plate":1},"geometry":{"type":"Point","coordinates":[3.89025,7.41479]}},{"type":"Feature","properties":{"name":"Oke Seni","alt_name":"","kind":"settlement","source":"grid3","ward":"Idikan\u2013Olorisaoko","lga":"Ibadan North West","is_primary":1,"in_plate":1},"geometry":{"type":"Point","coordinates":[3.88871,7.385]}},{"type":"Feature","properties":{"name":"Okesuna","alt_name":"","kind":"settlement","source":"grid3","ward":"Owode","lga":"Ibadan South East","is_primary":1,"in_plate":1},"geometry":{"type":"Point","coordinates":[3.90672,7.35734]}},{"type":"Feature","properties":{"name":"Olopomewa","alt_name":"","kind":"settlement","source":"grid3","ward":"Eleyele","lga":"Ibadan North West","is_primary":1,"in_plate":1},"geometry":{"type":"Point","coordinates":[3.87159,7.41919]}},{"type":"Feature","properties":{"name":"Omowunmi","alt_name":"","kind":"settlement","source":"grid3","ward":"Adesola","lga":"Ibadan South East","is_primary":1,"in_plate":1},"geometry":{"type":"Point","coordinates":[3.92369,7.36532]}},{"type":"Feature","properties":{"name":"Samonda","alt_name":"","kind":"settlement","source":"grid3","ward":"Samonda","lga":"Ibadan North","is_primary":1,"in_plate":1},"geometry":{"type":"Point","coordinates":[3.90591,7.43377]}},{"type":"Feature","properties":{"name":"Tobi Rentals Area","alt_name":"","kind":"settlement","source":"grid3","ward":"Olopomewa","lga":"Ibadan North West","is_primary":1,"in_plate":1},"geometry":{"type":"Point","coordinates":[3.84975,7.41927]}},{"type":"Feature","properties":{"name":"Aare Avenue","alt_name":"","kind":"settlement","source":"grid3","ward":"Bashorun","lga":"Ibadan North","is_primary":0,"in_plate":1},"geometry":{"type":"Point","coordinates":[3.9161,7.4253]}},{"type":"Feature","properties":{"name":"Aba Alade Olorunshogo","alt_name":"","kind":"settlement","source":"grid3","ward":"Aperin","lga":"Ibadan North East","is_primary":0,"in_plate":1},"geometry":{"type":"Point","coordinates":[3.92865,7.36388]}},{"type":"Feature","properties":{"name":"Aba Ela","alt_name":"","kind":"settlement","source":"grid3","ward":"Olopomewa","lga":"Ibadan North West","is_primary":0,"in_plate":1},"geometry":{"type":"Point","coordinates":[3.83607,7.42014]}},{"type":"Feature","properties":{"name":"Aba Igbira","alt_name":"Aba Igbira Adeoyo First Gate","kind":"settlement","source":"grid3","ward":"Ring Road\u2013Challenge\u2013Oluyole","lga":"Ibadan South West","is_primary":0,"in_plate":1},"geometry":{"type":"Point","coordinates":[3.85973,7.3557]}},{"type":"Feature","properties":{"name":"Aba Igbira 2","alt_name":"Omololu Olunloyo GRA","kind":"settlement","source":"grid3","ward":"Ring Road\u2013Challenge\u2013Oluyole","lga":"Ibadan South West","is_primary":0,"in_plate":1},"geometry":{"type":"Point","coordinates":[3.86439,7.3449]}},{"type":"Feature","properties":{"name":"Aba Igbira GRA","alt_name":"Omololu Olunloyo GRA","kind":"settlement","source":"grid3","ward":"Ring Road\u2013Challenge\u2013Oluyole","lga":"Ibadan South West","is_primary":0,"in_plate":1},"geometry":{"type":"Point","coordinates":[3.86078,7.34722]}},{"type":"Feature","properties":{"name":"Aba Igbira Ringroad","alt_name":"Arapaja Estate","kind":"settlement","source":"grid3","ward":"Ring Road\u2013Challenge\u2013Oluyole","lga":"Ibadan South West","is_primary":0,"in_plate":1},"geometry":{"type":"Point","coordinates":[3.86201,7.35328]}},{"type":"Feature","properties":{"name":"Aba Nla","alt_name":"Omi Adio","kind":"settlement","source":"grid3","ward":"Old Bodija","lga":"Ibadan North","is_primary":0,"in_plate":1},"geometry":{"type":"Point","coordinates":[3.90899,7.41069]}},{"type":"Feature","properties":{"name":"Abanla","alt_name":"","kind":"settlement","source":"grid3","ward":"Olopomewa","lga":"Ibadan North West","is_primary":0,"in_plate":1},"geometry":{"type":"Point","coordinates":[3.82975,7.42862]}},{"type":"Feature","properties":{"name":"Abayomi","alt_name":"","kind":"settlement","source":"grid3","ward":"Basorun","lga":"Ibadan North East","is_primary":0,"in_plate":1},"geometry":{"type":"Point","coordinates":[3.94009,7.40331]}},{"type":"Feature","properties":{"name":"Abayomi Area","alt_name":"Abayomi Atele","kind":"settlement","source":"grid3","ward":"Basorun","lga":"Ibadan North East","is_primary":0,"in_plate":1},"geometry":{"type":"Point","coordinates":[3.94088,7.4015]}},{"type":"Feature","properties":{"name":"Abebi","alt_name":"","kind":"settlement","source":"grid3","ward":"Afonta","lga":"Ibadan North West","is_primary":0,"in_plate":1},"geometry":{"type":"Point","coordinates":[3.85341,7.40216]}},{"type":"Feature","properties":{"name":"Abegunde Ibadan South West","alt_name":"","kind":"settlement","source":"grid3","ward":"Agbokojo","lga":"Ibadan South West","is_primary":0,"in_plate":1},"geometry":{"type":"Point","coordinates":[3.85653,7.33855]}},{"type":"Feature","properties":{"name":"Adabeji","alt_name":"","kind":"settlement","source":"grid3","ward":"Oritamerin (sw)","lga":"Ibadan South West","is_primary":0,"in_plate":1},"geometry":{"type":"Point","coordinates":[3.8451,7.37165]}},{"type":"Feature","properties":{"name":"Adamasingba","alt_name":"","kind":"settlement","source":"grid3","ward":"Sabo","lga":"Ibadan North","is_primary":0,"in_plate":1},"geometry":{"type":"Point","coordinates":[3.88684,7.39891]}},{"type":"Feature","properties":{"name":"Adegoke Ibadan South West","alt_name":"","kind":"settlement","source":"grid3","ward":"Challenge","lga":"Ibadan South East","is_primary":0,"in_plate":1},"geometry":{"type":"Point","coordinates":[3.87123,7.33641]}},{"type":"Feature","properties":{"name":"Adekinle Koloko","alt_name":"","kind":"settlement","source":"grid3","ward":"Aperin","lga":"Ibadan North East","is_primary":0,"in_plate":1},"geometry":{"type":"Point","coordinates":[3.92434,7.37449]}},{"type":"Feature","properties":{"name":"Adeleye Community","alt_name":"","kind":"settlement","source":"grid3","ward":"Olopomewa","lga":"Ibadan North West","is_primary":0,"in_plate":1},"geometry":{"type":"Point","coordinates":[3.83682,7.43001]}},{"type":"Feature","properties":{"name":"Adesola Irepodun","alt_name":"","kind":"settlement","source":"grid3","ward":"Atipe","lga":"Ibadan North East","is_primary":0,"in_plate":1},"geometry":{"type":"Point","coordinates":[3.9251,7.35766]}},{"type":"Feature","properties":{"name":"Adetana Ifelodun","alt_name":"","kind":"settlement","source":"grid3","ward":"Odeaje","lga":"Ibadan North East","is_primary":0,"in_plate":1},"geometry":{"type":"Point","coordinates":[3.92535,7.35202]}},{"type":"Feature","properties":{"name":"Adetokun Extension","alt_name":"","kind":"settlement","source":"grid3","ward":"Olopomewa","lga":"Ibadan North West","is_primary":0,"in_plate":1},"geometry":{"type":"Point","coordinates":[3.84046,7.42216]}},{"type":"Feature","properties":{"name":"Adewumi Ifelodun","alt_name":"","kind":"settlement","source":"grid3","ward":"Odeaje","lga":"Ibadan North East","is_primary":0,"in_plate":1},"geometry":{"type":"Point","coordinates":[3.92531,7.35285]}},{"type":"Feature","properties":{"name":"Adigun","alt_name":"","kind":"settlement","source":"grid3","ward":"Odeaje","lga":"Ibadan North East","is_primary":0,"in_plate":1},"geometry":{"type":"Point","coordinates":[3.92716,7.34388]}},{"type":"Feature","properties":{"name":"Afronta","alt_name":"","kind":"settlement","source":"grid3","ward":"Afonta","lga":"Ibadan North West","is_primary":0,"in_plate":1},"geometry":{"type":"Point","coordinates":[3.87814,7.39116]}},{"type":"Feature","properties":{"name":"Agbaje","alt_name":"Adeosun Street","kind":"settlement","source":"grid3","ward":"Sango","lga":"Ibadan North","is_primary":0,"in_plate":1},"geometry":{"type":"Point","coordinates":[3.87593,7.42988]}},{"type":"Feature","properties":{"name":"Agbeni","alt_name":"","kind":"settlement","source":"grid3","ward":"Amule\u2013Atere","lga":"Ibadan South West","is_primary":0,"in_plate":1},"geometry":{"type":"Point","coordinates":[3.88718,7.38116]}},{"type":"Feature","properties":{"name":"Agbo Ile Kure","alt_name":"","kind":"settlement","source":"grid3","ward":"Adesola","lga":"Ibadan South East","is_primary":0,"in_plate":1},"geometry":{"type":"Point","coordinates":[3.91988,7.36553]}},{"type":"Feature","properties":{"name":"Agbole Ogede Ifelodun","alt_name":"","kind":"settlement","source":"grid3","ward":"Odeaje","lga":"Ibadan North East","is_primary":0,"in_plate":1},"geometry":{"type":"Point","coordinates":[3.92487,7.35334]}},{"type":"Feature","properties":{"name":"Agbowo","alt_name":"","kind":"settlement","source":"grid3","ward":"Agbowo","lga":"Ibadan North","is_primary":0,"in_plate":1},"geometry":{"type":"Point","coordinates":[3.92013,7.4484]}},{"type":"Feature","properties":{"name":"Agbowo Express","alt_name":"","kind":"settlement","source":"grid3","ward":"Agbowo","lga":"Ibadan North","is_primary":0,"in_plate":1},"geometry":{"type":"Point","coordinates":[3.92348,7.44028]}},{"type":"Feature","properties":{"name":"Ago Taylor Ibadan North West","alt_name":"","kind":"settlement","source":"grid3","ward":"Ring Road\u2013Challenge\u2013Oluyole","lga":"Ibadan South West","is_primary":0,"in_plate":1},"geometry":{"type":"Point","coordinates":[3.8608,7.37897]}},{"type":"Feature","properties":{"name":"Agodi GRA","alt_name":"","kind":"settlement","source":"grid3","ward":"Agodi","lga":"Ibadan North","is_primary":0,"in_plate":1},"geometry":{"type":"Point","coordinates":[3.91264,7.40461]}},{"type":"Feature","properties":{"name":"Agodi Gate","alt_name":"","kind":"settlement","source":"grid3","ward":"Oke Adu","lga":"Ibadan North East","is_primary":0,"in_plate":1},"geometry":{"type":"Point","coordinates":[3.91898,7.39471]}},{"type":"Feature","properties":{"name":"Agodi Secretariat","alt_name":"","kind":"settlement","source":"grid3","ward":"Old Bodija","lga":"Ibadan North","is_primary":0,"in_plate":1},"geometry":{"type":"Point","coordinates":[3.90881,7.40934]}},{"type":"Feature","properties":{"name":"Agodi Yidi","alt_name":"","kind":"settlement","source":"grid3","ward":"Oke Adu","lga":"Ibadan North East","is_primary":0,"in_plate":1},"geometry":{"type":"Point","coordinates":[3.92155,7.39714]}},{"type":"Feature","properties":{"name":"Agoro","alt_name":"","kind":"settlement","source":"grid3","ward":"Agugu","lga":"Ibadan North East","is_primary":0,"in_plate":1},"geometry":{"type":"Point","coordinates":[3.93024,7.3872]}},{"type":"Feature","properties":{"name":"Agugu Oja","alt_name":"","kind":"settlement","source":"grid3","ward":"Agugu","lga":"Ibadan North East","is_primary":0,"in_plate":1},"geometry":{"type":"Point","coordinates":[3.92221,7.38409]}},{"type":"Feature","properties":{"name":"Ajadi Area","alt_name":"Back Of Tipper Garage Ologuneru","kind":"settlement","source":"grid3","ward":"Olopomewa","lga":"Ibadan North West","is_primary":0,"in_plate":1},"geometry":{"type":"Point","coordinates":[3.83641,7.43294]}},{"type":"Feature","properties":{"name":"Ajewole Timothy","alt_name":"Ashi Area","kind":"settlement","source":"grid3","ward":"Bashorun","lga":"Ibadan North","is_primary":0,"in_plate":1},"geometry":{"type":"Point","coordinates":[3.93218,7.43195]}},{"type":"Feature","properties":{"name":"Ajumose GRA","alt_name":"","kind":"settlement","source":"grid3","ward":"Afonta","lga":"Ibadan North West","is_primary":0,"in_plate":1},"geometry":{"type":"Point","coordinates":[3.85273,7.39658]}},{"type":"Feature","properties":{"name":"Akeke Lagelu 1","alt_name":"","kind":"settlement","source":"grid3","ward":"Basorun","lga":"Ibadan North East","is_primary":0,"in_plate":1},"geometry":{"type":"Point","coordinates":[3.93749,7.41208]}},{"type":"Feature","properties":{"name":"Akere","alt_name":"","kind":"settlement","source":"grid3","ward":"Atipe","lga":"Ibadan North East","is_primary":0,"in_plate":1},"geometry":{"type":"Point","coordinates":[3.93908,7.35746]}},{"type":"Feature","properties":{"name":"Akigbola","alt_name":"","kind":"settlement","source":"grid3","ward":"Bashorun","lga":"Ibadan North","is_primary":0,"in_plate":1},"geometry":{"type":"Point","coordinates":[3.91881,7.43124]}},{"type":"Feature","properties":{"name":"Akiloye","alt_name":"","kind":"settlement","source":"grid3","ward":"Bashorun","lga":"Ibadan North","is_primary":0,"in_plate":1},"geometry":{"type":"Point","coordinates":[3.91228,7.41473]}},{"type":"Feature","properties":{"name":"Akinleye Ifelodun","alt_name":"","kind":"settlement","source":"grid3","ward":"Odeaje","lga":"Ibadan North East","is_primary":0,"in_plate":1},"geometry":{"type":"Point","coordinates":[3.92442,7.3542]}},{"type":"Feature","properties":{"name":"Akinloye","alt_name":"","kind":"settlement","source":"grid3","ward":"Basorun","lga":"Ibadan North East","is_primary":0,"in_plate":1},"geometry":{"type":"Point","coordinates":[3.93685,7.40966]}},{"type":"Feature","properties":{"name":"Akinsoji Area","alt_name":"","kind":"settlement","source":"grid3","ward":"Agugu","lga":"Ibadan North East","is_primary":0,"in_plate":1},"geometry":{"type":"Point","coordinates":[3.93582,7.38142]}},{"type":"Feature","properties":{"name":"Akintola","alt_name":"","kind":"settlement","source":"grid3","ward":"Afonta","lga":"Ibadan North West","is_primary":0,"in_plate":1},"geometry":{"type":"Point","coordinates":[3.88296,7.39583]}},{"type":"Feature","properties":{"name":"Alafara","alt_name":"","kind":"settlement","source":"grid3","ward":"Alafara","lga":"Ibadan North East","is_primary":0,"in_plate":1},"geometry":{"type":"Point","coordinates":[3.90626,7.38319]}},{"type":"Feature","properties":{"name":"Alafara","alt_name":"","kind":"settlement","source":"grid3","ward":"Olopomewa","lga":"Ibadan North West","is_primary":0,"in_plate":1},"geometry":{"type":"Point","coordinates":[3.82685,7.4254]}},{"type":"Feature","properties":{"name":"Alafara Olubadan","alt_name":"","kind":"settlement","source":"grid3","ward":"Oja Gbo","lga":"Ibadan North East","is_primary":0,"in_plate":1},"geometry":{"type":"Point","coordinates":[3.90731,7.3806]}},{"type":"Feature","properties":{"name":"Alaghafo","alt_name":"","kind":"settlement","source":"grid3","ward":"Agodi","lga":"Ibadan North","is_primary":0,"in_plate":1},"geometry":{"type":"Point","coordinates":[3.91275,7.39502]}},{"type":"Feature","properties":{"name":"Alaja","alt_name":"Alafara","kind":"settlement","source":"grid3","ward":"Olopomewa","lga":"Ibadan North West","is_primary":0,"in_plate":1},"geometry":{"type":"Point","coordinates":[3.83289,7.41716]}},{"type":"Feature","properties":{"name":"Alaja Land","alt_name":"","kind":"settlement","source":"grid3","ward":"Olopomewa","lga":"Ibadan North West","is_primary":0,"in_plate":1},"geometry":{"type":"Point","coordinates":[3.82886,7.42142]}},{"type":"Feature","properties":{"name":"Alalubosa Lakeside GRA","alt_name":"","kind":"settlement","source":"grid3","ward":"Alesinloye","lga":"Ibadan South West","is_primary":0,"in_plate":1},"geometry":{"type":"Point","coordinates":[3.86008,7.3798]}},{"type":"Feature","properties":{"name":"Alesinloye","alt_name":"","kind":"settlement","source":"grid3","ward":"Alesinloye","lga":"Ibadan South West","is_primary":0,"in_plate":1},"geometry":{"type":"Point","coordinates":[3.87217,7.38326]}},{"type":"Feature","properties":{"name":"Ali Iwo","alt_name":"","kind":"settlement","source":"grid3","ward":"Irefin","lga":"Ibadan North East","is_primary":0,"in_plate":1},"geometry":{"type":"Point","coordinates":[3.91538,7.39245]}},{"type":"Feature","properties":{"name":"Amadiya Musfala","alt_name":"","kind":"settlement","source":"grid3","ward":"Odeaje","lga":"Ibadan North East","is_primary":0,"in_plate":1},"geometry":{"type":"Point","coordinates":[3.92763,7.34235]}},{"type":"Feature","properties":{"name":"Amuda","alt_name":"","kind":"settlement","source":"grid3","ward":"Basorun","lga":"Ibadan North East","is_primary":0,"in_plate":1},"geometry":{"type":"Point","coordinates":[3.94238,7.41426]}},{"type":"Feature","properties":{"name":"Anfani","alt_name":"","kind":"settlement","source":"grid3","ward":"Ring Road\u2013Challenge\u2013Oluyole","lga":"Ibadan South West","is_primary":0,"in_plate":1},"geometry":{"type":"Point","coordinates":[3.87876,7.36034]}},{"type":"Feature","properties":{"name":"Apata Area","alt_name":"","kind":"settlement","source":"grid3","ward":"Agbowo","lga":"Ibadan North","is_primary":0,"in_plate":1},"geometry":{"type":"Point","coordinates":[3.91652,7.44989]}},{"type":"Feature","properties":{"name":"Are","alt_name":"","kind":"settlement","source":"grid3","ward":"Nalende","lga":"Ibadan North","is_primary":0,"in_plate":1},"geometry":{"type":"Point","coordinates":[3.89759,7.38632]}},{"type":"Feature","properties":{"name":"Arewa Ifelodun","alt_name":"","kind":"settlement","source":"grid3","ward":"Odeaje","lga":"Ibadan North East","is_primary":0,"in_plate":1},"geometry":{"type":"Point","coordinates":[3.92816,7.35028]}},{"type":"Feature","properties":{"name":"Asaka","alt_name":"","kind":"settlement","source":"grid3","ward":"Foko\u2013Ologede","lga":"Ibadan South West","is_primary":0,"in_plate":1},"geometry":{"type":"Point","coordinates":[3.88638,7.37228]}},{"type":"Feature","properties":{"name":"Ashi","alt_name":"","kind":"settlement","source":"grid3","ward":"Bashorun","lga":"Ibadan North","is_primary":0,"in_plate":1},"geometry":{"type":"Point","coordinates":[3.93119,7.42687]}},{"type":"Feature","properties":{"name":"Awotunde Adeyalo","alt_name":"","kind":"settlement","source":"grid3","ward":"Aperin","lga":"Ibadan North East","is_primary":0,"in_plate":1},"geometry":{"type":"Point","coordinates":[3.93535,7.3659]}},{"type":"Feature","properties":{"name":"Ayekale","alt_name":"","kind":"settlement","source":"grid3","ward":"Agugu","lga":"Ibadan North East","is_primary":0,"in_plate":1},"geometry":{"type":"Point","coordinates":[3.92844,7.37734]}},{"type":"Feature","properties":{"name":"Baba Sale","alt_name":"Oke Offa","kind":"settlement","source":"grid3","ward":"Oke Adu","lga":"Ibadan North East","is_primary":0,"in_plate":1},"geometry":{"type":"Point","coordinates":[3.91415,7.38724]}},{"type":"Feature","properties":{"name":"Bada Oke Adu","alt_name":"","kind":"settlement","source":"grid3","ward":"Irefin","lga":"Ibadan North East","is_primary":0,"in_plate":1},"geometry":{"type":"Point","coordinates":[3.91662,7.39096]}},{"type":"Feature","properties":{"name":"Basorun","alt_name":"","kind":"settlement","source":"grid3","ward":"Basorun","lga":"Ibadan North East","is_primary":0,"in_plate":1},"geometry":{"type":"Point","coordinates":[3.93698,7.41592]}},{"type":"Feature","properties":{"name":"Basorun Bibinari","alt_name":"","kind":"settlement","source":"grid3","ward":"Basorun","lga":"Ibadan North East","is_primary":0,"in_plate":1},"geometry":{"type":"Point","coordinates":[3.92944,7.40684]}},{"type":"Feature","properties":{"name":"Beere","alt_name":"","kind":"settlement","source":"grid3","ward":"Beere\u2013Mapo","lga":"Ibadan South East","is_primary":0,"in_plate":1},"geometry":{"type":"Point","coordinates":[3.89879,7.37905]}},{"type":"Feature","properties":{"name":"Beere Mapo","alt_name":"","kind":"settlement","source":"grid3","ward":"Beere\u2013Mapo","lga":"Ibadan South East","is_primary":0,"in_plate":1},"geometry":{"type":"Point","coordinates":[3.89906,7.37656]}},{"type":"Feature","properties":{"name":"Bestway","alt_name":"","kind":"settlement","source":"grid3","ward":"Basorun","lga":"Ibadan North East","is_primary":0,"in_plate":1},"geometry":{"type":"Point","coordinates":[3.93117,7.40275]}},{"type":"Feature","properties":{"name":"Bode","alt_name":"","kind":"settlement","source":"grid3","ward":"Popoyemoja","lga":"Ibadan South West","is_primary":0,"in_plate":1},"geometry":{"type":"Point","coordinates":[3.89099,7.36123]}},{"type":"Feature","properties":{"name":"Bode Wasinmi","alt_name":"","kind":"settlement","source":"grid3","ward":"Basorun","lga":"Ibadan North East","is_primary":0,"in_plate":1},"geometry":{"type":"Point","coordinates":[3.93405,7.41206]}},{"type":"Feature","properties":{"name":"Bodija","alt_name":"Bodija Market","kind":"settlement","source":"grid3","ward":"Agbowo","lga":"Ibadan North","is_primary":0,"in_plate":1},"geometry":{"type":"Point","coordinates":[3.91638,7.43363]}},{"type":"Feature","properties":{"name":"Bolumole","alt_name":"Ring Road","kind":"settlement","source":"grid3","ward":"Ring Road\u2013Challenge\u2013Oluyole","lga":"Ibadan South West","is_primary":0,"in_plate":1},"geometry":{"type":"Point","coordinates":[3.87503,7.35133]}},{"type":"Feature","properties":{"name":"Bolumole","alt_name":"","kind":"settlement","source":"grid3","ward":"Molete","lga":"Ibadan South East","is_primary":0,"in_plate":1},"geometry":{"type":"Point","coordinates":[3.88788,7.34852]}},{"type":"Feature","properties":{"name":"Carpenter Community","alt_name":"","kind":"settlement","source":"grid3","ward":"Olopomewa","lga":"Ibadan North West","is_primary":0,"in_plate":1},"geometry":{"type":"Point","coordinates":[3.83629,7.42941]}},{"type":"Feature","properties":{"name":"Challenge","alt_name":"Idi Odo","kind":"settlement","source":"grid3","ward":"Ring Road\u2013Challenge\u2013Oluyole","lga":"Ibadan South West","is_primary":0,"in_plate":1},"geometry":{"type":"Point","coordinates":[3.88062,7.35093]}},{"type":"Feature","properties":{"name":"Chief Akindele Obiwale Avenue","alt_name":"","kind":"settlement","source":"grid3","ward":"Olopomewa","lga":"Ibadan North West","is_primary":0,"in_plate":1},"geometry":{"type":"Point","coordinates":[3.84526,7.42008]}},{"type":"Feature","properties":{"name":"Dugbe","alt_name":"","kind":"settlement","source":"grid3","ward":"Ekotedo","lga":"Ibadan North West","is_primary":0,"in_plate":1},"geometry":{"type":"Point","coordinates":[3.8777,7.38875]}},{"type":"Feature","properties":{"name":"Dugbe Alawo","alt_name":"","kind":"settlement","source":"grid3","ward":"Ekotedo","lga":"Ibadan North West","is_primary":0,"in_plate":1},"geometry":{"type":"Point","coordinates":[3.88329,7.39002]}},{"type":"Feature","properties":{"name":"Ebrohime","alt_name":"","kind":"settlement","source":"grid3","ward":"Samonda","lga":"Ibadan North","is_primary":0,"in_plate":1},"geometry":{"type":"Point","coordinates":[3.90321,7.44262]}},{"type":"Feature","properties":{"name":"Elekuro","alt_name":"","kind":"settlement","source":"grid3","ward":"Asanike","lga":"Ibadan South East","is_primary":0,"in_plate":1},"geometry":{"type":"Point","coordinates":[3.90804,7.36984]}},{"type":"Feature","properties":{"name":"Eleta","alt_name":"","kind":"settlement","source":"grid3","ward":"Asanike","lga":"Ibadan South East","is_primary":0,"in_plate":1},"geometry":{"type":"Point","coordinates":[3.90522,7.36616]}},{"type":"Feature","properties":{"name":"Eleta","alt_name":"","kind":"settlement","source":"grid3","ward":"Odinjo","lga":"Ibadan South East","is_primary":0,"in_plate":1},"geometry":{"type":"Point","coordinates":[3.91081,7.35585]}},{"type":"Feature","properties":{"name":"Elewura","alt_name":"Ring Road","kind":"settlement","source":"grid3","ward":"Ring Road\u2013Challenge\u2013Oluyole","lga":"Ibadan South West","is_primary":0,"in_plate":1},"geometry":{"type":"Point","coordinates":[3.87662,7.35001]}},{"type":"Feature","properties":{"name":"Eleyele","alt_name":"","kind":"settlement","source":"grid3","ward":"Eleyele","lga":"Ibadan North West","is_primary":0,"in_plate":1},"geometry":{"type":"Point","coordinates":[3.87065,7.4121]}},{"type":"Feature","properties":{"name":"Eleyele Forest Reserve","alt_name":"","kind":"settlement","source":"grid3","ward":"Olopomewa","lga":"Ibadan North West","is_primary":0,"in_plate":1},"geometry":{"type":"Point","coordinates":[3.85051,7.43171]}},{"type":"Feature","properties":{"name":"Eleyele Forest Settlement","alt_name":"Eleyele Dam","kind":"settlement","source":"grid3","ward":"Olopomewa","lga":"Ibadan North West","is_primary":0,"in_plate":1},"geometry":{"type":"Point","coordinates":[3.85162,7.43182]}},{"type":"Feature","properties":{"name":"Eleyele Hg Works","alt_name":"","kind":"settlement","source":"grid3","ward":"Olopomewa","lga":"Ibadan North West","is_primary":0,"in_plate":1},"geometry":{"type":"Point","coordinates":[3.85326,7.41613]}},{"type":"Feature","properties":{"name":"Emmanuel Estate","alt_name":"","kind":"settlement","source":"grid3","ward":"Olopomewa","lga":"Ibadan North West","is_primary":0,"in_plate":1},"geometry":{"type":"Point","coordinates":[3.83023,7.42044]}},{"type":"Feature","properties":{"name":"Eruwa Garage","alt_name":"","kind":"settlement","source":"grid3","ward":"Olopomewa","lga":"Ibadan North West","is_primary":0,"in_plate":1},"geometry":{"type":"Point","coordinates":[3.85667,7.41766]}},{"type":"Feature","properties":{"name":"Expoyo","alt_name":"","kind":"settlement","source":"grid3","ward":"Samonda","lga":"Ibadan North","is_primary":0,"in_plate":1},"geometry":{"type":"Point","coordinates":[3.89869,7.42919]}},{"type":"Feature","properties":{"name":"Eyinni","alt_name":"","kind":"settlement","source":"grid3","ward":"Challenge","lga":"Ibadan South East","is_primary":0,"in_plate":1},"geometry":{"type":"Point","coordinates":[3.87521,7.33826]}},{"type":"Feature","properties":{"name":"Falana","alt_name":"","kind":"settlement","source":"grid3","ward":"Challenge","lga":"Ibadan South East","is_primary":0,"in_plate":1},"geometry":{"type":"Point","coordinates":[3.87792,7.34282]}},{"type":"Feature","properties":{"name":"Fasanya Area","alt_name":"","kind":"settlement","source":"grid3","ward":"Adesola","lga":"Ibadan South East","is_primary":0,"in_plate":1},"geometry":{"type":"Point","coordinates":[3.92178,7.36102]}},{"type":"Feature","properties":{"name":"Favours","alt_name":"","kind":"settlement","source":"grid3","ward":"Bashorun","lga":"Ibadan North","is_primary":0,"in_plate":1},"geometry":{"type":"Point","coordinates":[3.91118,7.41867]}},{"type":"Feature","properties":{"name":"Felele Bello","alt_name":"","kind":"settlement","source":"grid3","ward":"Challenge","lga":"Ibadan South East","is_primary":0,"in_plate":1},"geometry":{"type":"Point","coordinates":[3.88364,7.33558]}},{"type":"Feature","properties":{"name":"Fijabi","alt_name":"","kind":"settlement","source":"grid3","ward":"Beere\u2013Mapo","lga":"Ibadan South East","is_primary":0,"in_plate":1},"geometry":{"type":"Point","coordinates":[3.89435,7.37671]}},{"type":"Feature","properties":{"name":"Fire Challenge","alt_name":"","kind":"settlement","source":"grid3","ward":"Challenge","lga":"Ibadan South East","is_primary":0,"in_plate":1},"geometry":{"type":"Point","coordinates":[3.88273,7.35256]}},{"type":"Feature","properties":{"name":"First Power Line","alt_name":"","kind":"settlement","source":"grid3","ward":"Olopomewa","lga":"Ibadan North West","is_primary":0,"in_plate":1},"geometry":{"type":"Point","coordinates":[3.84694,7.42049]}},{"type":"Feature","properties":{"name":"Gbenla","alt_name":"","kind":"settlement","source":"grid3","ward":"Irefin","lga":"Ibadan North East","is_primary":0,"in_plate":1},"geometry":{"type":"Point","coordinates":[3.91406,7.39225]}},{"type":"Feature","properties":{"name":"Gege Olopa","alt_name":"","kind":"settlement","source":"grid3","ward":"Isale Osi\u2013Oja'ba","lga":"Ibadan South West","is_primary":0,"in_plate":1},"geometry":{"type":"Point","coordinates":[3.89118,7.3744]}},{"type":"Feature","properties":{"name":"Harmony Estate","alt_name":"","kind":"settlement","source":"grid3","ward":"Olopomewa","lga":"Ibadan North West","is_primary":0,"in_plate":1},"geometry":{"type":"Point","coordinates":[3.84249,7.41722]}},{"type":"Feature","properties":{"name":"Holy Trinity","alt_name":"","kind":"settlement","source":"grid3","ward":"Oke Adu","lga":"Ibadan North East","is_primary":0,"in_plate":1},"geometry":{"type":"Point","coordinates":[3.92915,7.39552]}},{"type":"Feature","properties":{"name":"Housing","alt_name":"","kind":"settlement","source":"grid3","ward":"Old Bodija","lga":"Ibadan North","is_primary":0,"in_plate":1},"geometry":{"type":"Point","coordinates":[3.90139,7.41962]}},{"type":"Feature","properties":{"name":"IDI Ape","alt_name":"","kind":"settlement","source":"grid3","ward":"Basorun","lga":"Ibadan North East","is_primary":0,"in_plate":1},"geometry":{"type":"Point","coordinates":[3.92686,7.403]}},{"type":"Feature","properties":{"name":"IDI Arere","alt_name":"","kind":"settlement","source":"grid3","ward":"Isale Osi\u2013Oja'ba","lga":"Ibadan South West","is_primary":0,"in_plate":1},"geometry":{"type":"Point","coordinates":[3.89536,7.36696]}},{"type":"Feature","properties":{"name":"IDI Arere","alt_name":"","kind":"settlement","source":"grid3","ward":"Oja'ba","lga":"Ibadan South East","is_primary":0,"in_plate":1},"geometry":{"type":"Point","coordinates":[3.896,7.37054]}},{"type":"Feature","properties":{"name":"IDI Aro","alt_name":"","kind":"settlement","source":"grid3","ward":"Ita-Ege","lga":"Ibadan South East","is_primary":0,"in_plate":1},"geometry":{"type":"Point","coordinates":[3.90468,7.36832]}},{"type":"Feature","properties":{"name":"IDI Ishin","alt_name":"","kind":"settlement","source":"grid3","ward":"Afonta","lga":"Ibadan North West","is_primary":0,"in_plate":1},"geometry":{"type":"Point","coordinates":[3.86044,7.39871]}},{"type":"Feature","properties":{"name":"IDI Obi","alt_name":"","kind":"settlement","source":"grid3","ward":"Agodi","lga":"Ibadan North","is_primary":0,"in_plate":1},"geometry":{"type":"Point","coordinates":[3.91258,7.40055]}},{"type":"Feature","properties":{"name":"IDI Obi","alt_name":"","kind":"settlement","source":"grid3","ward":"Agugu","lga":"Ibadan North East","is_primary":0,"in_plate":1},"geometry":{"type":"Point","coordinates":[3.92312,7.38459]}},{"type":"Feature","properties":{"name":"IDI Ogungun","alt_name":"","kind":"settlement","source":"grid3","ward":"Agodi","lga":"Ibadan North","is_primary":0,"in_plate":1},"geometry":{"type":"Point","coordinates":[3.91802,7.39499]}},{"type":"Feature","properties":{"name":"IDI Omo","alt_name":"Atenda","kind":"settlement","source":"grid3","ward":"Agodi","lga":"Ibadan North","is_primary":0,"in_plate":1},"geometry":{"type":"Point","coordinates":[3.91402,7.39365]}},{"type":"Feature","properties":{"name":"IDI Oro Ekotero","alt_name":"","kind":"settlement","source":"grid3","ward":"Ekotedo","lga":"Ibadan North West","is_primary":0,"in_plate":1},"geometry":{"type":"Point","coordinates":[3.88451,7.39097]}},{"type":"Feature","properties":{"name":"IDI Oro Elewa","alt_name":"","kind":"settlement","source":"grid3","ward":"Olopomewa","lga":"Ibadan North West","is_primary":0,"in_plate":1},"geometry":{"type":"Point","coordinates":[3.82775,7.43606]}},{"type":"Feature","properties":{"name":"IDI Osan","alt_name":"","kind":"settlement","source":"grid3","ward":"Olopomewa","lga":"Ibadan North West","is_primary":0,"in_plate":1},"geometry":{"type":"Point","coordinates":[3.84766,7.42899]}},{"type":"Feature","properties":{"name":"IDI Osan Via Adetokun","alt_name":"","kind":"settlement","source":"grid3","ward":"Olopomewa","lga":"Ibadan North West","is_primary":0,"in_plate":1},"geometry":{"type":"Point","coordinates":[3.85007,7.43013]}},{"type":"Feature","properties":{"name":"Ibadan Polytechnic","alt_name":"","kind":"settlement","source":"grid3","ward":"Samonda","lga":"Ibadan North","is_primary":0,"in_plate":1},"geometry":{"type":"Point","coordinates":[3.88369,7.43757]}},{"type":"Feature","properties":{"name":"Ibikunle","alt_name":"","kind":"settlement","source":"grid3","ward":"Oritamerin (nw)","lga":"Ibadan North West","is_primary":0,"in_plate":1},"geometry":{"type":"Point","coordinates":[3.89337,7.38187]}},{"type":"Feature","properties":{"name":"Idiaraba Koloko","alt_name":"","kind":"settlement","source":"grid3","ward":"Aperin","lga":"Ibadan North East","is_primary":0,"in_plate":1},"geometry":{"type":"Point","coordinates":[3.92628,7.3742]}},{"type":"Feature","properties":{"name":"Idikan","alt_name":"","kind":"settlement","source":"grid3","ward":"Idikan\u2013Olorisaoko","lga":"Ibadan North West","is_primary":0,"in_plate":1},"geometry":{"type":"Point","coordinates":[3.89104,7.38303]}},{"type":"Feature","properties":{"name":"Idioro Elewa Adetokan","alt_name":"","kind":"settlement","source":"grid3","ward":"Olopomewa","lga":"Ibadan North West","is_primary":0,"in_plate":1},"geometry":{"type":"Point","coordinates":[3.84546,7.42228]}},{"type":"Feature","properties":{"name":"Idiorogbo Adekinle Koloko","alt_name":"","kind":"settlement","source":"grid3","ward":"Aperin","lga":"Ibadan North East","is_primary":0,"in_plate":1},"geometry":{"type":"Point","coordinates":[3.92422,7.37029]}},{"type":"Feature","properties":{"name":"Idishin","alt_name":"","kind":"settlement","source":"grid3","ward":"Afonta","lga":"Ibadan North West","is_primary":0,"in_plate":1},"geometry":{"type":"Point","coordinates":[3.85478,7.40165]}},{"type":"Feature","properties":{"name":"Ifedapo","alt_name":"","kind":"settlement","source":"grid3","ward":"Aperin","lga":"Ibadan North East","is_primary":0,"in_plate":1},"geometry":{"type":"Point","coordinates":[3.93452,7.36681]}},{"type":"Feature","properties":{"name":"Ifelajulo Olorunshogo","alt_name":"","kind":"settlement","source":"grid3","ward":"Atipe","lga":"Ibadan North East","is_primary":0,"in_plate":1},"geometry":{"type":"Point","coordinates":[3.92999,7.36092]}},{"type":"Feature","properties":{"name":"Ifelajulo Toyinbo","alt_name":"","kind":"settlement","source":"grid3","ward":"Agugu","lga":"Ibadan North East","is_primary":0,"in_plate":1},"geometry":{"type":"Point","coordinates":[3.93832,7.37338]}},{"type":"Feature","properties":{"name":"Ifelodun Tioya","alt_name":"","kind":"settlement","source":"grid3","ward":"Atipe","lga":"Ibadan North East","is_primary":0,"in_plate":1},"geometry":{"type":"Point","coordinates":[3.93881,7.35942]}},{"type":"Feature","properties":{"name":"Ijaybbawo","alt_name":"","kind":"settlement","source":"grid3","ward":"Eleyele","lga":"Ibadan North West","is_primary":0,"in_plate":1},"geometry":{"type":"Point","coordinates":[3.86272,7.41205]}},{"type":"Feature","properties":{"name":"Ik Dairo","alt_name":"","kind":"settlement","source":"grid3","ward":"Oke Adu","lga":"Ibadan North East","is_primary":0,"in_plate":1},"geometry":{"type":"Point","coordinates":[3.92608,7.39671]}},{"type":"Feature","properties":{"name":"Ikolaba","alt_name":"","kind":"settlement","source":"grid3","ward":"Old Bodija","lga":"Ibadan North","is_primary":0,"in_plate":1},"geometry":{"type":"Point","coordinates":[3.91176,7.4123]}},{"type":"Feature","properties":{"name":"Ikolaba","alt_name":"","kind":"settlement","source":"grid3","ward":"Agodi","lga":"Ibadan North","is_primary":0,"in_plate":1},"geometry":{"type":"Point","coordinates":[3.92276,7.40494]}},{"type":"Feature","properties":{"name":"Ile Oke","alt_name":"","kind":"settlement","source":"grid3","ward":"Agodi","lga":"Ibadan North","is_primary":0,"in_plate":1},"geometry":{"type":"Point","coordinates":[3.91056,7.39326]}},{"type":"Feature","properties":{"name":"Ile Tuntun","alt_name":"","kind":"settlement","source":"grid3","ward":"Owode","lga":"Ibadan South East","is_primary":0,"in_plate":1},"geometry":{"type":"Point","coordinates":[3.90384,7.36186]}},{"type":"Feature","properties":{"name":"Iletuntun","alt_name":"","kind":"settlement","source":"grid3","ward":"Olopomewa","lga":"Ibadan North West","is_primary":0,"in_plate":1},"geometry":{"type":"Point","coordinates":[3.83577,7.41128]}},{"type":"Feature","properties":{"name":"Ilo","alt_name":"","kind":"settlement","source":"grid3","ward":"Alesinloye","lga":"Ibadan South West","is_primary":0,"in_plate":1},"geometry":{"type":"Point","coordinates":[3.86554,7.38033]}},{"type":"Feature","properties":{"name":"Imale N Falaafia","alt_name":"","kind":"settlement","source":"grid3","ward":"Oke Ado\u2013Liberty","lga":"Ibadan South West","is_primary":0,"in_plate":1},"geometry":{"type":"Point","coordinates":[3.88485,7.36457]}},{"type":"Feature","properties":{"name":"Inalende","alt_name":"","kind":"settlement","source":"grid3","ward":"Inalende","lga":"Ibadan North West","is_primary":0,"in_plate":1},"geometry":{"type":"Point","coordinates":[3.89105,7.39501]}},{"type":"Feature","properties":{"name":"Ire Akari","alt_name":"","kind":"settlement","source":"grid3","ward":"Nalende","lga":"Ibadan North","is_primary":0,"in_plate":1},"geometry":{"type":"Point","coordinates":[3.89116,7.39896]}},{"type":"Feature","properties":{"name":"Ire Akari Muslim","alt_name":"","kind":"settlement","source":"grid3","ward":"Odinjo","lga":"Ibadan South East","is_primary":0,"in_plate":1},"geometry":{"type":"Point","coordinates":[3.91788,7.35126]}},{"type":"Feature","properties":{"name":"Irefin","alt_name":"","kind":"settlement","source":"grid3","ward":"Oke Adu","lga":"Ibadan North East","is_primary":0,"in_plate":1},"geometry":{"type":"Point","coordinates":[3.91479,7.38869]}},{"type":"Feature","properties":{"name":"Irefin Area","alt_name":"","kind":"settlement","source":"grid3","ward":"Irefin","lga":"Ibadan North East","is_primary":0,"in_plate":1},"geometry":{"type":"Point","coordinates":[3.9108,7.39067]}},{"type":"Feature","properties":{"name":"Irepodun","alt_name":"","kind":"settlement","source":"grid3","ward":"Agugu","lga":"Ibadan North East","is_primary":0,"in_plate":1},"geometry":{"type":"Point","coordinates":[3.93707,7.37481]}},{"type":"Feature","properties":{"name":"Irewole","alt_name":"Eleruku","kind":"settlement","source":"grid3","ward":"Odeaje","lga":"Ibadan North East","is_primary":0,"in_plate":1},"geometry":{"type":"Point","coordinates":[3.92108,7.35068]}},{"type":"Feature","properties":{"name":"Isale Jebu","alt_name":"","kind":"settlement","source":"grid3","ward":"Isale Osi\u2013Oja'ba","lga":"Ibadan South West","is_primary":0,"in_plate":1},"geometry":{"type":"Point","coordinates":[3.89536,7.37292]}},{"type":"Feature","properties":{"name":"Isale Osi","alt_name":"Born Photo","kind":"settlement","source":"grid3","ward":"Isale Osi\u2013Oja'ba","lga":"Ibadan South West","is_primary":0,"in_plate":1},"geometry":{"type":"Point","coordinates":[3.89126,7.37388]}},{"type":"Feature","properties":{"name":"Isele Ijebu","alt_name":"","kind":"settlement","source":"grid3","ward":"Oja'ba","lga":"Ibadan South East","is_primary":0,"in_plate":1},"geometry":{"type":"Point","coordinates":[3.89599,7.36947]}},{"type":"Feature","properties":{"name":"Ite Titun","alt_name":"","kind":"settlement","source":"grid3","ward":"Odinjo","lga":"Ibadan South East","is_primary":0,"in_plate":1},"geometry":{"type":"Point","coordinates":[3.90869,7.35909]}},{"type":"Feature","properties":{"name":"Iyaganku","alt_name":"","kind":"settlement","source":"grid3","ward":"Alesinloye","lga":"Ibadan South West","is_primary":0,"in_plate":1},"geometry":{"type":"Point","coordinates":[3.8659,7.37014]}},{"type":"Feature","properties":{"name":"Iyaganku GRA","alt_name":"","kind":"settlement","source":"grid3","ward":"Alesinloye","lga":"Ibadan South West","is_primary":0,"in_plate":1},"geometry":{"type":"Point","coordinates":[3.8691,7.37926]}},{"type":"Feature","properties":{"name":"Iyana Ade Oyo","alt_name":"Ring Road","kind":"settlement","source":"grid3","ward":"Oke Ado\u2013Liberty","lga":"Ibadan South West","is_primary":0,"in_plate":1},"geometry":{"type":"Point","coordinates":[3.86902,7.36118]}},{"type":"Feature","properties":{"name":"Iyana Bodija","alt_name":"","kind":"settlement","source":"grid3","ward":"Agbowo","lga":"Ibadan North","is_primary":0,"in_plate":1},"geometry":{"type":"Point","coordinates":[3.92695,7.43811]}},{"type":"Feature","properties":{"name":"Jagun Alade","alt_name":"","kind":"settlement","source":"grid3","ward":"Aperin","lga":"Ibadan North East","is_primary":0,"in_plate":1},"geometry":{"type":"Point","coordinates":[3.92862,7.3647]}},{"type":"Feature","properties":{"name":"Jaleoyemi Semi Bio","alt_name":"","kind":"settlement","source":"grid3","ward":"Atipe","lga":"Ibadan North East","is_primary":0,"in_plate":1},"geometry":{"type":"Point","coordinates":[3.92365,7.35788]}},{"type":"Feature","properties":{"name":"Jebewon","alt_name":"Sabo","kind":"settlement","source":"grid3","ward":"Oke Itunu","lga":"Ibadan North","is_primary":0,"in_plate":1},"geometry":{"type":"Point","coordinates":[3.88758,7.40634]}},{"type":"Feature","properties":{"name":"Jericho","alt_name":"","kind":"village","source":"osm","ward":"Afonta","lga":"Ibadan North West","is_primary":0,"in_plate":1},"geometry":{"type":"Point","coordinates":[3.86476,7.39482]}},{"type":"Feature","properties":{"name":"Jesus Estate","alt_name":"","kind":"settlement","source":"grid3","ward":"Bashorun","lga":"Ibadan North","is_primary":0,"in_plate":1},"geometry":{"type":"Point","coordinates":[3.93366,7.42571]}},{"type":"Feature","properties":{"name":"Jonku 1","alt_name":"","kind":"settlement","source":"grid3","ward":"Basorun","lga":"Ibadan North East","is_primary":0,"in_plate":1},"geometry":{"type":"Point","coordinates":[3.9423,7.41314]}},{"type":"Feature","properties":{"name":"Kajola Area","alt_name":"","kind":"settlement","source":"grid3","ward":"Agbowo","lga":"Ibadan North","is_primary":0,"in_plate":1},"geometry":{"type":"Point","coordinates":[3.91802,7.44988]}},{"type":"Feature","properties":{"name":"Kodeti","alt_name":"","kind":"settlement","source":"grid3","ward":"Molete","lga":"Ibadan South East","is_primary":0,"in_plate":1},"geometry":{"type":"Point","coordinates":[3.9004,7.35919]}},{"type":"Feature","properties":{"name":"Koloko Arikeuyo","alt_name":"","kind":"settlement","source":"grid3","ward":"Aperin","lga":"Ibadan North East","is_primary":0,"in_plate":1},"geometry":{"type":"Point","coordinates":[3.92464,7.37183]}},{"type":"Feature","properties":{"name":"Kongi","alt_name":"","kind":"settlement","source":"grid3","ward":"Bashorun","lga":"Ibadan North","is_primary":0,"in_plate":1},"geometry":{"type":"Point","coordinates":[3.91117,7.42604]}},{"type":"Feature","properties":{"name":"Kufayaku","alt_name":"","kind":"settlement","source":"grid3","ward":"Odinjo","lga":"Ibadan South East","is_primary":0,"in_plate":1},"geometry":{"type":"Point","coordinates":[3.91893,7.34941]}},{"type":"Feature","properties":{"name":"Labo Junction","alt_name":"","kind":"settlement","source":"grid3","ward":"Asanike","lga":"Ibadan South East","is_primary":0,"in_plate":1},"geometry":{"type":"Point","coordinates":[3.90561,7.37099]}},{"type":"Feature","properties":{"name":"Ladoke Akintola","alt_name":"","kind":"settlement","source":"grid3","ward":"Bashorun","lga":"Ibadan North","is_primary":0,"in_plate":1},"geometry":{"type":"Point","coordinates":[3.91491,7.4164]}},{"type":"Feature","properties":{"name":"Letmauck Cantonment Nigerian Army Area","alt_name":"Polo","kind":"settlement","source":"grid3","ward":"Eleyele","lga":"Ibadan North West","is_primary":0,"in_plate":1},"geometry":{"type":"Point","coordinates":[3.87132,7.40325]}},{"type":"Feature","properties":{"name":"Liberty","alt_name":"","kind":"settlement","source":"grid3","ward":"Oke Ado\u2013Liberty","lga":"Ibadan South West","is_primary":0,"in_plate":1},"geometry":{"type":"Point","coordinates":[3.87252,7.36823]}},{"type":"Feature","properties":{"name":"Madeko Okikiade","alt_name":"","kind":"settlement","source":"grid3","ward":"Agugu","lga":"Ibadan North East","is_primary":0,"in_plate":1},"geometry":{"type":"Point","coordinates":[3.93674,7.37492]}},{"type":"Feature","properties":{"name":"Mapo","alt_name":"","kind":"settlement","source":"grid3","ward":"Beere\u2013Mapo","lga":"Ibadan South East","is_primary":0,"in_plate":1},"geometry":{"type":"Point","coordinates":[3.89586,7.37565]}},{"type":"Feature","properties":{"name":"Mbc Akinwande","alt_name":"","kind":"settlement","source":"grid3","ward":"Olopomewa","lga":"Ibadan North West","is_primary":0,"in_plate":1},"geometry":{"type":"Point","coordinates":[3.8574,7.41552]}},{"type":"Feature","properties":{"name":"Mechanic Village","alt_name":"","kind":"settlement","source":"grid3","ward":"Olopomewa","lga":"Ibadan North West","is_primary":0,"in_plate":1},"geometry":{"type":"Point","coordinates":[3.8489,7.41915]}},{"type":"Feature","properties":{"name":"Mercyland Estate","alt_name":"","kind":"settlement","source":"grid3","ward":"Eleyele","lga":"Ibadan North West","is_primary":0,"in_plate":1},"geometry":{"type":"Point","coordinates":[3.87363,7.41529]}},{"type":"Feature","properties":{"name":"Mile 110","alt_name":"","kind":"settlement","source":"grid3","ward":"Ring Road\u2013Challenge\u2013Oluyole","lga":"Ibadan South West","is_primary":0,"in_plate":1},"geometry":{"type":"Point","coordinates":[3.86042,7.37867]}},{"type":"Feature","properties":{"name":"Mobic","alt_name":"","kind":"settlement","source":"grid3","ward":"Oritamerin (sw)","lga":"Ibadan South West","is_primary":0,"in_plate":1},"geometry":{"type":"Point","coordinates":[3.84216,7.37156]}},{"type":"Feature","properties":{"name":"Mobil","alt_name":"Ring Road","kind":"settlement","source":"grid3","ward":"Oke Ado\u2013Liberty","lga":"Ibadan South West","is_primary":0,"in_plate":1},"geometry":{"type":"Point","coordinates":[3.86115,7.36764]}},{"type":"Feature","properties":{"name":"Mokola","alt_name":"Ago Ebira","kind":"settlement","source":"grid3","ward":"Ago Tapa","lga":"Ibadan North","is_primary":0,"in_plate":1},"geometry":{"type":"Point","coordinates":[3.89199,7.40462]}},{"type":"Feature","properties":{"name":"Mokola Ori Oke","alt_name":"","kind":"settlement","source":"grid3","ward":"Old Bodija","lga":"Ibadan North","is_primary":0,"in_plate":1},"geometry":{"type":"Point","coordinates":[3.90145,7.40375]}},{"type":"Feature","properties":{"name":"Mokore","alt_name":"","kind":"settlement","source":"grid3","ward":"Atipe","lga":"Ibadan North East","is_primary":0,"in_plate":1},"geometry":{"type":"Point","coordinates":[3.92779,7.36281]}},{"type":"Feature","properties":{"name":"Molete","alt_name":"","kind":"settlement","source":"grid3","ward":"Molete","lga":"Ibadan South East","is_primary":0,"in_plate":1},"geometry":{"type":"Point","coordinates":[3.89487,7.34534]}},{"type":"Feature","properties":{"name":"Molete","alt_name":"","kind":"settlement","source":"grid3","ward":"Popoyemoja","lga":"Ibadan South West","is_primary":0,"in_plate":1},"geometry":{"type":"Point","coordinates":[3.88756,7.36118]}},{"type":"Feature","properties":{"name":"Montala","alt_name":"","kind":"settlement","source":"grid3","ward":"Oke Adu","lga":"Ibadan North East","is_primary":0,"in_plate":1},"geometry":{"type":"Point","coordinates":[3.91862,7.39083]}},{"type":"Feature","properties":{"name":"Muslim","alt_name":"","kind":"settlement","source":"grid3","ward":"Odinjo","lga":"Ibadan South East","is_primary":0,"in_plate":1},"geometry":{"type":"Point","coordinates":[3.92014,7.35409]}},{"type":"Feature","properties":{"name":"Obasa","alt_name":"","kind":"settlement","source":"grid3","ward":"Old Bodija","lga":"Ibadan North","is_primary":0,"in_plate":1},"geometry":{"type":"Point","coordinates":[3.89737,7.41371]}},{"type":"Feature","properties":{"name":"Ode Jayi Area","alt_name":"","kind":"settlement","source":"grid3","ward":"Oke Adu","lga":"Ibadan North East","is_primary":0,"in_plate":1},"geometry":{"type":"Point","coordinates":[3.92415,7.39143]}},{"type":"Feature","properties":{"name":"Odejayi","alt_name":"","kind":"settlement","source":"grid3","ward":"Oke Adu","lga":"Ibadan North East","is_primary":0,"in_plate":1},"geometry":{"type":"Point","coordinates":[3.92407,7.3951]}},{"type":"Feature","properties":{"name":"Odinjo","alt_name":"","kind":"settlement","source":"grid3","ward":"Odinjo","lga":"Ibadan South East","is_primary":0,"in_plate":1},"geometry":{"type":"Point","coordinates":[3.91607,7.35917]}},{"type":"Feature","properties":{"name":"Odo Oba","alt_name":"","kind":"settlement","source":"grid3","ward":"Molete","lga":"Ibadan South East","is_primary":0,"in_plate":1},"geometry":{"type":"Point","coordinates":[3.90174,7.34647]}},{"type":"Feature","properties":{"name":"Odo Olo","alt_name":"","kind":"settlement","source":"grid3","ward":"Inalende","lga":"Ibadan North West","is_primary":0,"in_plate":1},"geometry":{"type":"Point","coordinates":[3.89059,7.39838]}},{"type":"Feature","properties":{"name":"Odo Ona","alt_name":"","kind":"settlement","source":"grid3","ward":"Apata\u2013Odo Ona","lga":"Ibadan South West","is_primary":0,"in_plate":1},"geometry":{"type":"Point","coordinates":[3.85477,7.37584]}},{"type":"Feature","properties":{"name":"Odo Osun","alt_name":"","kind":"settlement","source":"grid3","ward":"Odo Osun","lga":"Ibadan North East","is_primary":0,"in_plate":1},"geometry":{"type":"Point","coordinates":[3.90183,7.38076]}},{"type":"Feature","properties":{"name":"Odusanya","alt_name":"","kind":"settlement","source":"grid3","ward":"Ring Road\u2013Challenge\u2013Oluyole","lga":"Ibadan South West","is_primary":0,"in_plate":1},"geometry":{"type":"Point","coordinates":[3.87182,7.35525]}},{"type":"Feature","properties":{"name":"Ogbori Efon Adekinle","alt_name":"","kind":"settlement","source":"grid3","ward":"Aperin","lga":"Ibadan North East","is_primary":0,"in_plate":1},"geometry":{"type":"Point","coordinates":[3.91831,7.36935]}},{"type":"Feature","properties":{"name":"Ogundare Laoye","alt_name":"","kind":"settlement","source":"grid3","ward":"Odeaje","lga":"Ibadan North East","is_primary":0,"in_plate":1},"geometry":{"type":"Point","coordinates":[3.92833,7.34681]}},{"type":"Feature","properties":{"name":"Ogunpa","alt_name":"","kind":"settlement","source":"grid3","ward":"Ekotedo","lga":"Ibadan North West","is_primary":0,"in_plate":1},"geometry":{"type":"Point","coordinates":[3.88103,7.38867]}},{"type":"Feature","properties":{"name":"Oja Gbo","alt_name":"","kind":"settlement","source":"grid3","ward":"Oja Gbo","lga":"Ibadan North East","is_primary":0,"in_plate":1},"geometry":{"type":"Point","coordinates":[3.91004,7.37888]}},{"type":"Feature","properties":{"name":"Oja Oba","alt_name":"","kind":"settlement","source":"grid3","ward":"Oja'ba","lga":"Ibadan South East","is_primary":0,"in_plate":1},"geometry":{"type":"Point","coordinates":[3.89577,7.37397]}},{"type":"Feature","properties":{"name":"Oje","alt_name":"","kind":"settlement","source":"grid3","ward":"Oje","lga":"Ibadan North East","is_primary":0,"in_plate":1},"geometry":{"type":"Point","coordinates":[3.90823,7.38904]}},{"type":"Feature","properties":{"name":"Ojonusa Area Eleyele","alt_name":"","kind":"settlement","source":"grid3","ward":"Olopomewa","lga":"Ibadan North West","is_primary":0,"in_plate":1},"geometry":{"type":"Point","coordinates":[3.85553,7.41703]}},{"type":"Feature","properties":{"name":"Oju Odo","alt_name":"","kind":"settlement","source":"grid3","ward":"Aperin","lga":"Ibadan North East","is_primary":0,"in_plate":1},"geometry":{"type":"Point","coordinates":[3.92423,7.3759]}},{"type":"Feature","properties":{"name":"Oju Odo Elta","alt_name":"","kind":"settlement","source":"grid3","ward":"Odinjo","lga":"Ibadan South East","is_primary":0,"in_plate":1},"geometry":{"type":"Point","coordinates":[3.91401,7.35197]}},{"type":"Feature","properties":{"name":"Oke","alt_name":"","kind":"settlement","source":"grid3","ward":"Oke Adu","lga":"Ibadan North East","is_primary":0,"in_plate":1},"geometry":{"type":"Point","coordinates":[3.92682,7.38866]}},{"type":"Feature","properties":{"name":"Oke Ado 1","alt_name":"","kind":"settlement","source":"grid3","ward":"Oke Ado\u2013Liberty","lga":"Ibadan South West","is_primary":0,"in_plate":1},"geometry":{"type":"Point","coordinates":[3.87499,7.36804]}},{"type":"Feature","properties":{"name":"Oke Ado 2","alt_name":"Imalefalafia","kind":"settlement","source":"grid3","ward":"Oke Ado\u2013Liberty","lga":"Ibadan South West","is_primary":0,"in_plate":1},"geometry":{"type":"Point","coordinates":[3.87364,7.36279]}},{"type":"Feature","properties":{"name":"Oke Alaro","alt_name":"","kind":"settlement","source":"grid3","ward":"Ring Road\u2013Challenge\u2013Oluyole","lga":"Ibadan South West","is_primary":0,"in_plate":1},"geometry":{"type":"Point","coordinates":[3.84507,7.35143]}},{"type":"Feature","properties":{"name":"Oke Are","alt_name":"","kind":"settlement","source":"grid3","ward":"Oke Are","lga":"Ibadan North","is_primary":0,"in_plate":1},"geometry":{"type":"Point","coordinates":[3.89798,7.38363]}},{"type":"Feature","properties":{"name":"Oke Aremo","alt_name":"","kind":"settlement","source":"grid3","ward":"Yemetu","lga":"Ibadan North","is_primary":0,"in_plate":1},"geometry":{"type":"Point","coordinates":[3.90047,7.38997]}},{"type":"Feature","properties":{"name":"Oke Bola","alt_name":"","kind":"settlement","source":"grid3","ward":"Molete\u2013Oke Ado","lga":"Ibadan South West","is_primary":0,"in_plate":1},"geometry":{"type":"Point","coordinates":[3.88097,7.38202]}},{"type":"Feature","properties":{"name":"Oke Bola","alt_name":"","kind":"settlement","source":"grid3","ward":"Alesinloye","lga":"Ibadan South West","is_primary":0,"in_plate":1},"geometry":{"type":"Point","coordinates":[3.87757,7.38334]}},{"type":"Feature","properties":{"name":"Oke Odo","alt_name":"","kind":"settlement","source":"grid3","ward":"Oke-Oluokun","lga":"Ibadan South East","is_primary":0,"in_plate":1},"geometry":{"type":"Point","coordinates":[3.9024,7.36264]}},{"type":"Feature","properties":{"name":"Oke Offa Baba Sale","alt_name":"","kind":"settlement","source":"grid3","ward":"Oke Adu","lga":"Ibadan North East","is_primary":0,"in_plate":1},"geometry":{"type":"Point","coordinates":[3.91452,7.38758]}},{"type":"Feature","properties":{"name":"Oke Padre","alt_name":"","kind":"settlement","source":"grid3","ward":"Ekotedo","lga":"Ibadan North West","is_primary":0,"in_plate":1},"geometry":{"type":"Point","coordinates":[3.88612,7.38722]}},{"type":"Feature","properties":{"name":"Okerorun","alt_name":"","kind":"settlement","source":"grid3","ward":"Owode","lga":"Ibadan South East","is_primary":0,"in_plate":1},"geometry":{"type":"Point","coordinates":[3.90804,7.35002]}},{"type":"Feature","properties":{"name":"Okiki Ade Babanla","alt_name":"","kind":"settlement","source":"grid3","ward":"Agugu","lga":"Ibadan North East","is_primary":0,"in_plate":1},"geometry":{"type":"Point","coordinates":[3.93925,7.37349]}},{"type":"Feature","properties":{"name":"Okoro","alt_name":"","kind":"settlement","source":"grid3","ward":"Sango","lga":"Ibadan North","is_primary":0,"in_plate":1},"geometry":{"type":"Point","coordinates":[3.8832,7.42085]}},{"type":"Feature","properties":{"name":"Olarewaju Obirin","alt_name":"","kind":"settlement","source":"grid3","ward":"Odinjo","lga":"Ibadan South East","is_primary":0,"in_plate":1},"geometry":{"type":"Point","coordinates":[3.91956,7.35479]}},{"type":"Feature","properties":{"name":"Oloode Oja","alt_name":"","kind":"settlement","source":"grid3","ward":"Owode","lga":"Ibadan South East","is_primary":0,"in_plate":1},"geometry":{"type":"Point","coordinates":[3.9133,7.34881]}},{"type":"Feature","properties":{"name":"Olori Isa Oko","alt_name":"","kind":"settlement","source":"grid3","ward":"Idikan\u2013Olorisaoko","lga":"Ibadan North West","is_primary":0,"in_plate":1},"geometry":{"type":"Point","coordinates":[3.89244,7.38531]}},{"type":"Feature","properties":{"name":"Oloronbo","alt_name":"","kind":"settlement","source":"grid3","ward":"Basorun","lga":"Ibadan North East","is_primary":0,"in_plate":1},"geometry":{"type":"Point","coordinates":[3.93969,7.41505]}},{"type":"Feature","properties":{"name":"Olorunnisola Community","alt_name":"Ajadi Second Gate","kind":"settlement","source":"grid3","ward":"Olopomewa","lga":"Ibadan North West","is_primary":0,"in_plate":1},"geometry":{"type":"Point","coordinates":[3.83729,7.43356]}},{"type":"Feature","properties":{"name":"Olorunsogo","alt_name":"Molete","kind":"settlement","source":"grid3","ward":"Challenge","lga":"Ibadan South East","is_primary":0,"in_plate":1},"geometry":{"type":"Point","coordinates":[3.88508,7.35266]}},{"type":"Feature","properties":{"name":"Olorunsogo Ibadan North East","alt_name":"","kind":"settlement","source":"grid3","ward":"Atipe","lga":"Ibadan North East","is_primary":0,"in_plate":1},"geometry":{"type":"Point","coordinates":[3.9287,7.36232]}},{"type":"Feature","properties":{"name":"Olorunsogo Road","alt_name":"","kind":"settlement","source":"grid3","ward":"Atipe","lga":"Ibadan North East","is_primary":0,"in_plate":1},"geometry":{"type":"Point","coordinates":[3.93449,7.35804]}},{"type":"Feature","properties":{"name":"Olunloyo","alt_name":"","kind":"settlement","source":"grid3","ward":"Kobomoje","lga":"Ibadan South East","is_primary":0,"in_plate":1},"geometry":{"type":"Point","coordinates":[3.89943,7.36903]}},{"type":"Feature","properties":{"name":"Olunloyo","alt_name":"","kind":"settlement","source":"grid3","ward":"Oke-Oluokun","lga":"Ibadan South East","is_primary":0,"in_plate":1},"geometry":{"type":"Point","coordinates":[3.90005,7.36558]}},{"type":"Feature","properties":{"name":"Oluseyi","alt_name":"","kind":"settlement","source":"grid3","ward":"Olopomewa","lga":"Ibadan North West","is_primary":0,"in_plate":1},"geometry":{"type":"Point","coordinates":[3.86977,7.42031]}},{"type":"Feature","properties":{"name":"Oluwo Kekere","alt_name":"","kind":"settlement","source":"grid3","ward":"Bashorun","lga":"Ibadan North","is_primary":0,"in_plate":1},"geometry":{"type":"Point","coordinates":[3.92334,7.41461]}},{"type":"Feature","properties":{"name":"Oluwonla","alt_name":"","kind":"settlement","source":"grid3","ward":"Bashorun","lga":"Ibadan North","is_primary":0,"in_plate":1},"geometry":{"type":"Point","coordinates":[3.93283,7.41476]}},{"type":"Feature","properties":{"name":"Oluyemi Avenue","alt_name":"","kind":"settlement","source":"grid3","ward":"Afonta","lga":"Ibadan North West","is_primary":0,"in_plate":1},"geometry":{"type":"Point","coordinates":[3.85658,7.40103]}},{"type":"Feature","properties":{"name":"Oluyole","alt_name":"Ring Road","kind":"settlement","source":"grid3","ward":"Oritamerin (sw)","lga":"Ibadan South West","is_primary":0,"in_plate":1},"geometry":{"type":"Point","coordinates":[3.84188,7.3652]}},{"type":"Feature","properties":{"name":"Oluyole Estate","alt_name":"","kind":"settlement","source":"grid3","ward":"Apata\u2013Odo Ona","lga":"Ibadan South West","is_primary":0,"in_plate":1},"geometry":{"type":"Point","coordinates":[3.84845,7.37171]}},{"type":"Feature","properties":{"name":"Oluyole Industrial Area","alt_name":"","kind":"settlement","source":"grid3","ward":"Ring Road\u2013Challenge\u2013Oluyole","lga":"Ibadan South West","is_primary":0,"in_plate":1},"geometry":{"type":"Point","coordinates":[3.84714,7.35539]}},{"type":"Feature","properties":{"name":"Oluyole Industrial Estate","alt_name":"","kind":"settlement","source":"grid3","ward":"Ring Road\u2013Challenge\u2013Oluyole","lga":"Ibadan South West","is_primary":0,"in_plate":1},"geometry":{"type":"Point","coordinates":[3.8444,7.36124]}},{"type":"Feature","properties":{"name":"Oluyoro Oke Offa","alt_name":"","kind":"settlement","source":"grid3","ward":"Oke Adu","lga":"Ibadan North East","is_primary":0,"in_plate":1},"geometry":{"type":"Point","coordinates":[3.91755,7.38692]}},{"type":"Feature","properties":{"name":"Omitowoju","alt_name":"","kind":"settlement","source":"grid3","ward":"Ekotedo","lga":"Ibadan North West","is_primary":0,"in_plate":1},"geometry":{"type":"Point","coordinates":[3.88745,7.39513]}},{"type":"Feature","properties":{"name":"Omolewa Area","alt_name":"","kind":"settlement","source":"grid3","ward":"Yemetu","lga":"Ibadan North","is_primary":0,"in_plate":1},"geometry":{"type":"Point","coordinates":[3.90498,7.39664]}},{"type":"Feature","properties":{"name":"One Iye Area","alt_name":"","kind":"settlement","source":"grid3","ward":"Olopomewa","lga":"Ibadan North West","is_primary":0,"in_plate":1},"geometry":{"type":"Point","coordinates":[3.8508,7.41774]}},{"type":"Feature","properties":{"name":"One Molete","alt_name":"Molete","kind":"settlement","source":"grid3","ward":"Ring Road\u2013Challenge\u2013Oluyole","lga":"Ibadan South West","is_primary":0,"in_plate":1},"geometry":{"type":"Point","coordinates":[3.88342,7.35602]}},{"type":"Feature","properties":{"name":"Oni Area","alt_name":"","kind":"settlement","source":"grid3","ward":"Yemetu","lga":"Ibadan North","is_primary":0,"in_plate":1},"geometry":{"type":"Point","coordinates":[3.90378,7.39477]}},{"type":"Feature","properties":{"name":"Onireke","alt_name":"","kind":"settlement","source":"grid3","ward":"Afonta","lga":"Ibadan North West","is_primary":0,"in_plate":1},"geometry":{"type":"Point","coordinates":[3.87959,7.3929]}},{"type":"Feature","properties":{"name":"Onireke Quarters","alt_name":"","kind":"settlement","source":"grid3","ward":"Afonta","lga":"Ibadan North West","is_primary":0,"in_plate":1},"geometry":{"type":"Point","coordinates":[3.88019,7.39492]}},{"type":"Feature","properties":{"name":"Onitiju","alt_name":"","kind":"settlement","source":"grid3","ward":"Adesola","lga":"Ibadan South East","is_primary":0,"in_plate":1},"geometry":{"type":"Point","coordinates":[3.92099,7.36319]}},{"type":"Feature","properties":{"name":"Oniuu","alt_name":"","kind":"settlement","source":"grid3","ward":"Olopomewa","lga":"Ibadan North West","is_primary":0,"in_plate":1},"geometry":{"type":"Point","coordinates":[3.8608,7.41539]}},{"type":"Feature","properties":{"name":"Oniyanri","alt_name":"","kind":"settlement","source":"grid3","ward":"Abebi","lga":"Ibadan North West","is_primary":0,"in_plate":1},"geometry":{"type":"Point","coordinates":[3.89313,7.38979]}},{"type":"Feature","properties":{"name":"Oniyedu Olorunshogo","alt_name":"","kind":"settlement","source":"grid3","ward":"Aperin","lga":"Ibadan North East","is_primary":0,"in_plate":1},"geometry":{"type":"Point","coordinates":[3.92987,7.36211]}},{"type":"Feature","properties":{"name":"Opo Yeosa","alt_name":"","kind":"settlement","source":"grid3","ward":"Nalende","lga":"Ibadan North","is_primary":0,"in_plate":1},"geometry":{"type":"Point","coordinates":[3.89362,7.38602]}},{"type":"Feature","properties":{"name":"Opoyeosa","alt_name":"","kind":"settlement","source":"grid3","ward":"Asukuna","lga":"Ibadan North West","is_primary":0,"in_plate":1},"geometry":{"type":"Point","coordinates":[3.89387,7.38309]}},{"type":"Feature","properties":{"name":"Oranyan","alt_name":"","kind":"settlement","source":"grid3","ward":"Molete","lga":"Ibadan South East","is_primary":0,"in_plate":1},"geometry":{"type":"Point","coordinates":[3.90072,7.3544]}},{"type":"Feature","properties":{"name":"Oranyan","alt_name":"","kind":"settlement","source":"grid3","ward":"Oja Gbo","lga":"Ibadan North East","is_primary":0,"in_plate":1},"geometry":{"type":"Point","coordinates":[3.90594,7.37297]}},{"type":"Feature","properties":{"name":"Oranyan","alt_name":"","kind":"settlement","source":"grid3","ward":"Oranyan (ne)","lga":"Ibadan North East","is_primary":0,"in_plate":1},"geometry":{"type":"Point","coordinates":[3.90112,7.37578]}},{"type":"Feature","properties":{"name":"Oranyan","alt_name":"","kind":"settlement","source":"grid3","ward":"Oranyan (se)","lga":"Ibadan South East","is_primary":0,"in_plate":1},"geometry":{"type":"Point","coordinates":[3.90129,7.37311]}},{"type":"Feature","properties":{"name":"Oremeji Olusogo","alt_name":"","kind":"settlement","source":"grid3","ward":"Oke Itunu","lga":"Ibadan North","is_primary":0,"in_plate":1},"geometry":{"type":"Point","coordinates":[3.89116,7.41229]}},{"type":"Feature","properties":{"name":"Ori Eru","alt_name":"","kind":"settlement","source":"grid3","ward":"Oritamerin (nw)","lga":"Ibadan North West","is_primary":0,"in_plate":1},"geometry":{"type":"Point","coordinates":[3.8913,7.38062]}},{"type":"Feature","properties":{"name":"Orita Challenge","alt_name":"","kind":"settlement","source":"grid3","ward":"Challenge","lga":"Ibadan South East","is_primary":0,"in_plate":1},"geometry":{"type":"Point","coordinates":[3.87043,7.33752]}},{"type":"Feature","properties":{"name":"Orita Mefa","alt_name":"UCH Area","kind":"settlement","source":"grid3","ward":"Old Bodija","lga":"Ibadan North","is_primary":0,"in_plate":1},"geometry":{"type":"Point","coordinates":[3.90332,7.40118]}},{"type":"Feature","properties":{"name":"Orita Merin","alt_name":"","kind":"settlement","source":"grid3","ward":"Agbaje\u2013Idikan","lga":"Ibadan North West","is_primary":0,"in_plate":1},"geometry":{"type":"Point","coordinates":[3.89322,7.37789]}},{"type":"Feature","properties":{"name":"Oritamerin","alt_name":"","kind":"settlement","source":"grid3","ward":"Agbaje\u2013Idikan","lga":"Ibadan North West","is_primary":0,"in_plate":1},"geometry":{"type":"Point","coordinates":[3.89193,7.37721]}},{"type":"Feature","properties":{"name":"Oritamerin Ttoya","alt_name":"","kind":"settlement","source":"grid3","ward":"Atipe","lga":"Ibadan North East","is_primary":0,"in_plate":1},"geometry":{"type":"Point","coordinates":[3.93836,7.35809]}},{"type":"Feature","properties":{"name":"Oriya Ui Samonda","alt_name":"Samonda","kind":"settlement","source":"grid3","ward":"Samonda","lga":"Ibadan North","is_primary":0,"in_plate":1},"geometry":{"type":"Point","coordinates":[3.90673,7.43828]}},{"type":"Feature","properties":{"name":"Oshibodu","alt_name":"","kind":"settlement","source":"grid3","ward":"Molete","lga":"Ibadan South East","is_primary":0,"in_plate":1},"geometry":{"type":"Point","coordinates":[3.88905,7.34981]}},{"type":"Feature","properties":{"name":"Ososami","alt_name":"","kind":"settlement","source":"grid3","ward":"Oke Ado\u2013Liberty","lga":"Ibadan South West","is_primary":0,"in_plate":1},"geometry":{"type":"Point","coordinates":[3.87052,7.36059]}},{"type":"Feature","properties":{"name":"Osuntokun","alt_name":"","kind":"settlement","source":"grid3","ward":"Bashorun","lga":"Ibadan North","is_primary":0,"in_plate":1},"geometry":{"type":"Point","coordinates":[3.91034,7.42345]}},{"type":"Feature","properties":{"name":"Owode","alt_name":"","kind":"settlement","source":"grid3","ward":"Owode","lga":"Ibadan South East","is_primary":0,"in_plate":1},"geometry":{"type":"Point","coordinates":[3.91231,7.35052]}},{"type":"Feature","properties":{"name":"Owode Ibadan South East","alt_name":"","kind":"settlement","source":"grid3","ward":"Odinjo","lga":"Ibadan South East","is_primary":0,"in_plate":1},"geometry":{"type":"Point","coordinates":[3.91517,7.34753]}},{"type":"Feature","properties":{"name":"Oxygen Tutors Area","alt_name":"","kind":"settlement","source":"grid3","ward":"Olopomewa","lga":"Ibadan North West","is_primary":0,"in_plate":1},"geometry":{"type":"Point","coordinates":[3.85081,7.41614]}},{"type":"Feature","properties":{"name":"Oyelakin Irepodun","alt_name":"","kind":"settlement","source":"grid3","ward":"Atipe","lga":"Ibadan North East","is_primary":0,"in_plate":1},"geometry":{"type":"Point","coordinates":[3.9263,7.35614]}},{"type":"Feature","properties":{"name":"Railway Quarters","alt_name":"","kind":"settlement","source":"grid3","ward":"Afonta","lga":"Ibadan North West","is_primary":0,"in_plate":1},"geometry":{"type":"Point","coordinates":[3.87378,7.39151]}},{"type":"Feature","properties":{"name":"Ring Road","alt_name":"","kind":"settlement","source":"grid3","ward":"Ring Road\u2013Challenge\u2013Oluyole","lga":"Ibadan South West","is_primary":0,"in_plate":1},"geometry":{"type":"Point","coordinates":[3.8696,7.36001]}},{"type":"Feature","properties":{"name":"S T Phase 2","alt_name":"","kind":"settlement","source":"grid3","ward":"Eleyele","lga":"Ibadan North West","is_primary":0,"in_plate":1},"geometry":{"type":"Point","coordinates":[3.87034,7.40424]}},{"type":"Feature","properties":{"name":"Salami Estate","alt_name":"","kind":"settlement","source":"grid3","ward":"Bashorun","lga":"Ibadan North","is_primary":0,"in_plate":1},"geometry":{"type":"Point","coordinates":[3.92093,7.41866]}},{"type":"Feature","properties":{"name":"Sango","alt_name":"Bembo","kind":"settlement","source":"grid3","ward":"Sango","lga":"Ibadan North","is_primary":0,"in_plate":1},"geometry":{"type":"Point","coordinates":[3.89593,7.42609]}},{"type":"Feature","properties":{"name":"Sapayi","alt_name":"","kind":"settlement","source":"grid3","ward":"Beere\u2013Mapo","lga":"Ibadan South East","is_primary":0,"in_plate":1},"geometry":{"type":"Point","coordinates":[3.89357,7.37769]}},{"type":"Feature","properties":{"name":"Save and Serve","alt_name":"","kind":"settlement","source":"grid3","ward":"Olopomewa","lga":"Ibadan North West","is_primary":0,"in_plate":1},"geometry":{"type":"Point","coordinates":[3.85131,7.41607]}},{"type":"Feature","properties":{"name":"St Anthony Close","alt_name":"","kind":"settlement","source":"grid3","ward":"Olopomewa","lga":"Ibadan North West","is_primary":0,"in_plate":1},"geometry":{"type":"Point","coordinates":[3.85418,7.41659]}},{"type":"Feature","properties":{"name":"Surulere","alt_name":"","kind":"settlement","source":"grid3","ward":"Aperin","lga":"Ibadan North East","is_primary":0,"in_plate":1},"geometry":{"type":"Point","coordinates":[3.92531,7.36947]}},{"type":"Feature","properties":{"name":"Tctc","alt_name":"Idi Ope","kind":"settlement","source":"grid3","ward":"Eleyele","lga":"Ibadan North West","is_primary":0,"in_plate":1},"geometry":{"type":"Point","coordinates":[3.86318,7.41343]}},{"type":"Feature","properties":{"name":"Temidire Odo Oba","alt_name":"","kind":"settlement","source":"grid3","ward":"Molete","lga":"Ibadan South East","is_primary":0,"in_plate":1},"geometry":{"type":"Point","coordinates":[3.90147,7.35034]}},{"type":"Feature","properties":{"name":"Testing Ground","alt_name":"","kind":"settlement","source":"grid3","ward":"Basorun","lga":"Ibadan North East","is_primary":0,"in_plate":1},"geometry":{"type":"Point","coordinates":[3.92789,7.40228]}},{"type":"Feature","properties":{"name":"Tewogbade","alt_name":"","kind":"settlement","source":"grid3","ward":"Ita-Ege","lga":"Ibadan South East","is_primary":0,"in_plate":1},"geometry":{"type":"Point","coordinates":[3.90213,7.36643]}},{"type":"Feature","properties":{"name":"Tioya Ogbere","alt_name":"","kind":"settlement","source":"grid3","ward":"Atipe","lga":"Ibadan North East","is_primary":0,"in_plate":1},"geometry":{"type":"Point","coordinates":[3.93834,7.35687]}},{"type":"Feature","properties":{"name":"Total Garden","alt_name":"","kind":"settlement","source":"grid3","ward":"Agodi","lga":"Ibadan North","is_primary":0,"in_plate":1},"geometry":{"type":"Point","coordinates":[3.91006,7.39817]}},{"type":"Feature","properties":{"name":"Town Planning","alt_name":"Foko Layout","kind":"settlement","source":"grid3","ward":"Ring Road\u2013Challenge\u2013Oluyole","lga":"Ibadan South West","is_primary":0,"in_plate":1},"geometry":{"type":"Point","coordinates":[3.85839,7.37245]}},{"type":"Feature","properties":{"name":"U I","alt_name":"","kind":"settlement","source":"grid3","ward":"Samonda","lga":"Ibadan North","is_primary":0,"in_plate":1},"geometry":{"type":"Point","coordinates":[3.90625,7.44262]}},{"type":"Feature","properties":{"name":"Unity Layout","alt_name":"","kind":"settlement","source":"grid3","ward":"Olopomewa","lga":"Ibadan North West","is_primary":0,"in_plate":1},"geometry":{"type":"Point","coordinates":[3.85568,7.41584]}},{"type":"Feature","properties":{"name":"Veterinary","alt_name":"","kind":"settlement","source":"grid3","ward":"Oke Itunu","lga":"Ibadan North","is_primary":0,"in_plate":1},"geometry":{"type":"Point","coordinates":[3.88972,7.41198]}},{"type":"Feature","properties":{"name":"Yejide","alt_name":"","kind":"settlement","source":"grid3","ward":"Molete","lga":"Ibadan South East","is_primary":0,"in_plate":1},"geometry":{"type":"Point","coordinates":[3.89461,7.35983]}},{"type":"Feature","properties":{"name":"Yemetu","alt_name":"","kind":"settlement","source":"grid3","ward":"Yemetu","lga":"Ibadan North","is_primary":0,"in_plate":1},"geometry":{"type":"Point","coordinates":[3.90064,7.39374]}},{"type":"Feature","properties":{"name":"Yemetu Igosun","alt_name":"","kind":"settlement","source":"grid3","ward":"Yemetu","lga":"Ibadan North","is_primary":0,"in_plate":1},"geometry":{"type":"Point","coordinates":[3.90671,7.39163]}}]}