{"type":"FeatureCollection","features":[{"type":"Feature","properties":{"name":"Abuja"},"geometry":{"type":"Polygon","coordinates":[[[7.335746307446185,8.939185282075128],[7.332822846197417,8.943200217216315],[7.331147204180183,8.945137230998455],[7.329828082200264,8.945771162209441],[7.328268680255462,8.947916934718819],[7.322094330788787,8.956693737825791],[7.3124254496748335,8.972757561312449],[7.314955092403636,8.97847119708814],[7.317843436925101,8.98369338394258],[7.320575123143441,8.993032891954442],[7.321155928703206,8.994030979346288],[7.322758062834396,8.994034811357492],[7.323149847987168,8.994653732883538],[7.322619694043682,8.995904905686865],[7.321613012730382,8.997396087759286],[7.320860435760552,8.999781927993638],[7.323352315956641,9.003224647899234],[7.330719415568638,9.009610347039938],[7.337325502569913,9.011950216629257],[7.345203691397274,9.018791803698832],[7.353147122441784,9.023651438762947],[7.375881561984556,9.030558310317817],[7.382384884354963,9.027656214262942],[7.3934880348450065,9.024587033165117],[7.407764329859958,9.024622508721848],[7.410878643434671,9.025889802772213],[7.412045286260991,9.036249057448114],[7.402535316251886,9.038521888874133],[7.398313933641191,9.040265251640111],[7.39219854282851,9.042173383694774],[7.388291850988195,9.043054959418898],[7.389095362860758,9.045411514130135],[7.389578047888619,9.049642040148052],[7.390203094697085,9.054368731132053],[7.391721547811243,9.058443222976392],[7.3881758015720616,9.059143928849267],[7.387161597429839,9.057600932337209],[7.385732991984014,9.056956933215933],[7.384793631221157,9.060836532979636],[7.38414111911743,9.06212583613848],[7.382089002005898,9.063516507281006],[7.380659526016359,9.064137135720273],[7.37983956914087,9.065192048574204],[7.3788817363031285,9.065575011377746],[7.377558297577424,9.065014312860283],[7.3745523648997855,9.065681995627642],[7.371592508987135,9.065994960599026],[7.370075671954737,9.065948433273604],[7.368675422133095,9.065987459353835],[7.367666588742111,9.066278789334717],[7.36651016221424,9.066707130129998],[7.366005611969456,9.067036325166328],[7.365329633855596,9.067649328253935],[7.364107722293625,9.068674485239342],[7.363473102201965,9.069178732412638],[7.362419107555809,9.069652610379702],[7.360517211400235,9.07029637477791],[7.35995322406211,9.070442323054806],[7.359069759761667,9.070463127971037],[7.355629515689657,9.070041062644968],[7.354558933947715,9.069929231948544],[7.349909053160332,9.071169274742262],[7.345285146592289,9.073176199122315],[7.341703385203118,9.074535696165468],[7.339505265855394,9.075549083723278],[7.333687726907102,9.077488680358389],[7.329311176169881,9.079001749231393],[7.32765031900709,9.079991366808201],[7.325899135736564,9.081248587552295],[7.323503786070945,9.083582019794452],[7.321820186852165,9.084512606771455],[7.318741540389852,9.085719035605052],[7.318056242601586,9.08624157319008],[7.319182363775099,9.086617881010454],[7.3200340811080205,9.086537975347312],[7.320636306720246,9.087341926988419],[7.32079182198504,9.089109301653027],[7.31889679664988,9.091020378088047],[7.318509618723966,9.0917396189883],[7.318694335874966,9.092893626339844],[7.318092815331226,9.093923032621886],[7.318039336246442,9.094691068937719],[7.320290681070105,9.097894196859722],[7.321114064362632,9.098383244591105],[7.320915518336562,9.099195692127516],[7.317942257129516,9.10176782332644],[7.316446201630924,9.103013630774512],[7.314906615348093,9.103705084422131],[7.314515742107857,9.104242997716197],[7.314741973763149,9.1055029982648],[7.315402338746992,9.10683819202899],[7.315353107160207,9.108544741047012],[7.315177671012748,9.110811003824836],[7.315594052623454,9.114711652221049],[7.315839806761745,9.117402317662881],[7.315595308976356,9.118196457700435],[7.313961162577641,9.118363881787786],[7.313565650634303,9.1188866837735],[7.314148739572716,9.120872787049507],[7.315237602733248,9.121432290367977],[7.31570467912769,9.12222138880611],[7.315347552947287,9.123099452677653],[7.3145649853858,9.123624803342068],[7.314240789680753,9.124517749194808],[7.314737883646445,9.125119776956183],[7.318211838805383,9.12461376441377],[7.318741981057656,9.125288552724555],[7.319203086853008,9.127436869416048],[7.320084518685633,9.128583103927157],[7.31987301342889,9.130764428435663],[7.320896119960026,9.131683136267782],[7.322064029031766,9.134261559123729],[7.322448846237308,9.13553784459589],[7.3241834244255415,9.136586746381283],[7.324989901362926,9.13733473680872],[7.325841355194427,9.137024348395014],[7.326688357381841,9.135872071339062],[7.327434414266861,9.135699995958078],[7.3285360630889045,9.136667143973566],[7.329889782887222,9.137612319752808],[7.330091045765187,9.139079541187925],[7.3316829923762725,9.142314087824955],[7.323942722678567,9.141420941423343],[7.323578384834661,9.141363413590737],[7.303156366673022,9.138138845831117],[7.288854350148199,9.137109160759227],[7.282378813231674,9.135622326908905],[7.277710402812886,9.132797326135742],[7.271385460070974,9.126403821778979],[7.260241512735661,9.113467777416018],[7.253765976718512,9.106776535408814],[7.2492572400296345,9.102459501804617],[7.24222538969002,9.100153883794746],[7.218133446001786,9.092270211800894],[7.218101172930858,9.094730857643015],[7.217990416024919,9.096201456931736],[7.217773432098284,9.098069283170961],[7.2178197669687165,9.09904136576648],[7.217917050231733,9.101082325888681],[7.218821244804645,9.104270803854543],[7.219677850852179,9.10617437364846],[7.220701019436547,9.107721024106015],[7.222584322108844,9.11107132428225],[7.222961506768173,9.111742312058077],[7.221761165445457,9.11360126288804],[7.221004639552519,9.115264279323071],[7.2221415579865615,9.116864033848117],[7.233980942066865,9.133523209428631],[7.249756813426245,9.155721663823783],[7.265378651603556,9.177633873904199],[7.28195947375076,9.171921291234638],[7.301865151555546,9.168548312854396],[7.309762987871637,9.166867595962854],[7.310275510606402,9.166989603387549],[7.310638925745878,9.166871778709664],[7.3106582458813705,9.166472843946625],[7.312093983850332,9.166452137955844],[7.312110107795263,9.167859534689796],[7.312783100160004,9.167900030262217],[7.312795012579841,9.166841273705868],[7.3148578082413,9.167184966712915],[7.315332848132471,9.16726600642113],[7.3157805360429515,9.167404907610436],[7.31678063341957,9.16612079443917],[7.317685382874173,9.165801435288074],[7.31805510495917,9.164800797418934],[7.3177195777963115,9.164359028846146],[7.3178681278118916,9.163713751788237],[7.318046386931258,9.162745834852448],[7.319502176184527,9.16013537814524],[7.32226527212464,9.161927896055602],[7.32315764780725,9.16184129673849],[7.324461984932725,9.161677110210519],[7.328263789742152,9.16256667191442],[7.333625844557106,9.1636366619025],[7.335869542445493,9.164171654198524],[7.339264932830418,9.16487014594054],[7.339318215863046,9.166072585381587],[7.34410395633256,9.165850248690049],[7.346480752984406,9.16567426485551],[7.350461888005783,9.164853006660957],[7.355869102277325,9.163738439077747],[7.35773911027178,9.163132871584816],[7.359180435728548,9.16233469089332],[7.3678597712115,9.166391942734037],[7.368246153237408,9.17378848974704],[7.3696069417070476,9.18453537740578],[7.367254236993517,9.186375346245256],[7.371450402614016,9.198039197051346],[7.382901006176553,9.195353352874974],[7.385929524428036,9.188992813167832],[7.4021126582725865,9.17623115724217],[7.414897290077932,9.165188195678752],[7.428202544811654,9.157880176129257],[7.45445258981522,9.154477122621188],[7.474041356423527,9.156076081246221],[7.483257873152355,9.158000761725814],[7.4850724829088335,9.158159617972045],[7.489482080133938,9.155280154255761],[7.493576021616151,9.155943996018662],[7.496299067148299,9.153359159197862],[7.5049119957920425,9.154482988898843],[7.529511847793572,9.150259222185406],[7.555181258108632,9.14145954392285],[7.588679313599471,9.129055977351529],[7.589172641204471,9.1009444103563],[7.5897952580447745,9.065462245386357],[7.589917022652514,9.058522179854776],[7.590187225759906,9.030439072804999],[7.5907077893330674,9.013442997696245],[7.591591556705056,8.963050138852848],[7.580309415047509,8.960973756233896],[7.573416703318231,8.960504198609954],[7.552060872311472,8.965685416848544],[7.547579570340929,8.965720904096486],[7.537144301368472,8.96901917219708],[7.528262890020415,8.950403041267405],[7.521030134732997,8.937295482700389],[7.507315879124576,8.934284253015903],[7.504262483826609,8.927762684300493],[7.485455506866175,8.888602925284825],[7.481913776099931,8.867957083852387],[7.463435592178882,8.869630564798797],[7.4096494500621475,8.876676365421986],[7.412323346745097,8.908670961295853],[7.334711401809783,8.921356232404268],[7.336922822130589,8.933638259198347],[7.337635861306012,8.936878435591376],[7.335746307446185,8.939185282075128]]]}}]}