{"type":"FeatureCollection","features":[{"type":"Feature","properties":{"name":"Dakwa Health Post","kind":"clinic","ownership":"Public","level":"Primary","kind_detail":"Health Post","lga":"Bwari","ward":"Kubwa"},"geometry":{"type":"Point","coordinates":[7.23128,9.11166]}},{"type":"Feature","properties":{"name":"Bapha Clinic And Maternity","kind":"clinic","ownership":"Public","level":"Primary","kind_detail":"Maternity Home","lga":"Bwari","ward":"Kubwa"},"geometry":{"type":"Point","coordinates":[7.23433,9.11217]}},{"type":"Feature","properties":{"name":"Oiza Clinic","kind":"clinic","ownership":"Private","level":"Primary","kind_detail":"Clinic","lga":"Bwari","ward":"Kubwa"},"geometry":{"type":"Point","coordinates":[7.23132,9.1123]}},{"type":"Feature","properties":{"name":"Madalla Hospital","kind":"clinic","ownership":"","level":"","kind_detail":"","lga":"Bwari","ward":"Kubwa"},"geometry":{"type":"Point","coordinates":[7.2229,9.11267]}},{"type":"Feature","properties":{"name":"Samhev Musulucin And Maternity","kind":"clinic","ownership":"","level":"","kind_detail":"","lga":"Bwari","ward":"Kubwa"},"geometry":{"type":"Point","coordinates":[7.23633,9.11328]}},{"type":"Feature","properties":{"name":"Dakwa Primary Health Centre","kind":"clinic","ownership":"Public","level":"Primary","kind_detail":"Primary Health Center","lga":"Bwari","ward":"Kubwa"},"geometry":{"type":"Point","coordinates":[7.23737,9.11438]}},{"type":"Feature","properties":{"name":"Nizamiya Hospital","kind":"clinic","ownership":"Private","level":"Tertiary","kind_detail":"Hospital","lga":"Municipal Area Council","ward":"Jiwa"},"geometry":{"type":"Point","coordinates":[7.39065,9.05919]}},{"type":"Feature","properties":{"name":"Durumi Primary Health Center","kind":"clinic","ownership":"Public","level":"Primary","kind_detail":"Primary Health Center","lga":"Bwari","ward":"Dutse"},"geometry":{"type":"Point","coordinates":[7.39306,9.12488]}},{"type":"Feature","properties":{"name":"Efab Medical Center","kind":"clinic","ownership":"Public","level":"Primary","kind_detail":"Medical Center","lga":"Municipal Area Council","ward":"Gwarinpa"},"geometry":{"type":"Point","coordinates":[7.39579,9.06073]}},{"type":"Feature","properties":{"name":"Ebony Hospital And Maternity ( Gwarimpa )","kind":"clinic","ownership":"Private","level":"Secondary","kind_detail":"Hospital","lga":"Municipal Area Council","ward":"Gwarinpa"},"geometry":{"type":"Point","coordinates":[7.40427,9.10016]}},{"type":"Feature","properties":{"name":"Kelina Hospital Gwarinpa","kind":"clinic","ownership":"Private","level":"Primary","kind_detail":"Hospital","lga":"Municipal Area Council","ward":"Gwarinpa"},"geometry":{"type":"Point","coordinates":[7.40432,9.10686]}},{"type":"Feature","properties":{"name":"Federal Road Safety Corps Medical Centre","kind":"clinic","ownership":"Public","level":"Secondary","kind_detail":"Federal Medical Center","lga":"Municipal Area Council","ward":"Gwarinpa"},"geometry":{"type":"Point","coordinates":[7.40514,9.10686]}},{"type":"Feature","properties":{"name":"Peace Care Clinic","kind":"clinic","ownership":"Private","level":"Primary","kind_detail":"Primary Health Center","lga":"Municipal Area Council","ward":"Gwarinpa"},"geometry":{"type":"Point","coordinates":[7.40973,9.09887]}},{"type":"Feature","properties":{"name":"Lamingo Primary Health Center","kind":"clinic","ownership":"Public","level":"Primary","kind_detail":"Primary Health Center","lga":"Municipal Area Council","ward":"Gwarinpa"},"geometry":{"type":"Point","coordinates":[7.41039,9.10557]}},{"type":"Feature","properties":{"name":"Wellpoint Clinic","kind":"clinic","ownership":"Private","level":"Primary","kind_detail":"Clinic","lga":"Municipal Area Council","ward":"Gwarinpa"},"geometry":{"type":"Point","coordinates":[7.41081,9.11582]}},{"type":"Feature","properties":{"name":"Zitadel Medical And Diagnostics Ltd","kind":"clinic","ownership":"Private","level":"Primary","kind_detail":"","lga":"Municipal Area Council","ward":"Gui"},"geometry":{"type":"Point","coordinates":[7.41352,9.09093]}},{"type":"Feature","properties":{"name":"Gwarinpa Primary Health Care Center","kind":"clinic","ownership":"Private","level":"Primary","kind_detail":"Primary Health Center","lga":"Municipal Area Council","ward":"Gwarinpa"},"geometry":{"type":"Point","coordinates":[7.41608,9.1123]}},{"type":"Feature","properties":{"name":"Camel Wood Medical Clinic","kind":"clinic","ownership":"Private","level":"Primary","kind_detail":"Clinic","lga":"Municipal Area Council","ward":"Gwarinpa"},"geometry":{"type":"Point","coordinates":[7.4161,9.08228]}},{"type":"Feature","properties":{"name":"Federal Staff Hospital ( Abuja )","kind":"clinic","ownership":"Public","level":"Secondary","kind_detail":"Hospital","lga":"Municipal Area Council","ward":"Gwarinpa"},"geometry":{"type":"Point","coordinates":[7.4213,9.11414]}},{"type":"Feature","properties":{"name":"Gwarinpa Federal Staff Hospital","kind":"clinic","ownership":"Public","level":"Secondary","kind_detail":"Hospital","lga":"Municipal Area Council","ward":"Gwarinpa"},"geometry":{"type":"Point","coordinates":[7.42133,9.11432]}},{"type":"Feature","properties":{"name":"Bodi Primary Health Clinic","kind":"clinic","ownership":"","level":"","kind_detail":"","lga":"Municipal Area Council","ward":"Gwarinpa"},"geometry":{"type":"Point","coordinates":[7.43512,9.07391]}},{"type":"Feature","properties":{"name":"Zinta Clinic","kind":"clinic","ownership":"Private","level":"Primary","kind_detail":"Clinic","lga":"Municipal Area Council","ward":"Gwarinpa"},"geometry":{"type":"Point","coordinates":[7.44254,9.1069]}},{"type":"Feature","properties":{"name":"Zankli Medical Centre ( Mabushi )","kind":"clinic","ownership":"Private","level":"Secondary","kind_detail":"Medical Center","lga":"Municipal Area Council","ward":"Gwarinpa"},"geometry":{"type":"Point","coordinates":[7.4526,9.07738]}},{"type":"Feature","properties":{"name":"Mabushi Primary Health Centre","kind":"clinic","ownership":"Public","level":"Primary","kind_detail":"Primary Health Center","lga":"Municipal Area Council","ward":"Gwarinpa"},"geometry":{"type":"Point","coordinates":[7.45534,9.08208]}},{"type":"Feature","properties":{"name":"Sauki Private Hospital","kind":"clinic","ownership":"Private","level":"Secondary","kind_detail":"Hospital","lga":"Municipal Area Council","ward":"Wuse"},"geometry":{"type":"Point","coordinates":[7.45778,9.07113]}},{"type":"Feature","properties":{"name":"Queen Clinic And Maternity","kind":"clinic","ownership":"Private","level":"Secondary","kind_detail":"Maternity Home","lga":"Municipal Area Council","ward":"Wuse"},"geometry":{"type":"Point","coordinates":[7.46252,9.07208]}},{"type":"Feature","properties":{"name":"Everlasting Care Hospital Ltd","kind":"clinic","ownership":"Private","level":"Secondary","kind_detail":"Hospital","lga":"Municipal Area Council","ward":"Gwarinpa"},"geometry":{"type":"Point","coordinates":[7.41612,9.08229]}},{"type":"Feature","properties":{"name":"Salama Infirmary Hospital And Maternity Ltd","kind":"clinic","ownership":"Private","level":"Secondary","kind_detail":"Hospital","lga":"Municipal Area Council","ward":"Gwarinpa"},"geometry":{"type":"Point","coordinates":[7.41614,9.11687]}},{"type":"Feature","properties":{"name":"Horizons Medical Centre (Wuse Zone 6)","kind":"clinic","ownership":"Private","level":"Secondary","kind_detail":"Medical Center","lga":"Municipal Area Council","ward":"Wuse"},"geometry":{"type":"Point","coordinates":[7.45677,9.06927]}},{"type":"Feature","properties":{"name":"Iduna Specialist Hospital","kind":"clinic","ownership":"Private","level":"Primary","kind_detail":"Specialist Hospital","lga":"Municipal Area Council","ward":"Wuse"},"geometry":{"type":"Point","coordinates":[7.46542,9.07472]}},{"type":"Feature","properties":{"name":"Trust Charitos Hospital Ltd","kind":"clinic","ownership":"Private","level":"Primary","kind_detail":"Hospital","lga":"Municipal Area Council","ward":"Gwarinpa"},"geometry":{"type":"Point","coordinates":[7.41643,9.05994]}},{"type":"Feature","properties":{"name":"Ebony Hospital","kind":"clinic","ownership":"Private","level":"Secondary","kind_detail":"Hospital","lga":"Municipal Area Council","ward":"Gwarinpa"},"geometry":{"type":"Point","coordinates":[7.40768,9.09996]}},{"type":"Feature","properties":{"name":"Gwarimpa General Hospital","kind":"clinic","ownership":"Public","level":"Secondary","kind_detail":"General Hospital","lga":"Municipal Area Council","ward":"Gwarinpa"},"geometry":{"type":"Point","coordinates":[7.39867,9.07699]}},{"type":"Feature","properties":{"name":"Ancilla Catholic Hospital (Kado Estate)","kind":"clinic","ownership":"Private","level":"Primary","kind_detail":"Hospital","lga":"Municipal Area Council","ward":"Gwarinpa"},"geometry":{"type":"Point","coordinates":[7.41452,9.08218]}},{"type":"Feature","properties":{"name":"Elyon Medical Centre","kind":"clinic","ownership":"Private","level":"Primary","kind_detail":"Medical Center","lga":"Municipal Area Council","ward":"Gwarinpa"},"geometry":{"type":"Point","coordinates":[7.41032,9.09944]}},{"type":"Feature","properties":{"name":"Viewpoint Hospital","kind":"clinic","ownership":"Private","level":"Secondary","kind_detail":"Hospital","lga":"Municipal Area Council","ward":"Gwarinpa"},"geometry":{"type":"Point","coordinates":[7.41005,9.09115]}},{"type":"Feature","properties":{"name":"Jahi 2 Primary Health Centre","kind":"clinic","ownership":"Public","level":"Primary","kind_detail":"Primary Health Center","lga":"Municipal Area Council","ward":"Gwarinpa"},"geometry":{"type":"Point","coordinates":[7.44367,9.10692]}},{"type":"Feature","properties":{"name":"Jahi Primary Health Centre","kind":"clinic","ownership":"Public","level":"Primary","kind_detail":"Primary Health Center","lga":"Municipal Area Council","ward":"Wuse"},"geometry":{"type":"Point","coordinates":[7.44126,9.09555]}},{"type":"Feature","properties":{"name":"Dawaki Primary Health Centre","kind":"clinic","ownership":"Public","level":"Primary","kind_detail":"Primary Health Center","lga":"Bwari","ward":"Dutse"},"geometry":{"type":"Point","coordinates":[7.38787,9.12447]}},{"type":"Feature","properties":{"name":"Gwarimpa Primary Health Centre","kind":"clinic","ownership":"Public","level":"Primary","kind_detail":"Primary Health Center","lga":"Municipal Area Council","ward":"Gwarinpa"},"geometry":{"type":"Point","coordinates":[7.4067,9.0989]}},{"type":"Feature","properties":{"name":"Takushara Primary Health Centre","kind":"clinic","ownership":"Public","level":"Primary","kind_detail":"Primary Health Center","lga":"Municipal Area Council","ward":"Kabusa"},"geometry":{"type":"Point","coordinates":[7.45978,8.88403]}},{"type":"Feature","properties":{"name":"Burum Health Clinic","kind":"clinic","ownership":"Public","level":"Primary","kind_detail":"Primary Health Center","lga":"Municipal Area Council","ward":"Kabusa"},"geometry":{"type":"Point","coordinates":[7.44204,8.88898]}},{"type":"Feature","properties":{"name":"Shekwonya Maternity Home","kind":"clinic","ownership":"","level":"","kind_detail":"","lga":"Municipal Area Council","ward":"Kabusa"},"geometry":{"type":"Point","coordinates":[7.48969,8.92572]}},{"type":"Feature","properties":{"name":"Grassroots Maternity Clinic Waru","kind":"clinic","ownership":"Private","level":"Primary","kind_detail":"Maternity Home","lga":"Municipal Area Council","ward":"Kabusa"},"geometry":{"type":"Point","coordinates":[7.48226,8.9262]}},{"type":"Feature","properties":{"name":"Shadalafiya Primary Health Care Center","kind":"clinic","ownership":"Public","level":"Primary","kind_detail":"Primary Health Center","lga":"Municipal Area Council","ward":"Kabusa"},"geometry":{"type":"Point","coordinates":[7.43411,8.93979]}},{"type":"Feature","properties":{"name":"Sheretti Primary Health Centre","kind":"clinic","ownership":"Public","level":"Primary","kind_detail":"Primary Health Center","lga":"Municipal Area Council","ward":"Kabusa"},"geometry":{"type":"Point","coordinates":[7.4407,8.94241]}},{"type":"Feature","properties":{"name":"Shadalafiya Primary Health Care","kind":"clinic","ownership":"Public","level":"Primary","kind_detail":"Primary Health Center","lga":"Municipal Area Council","ward":"Kabusa"},"geometry":{"type":"Point","coordinates":[7.44658,8.94875]}},{"type":"Feature","properties":{"name":"Kabusa Primary Health Centre","kind":"clinic","ownership":"Public","level":"Primary","kind_detail":"Primary Health Center","lga":"Municipal Area Council","ward":"Kabusa"},"geometry":{"type":"Point","coordinates":[7.44116,8.94977]}},{"type":"Feature","properties":{"name":"Mery Clinic","kind":"clinic","ownership":"Public","level":"Primary","kind_detail":"Clinic","lga":"Municipal Area Council","ward":"Kabusa"},"geometry":{"type":"Point","coordinates":[7.44408,8.95189]}},{"type":"Feature","properties":{"name":"Good Morning Maternity Ltd ( Waru )","kind":"clinic","ownership":"Private","level":"Primary","kind_detail":"Maternity Home","lga":"Municipal Area Council","ward":"Kabusa"},"geometry":{"type":"Point","coordinates":[7.50334,8.95506]}},{"type":"Feature","properties":{"name":"Wumba Primary Health Center","kind":"clinic","ownership":"Private","level":"Primary","kind_detail":"Primary Health Center","lga":"Municipal Area Council","ward":"Garki 1"},"geometry":{"type":"Point","coordinates":[7.48648,8.95865]}},{"type":"Feature","properties":{"name":"Sauka Primary Health Centre","kind":"clinic","ownership":"Public","level":"Primary","kind_detail":"Primary Health Center","lga":"Municipal Area Council","ward":"Kabusa"},"geometry":{"type":"Point","coordinates":[7.46143,8.89435]}},{"type":"Feature","properties":{"name":"Waru Primary Health Centre","kind":"clinic","ownership":"Public","level":"Primary","kind_detail":"Primary Health Center","lga":"Municipal Area Council","ward":"Kabusa"},"geometry":{"type":"Point","coordinates":[7.48666,8.92834]}},{"type":"Feature","properties":{"name":"Wassa Qatar Primary Health Centre","kind":"clinic","ownership":"Public","level":"Primary","kind_detail":"Primary Health Center","lga":"Municipal Area Council","ward":"Kabusa"},"geometry":{"type":"Point","coordinates":[7.47774,8.87522]}},{"type":"Feature","properties":{"name":"Pigba Primary Health Centre","kind":"clinic","ownership":"Public","level":"Primary","kind_detail":"Primary Health Center","lga":"Municipal Area Council","ward":"Garki 1"},"geometry":{"type":"Point","coordinates":[7.49558,8.94795]}},{"type":"Feature","properties":{"name":"Ketti Primary Health Centre","kind":"clinic","ownership":"Public","level":"Primary","kind_detail":"Primary Health Center","lga":"Municipal Area Council","ward":"Kabusa"},"geometry":{"type":"Point","coordinates":[7.39441,8.92676]}},{"type":"Feature","properties":{"name":"Limi Hospital And Maternity Limited","kind":"clinic","ownership":"Private","level":"Secondary","kind_detail":"Hospital","lga":"Municipal Area Council","ward":"City Centre 1"},"geometry":{"type":"Point","coordinates":[7.46859,9.0434]}},{"type":"Feature","properties":{"name":"Wuse General Hospital","kind":"clinic","ownership":"Public","level":"Secondary","kind_detail":"General Hospital","lga":"Municipal Area Council","ward":"Wuse"},"geometry":{"type":"Point","coordinates":[7.46949,9.06279]}},{"type":"Feature","properties":{"name":"Police Hospital","kind":"clinic","ownership":"Public","level":"Secondary","kind_detail":"Hospital","lga":"Municipal Area Council","ward":"City Centre 1"},"geometry":{"type":"Point","coordinates":[7.47076,9.03207]}},{"type":"Feature","properties":{"name":"Kings Care Hospital Ltd","kind":"clinic","ownership":"Private","level":"Tertiary","kind_detail":"Hospital","lga":"Municipal Area Council","ward":"Wuse"},"geometry":{"type":"Point","coordinates":[7.47385,9.06554]}},{"type":"Feature","properties":{"name":"Bepos Clinic And Maternity","kind":"clinic","ownership":"Private","level":"Secondary","kind_detail":"Maternity Home","lga":"Municipal Area Council","ward":"City Centre 1"},"geometry":{"type":"Point","coordinates":[7.47528,9.02957]}},{"type":"Feature","properties":{"name":"Apo Primary Health Center","kind":"clinic","ownership":"Public","level":"Primary","kind_detail":"Primary Health Center","lga":"Municipal Area Council","ward":"Wuse"},"geometry":{"type":"Point","coordinates":[7.47721,9.0767]}},{"type":"Feature","properties":{"name":"Primed Clinic And Diagnostic","kind":"clinic","ownership":"Public","level":"Primary","kind_detail":"Diagnostic / Laboratory Center","lga":"Municipal Area Council","ward":"Wuse"},"geometry":{"type":"Point","coordinates":[7.47864,9.06401]}},{"type":"Feature","properties":{"name":"Intergrated Health Care","kind":"clinic","ownership":"Public","level":"Primary","kind_detail":"Health Center","lga":"Municipal Area Council","ward":"City Centre 1"},"geometry":{"type":"Point","coordinates":[7.48,9.03155]}},{"type":"Feature","properties":{"name":"Azony Maternity","kind":"clinic","ownership":"Public","level":"Primary","kind_detail":"Maternity Home","lga":"Municipal Area Council","ward":"City Centre 1"},"geometry":{"type":"Point","coordinates":[7.48012,9.03361]}},{"type":"Feature","properties":{"name":"The Center Clinic","kind":"clinic","ownership":"Public","level":"Primary","kind_detail":"Clinic","lga":"Municipal Area Council","ward":"Wuse"},"geometry":{"type":"Point","coordinates":[7.48078,9.07545]}},{"type":"Feature","properties":{"name":"Gss Health Center","kind":"clinic","ownership":"","level":"","kind_detail":"","lga":"Municipal Area Council","ward":"City Centre 1"},"geometry":{"type":"Point","coordinates":[7.48257,9.03671]}},{"type":"Feature","properties":{"name":"Our Lady Clinic And Maternity","kind":"clinic","ownership":"Private","level":"Primary","kind_detail":"Maternity Home","lga":"Municipal Area Council","ward":"City Centre 1"},"geometry":{"type":"Point","coordinates":[7.48341,9.03026]}},{"type":"Feature","properties":{"name":"Abuja Clinic Ltd","kind":"clinic","ownership":"Private","level":"Primary","kind_detail":"Clinic","lga":"Municipal Area Council","ward":"Wuse"},"geometry":{"type":"Point","coordinates":[7.48483,9.09846]}},{"type":"Feature","properties":{"name":"Health Assurance Clinic (Wuse Zone 4)","kind":"clinic","ownership":"Private","level":"Primary","kind_detail":"Clinic","lga":"Municipal Area Council","ward":"Wuse"},"geometry":{"type":"Point","coordinates":[7.48654,9.06288]}},{"type":"Feature","properties":{"name":"Angelic Care Hospital And Maternity Ltd","kind":"clinic","ownership":"Private","level":"Primary","kind_detail":"","lga":"Municipal Area Council","ward":"City Center 1"},"geometry":{"type":"Point","coordinates":[7.48679,9.03111]}},{"type":"Feature","properties":{"name":"Army Headquarters Clinic","kind":"clinic","ownership":"Public","level":"Secondary","kind_detail":"Unknown","lga":"Municipal Area Council","ward":"City Centre 1"},"geometry":{"type":"Point","coordinates":[7.48857,9.0406]}},{"type":"Feature","properties":{"name":"Garki Hospital","kind":"clinic","ownership":"Private","level":"Secondary","kind_detail":"Hospital","lga":"Municipal Area Council","ward":"City Center 1"},"geometry":{"type":"Point","coordinates":[7.4889,9.03636]}},{"type":"Feature","properties":{"name":"Naval Headquarters Sickbay","kind":"clinic","ownership":"Public","level":"Primary","kind_detail":"Unknown","lga":"Municipal Area Council","ward":"City Centre 1"},"geometry":{"type":"Point","coordinates":[7.48952,9.0393]}},{"type":"Feature","properties":{"name":"Hulumi Primary Health Care","kind":"clinic","ownership":"Public","level":"Primary","kind_detail":"Primary Health Center","lga":"Municipal Area Council","ward":"City Centre 1"},"geometry":{"type":"Point","coordinates":[7.48963,9.03441]}},{"type":"Feature","properties":{"name":"Gethsemane Hospital And Maternity","kind":"clinic","ownership":"","level":"","kind_detail":"","lga":"Bwari","ward":"Dutse"},"geometry":{"type":"Point","coordinates":[7.49213,9.13208]}},{"type":"Feature","properties":{"name":"National Assembly Clinic","kind":"clinic","ownership":"Public","level":"Primary","kind_detail":"Clinic","lga":"Municipal Area Council","ward":"City Centre 1"},"geometry":{"type":"Point","coordinates":[7.49487,9.04089]}},{"type":"Feature","properties":{"name":"Avon Medical Service","kind":"clinic","ownership":"Private","level":"Primary","kind_detail":"Medical Center","lga":"Municipal Area Council","ward":"Wuse"},"geometry":{"type":"Point","coordinates":[7.49501,9.07453]}},{"type":"Feature","properties":{"name":"Eereprod Medical Center","kind":"clinic","ownership":"Public","level":"Primary","kind_detail":"Medical Center","lga":"Municipal Area Council","ward":"City Centre 1"},"geometry":{"type":"Point","coordinates":[7.49598,9.03629]}},{"type":"Feature","properties":{"name":"Guinue Savannah Medical Center","kind":"clinic","ownership":"Public","level":"Primary","kind_detail":"Medical Center","lga":"Municipal Area Council","ward":"City Centre 1"},"geometry":{"type":"Point","coordinates":[7.50012,9.04019]}},{"type":"Feature","properties":{"name":"Smart Motherhood Maternity","kind":"clinic","ownership":"Public","level":"Primary","kind_detail":"Maternity Home","lga":"Municipal Area Council","ward":"City Centre 1"},"geometry":{"type":"Point","coordinates":[7.50143,9.04384]}},{"type":"Feature","properties":{"name":"Fct Hospital Management Board","kind":"clinic","ownership":"Public","level":"Primary","kind_detail":"Hospital","lga":"Municipal Area Council","ward":"City Centre 1"},"geometry":{"type":"Point","coordinates":[7.50257,9.04411]}},{"type":"Feature","properties":{"name":"United Health Care","kind":"clinic","ownership":"Public","level":"Primary","kind_detail":"Health Center","lga":"Municipal Area Council","ward":"City Centre 1"},"geometry":{"type":"Point","coordinates":[7.50317,9.04551]}},{"type":"Feature","properties":{"name":"4 Bn Mrs Clinic","kind":"clinic","ownership":"Public","level":"Secondary","kind_detail":"Clinic","lga":"Municipal Area Council","ward":"City Centre 1"},"geometry":{"type":"Point","coordinates":[7.51115,9.09549]}},{"type":"Feature","properties":{"name":"Katampe II Primary Health Centre","kind":"clinic","ownership":"Public","level":"Primary","kind_detail":"Primary Health Center","lga":"Bwari","ward":"Dutse"},"geometry":{"type":"Point","coordinates":[7.5156,9.11959]}},{"type":"Feature","properties":{"name":"Deide Health Center","kind":"clinic","ownership":"Public","level":"Primary","kind_detail":"Health Center","lga":"Bwari","ward":"Dutse"},"geometry":{"type":"Point","coordinates":[7.52778,9.11431]}},{"type":"Feature","properties":{"name":"Mogadishu Cantonment Hospital","kind":"clinic","ownership":"Public","level":"Secondary","kind_detail":"Hospital","lga":"Municipal Area Council","ward":"City Centre 1"},"geometry":{"type":"Point","coordinates":[7.54038,9.04674]}},{"type":"Feature","properties":{"name":"Zhigakuchi Primary Health Centre","kind":"clinic","ownership":"Public","level":"Primary","kind_detail":"Primary Health Center","lga":"Bwari","ward":"Dutse"},"geometry":{"type":"Point","coordinates":[7.55689,9.11047]}},{"type":"Feature","properties":{"name":"Mambilla Barracks Medical Centre","kind":"clinic","ownership":"Public","level":"Secondary","kind_detail":"Medical Center","lga":"Municipal Area Council","ward":"City Center 1"},"geometry":{"type":"Point","coordinates":[7.52036,9.09243]}},{"type":"Feature","properties":{"name":"Diff Hospital","kind":"clinic","ownership":"Private","level":"Primary","kind_detail":"Hospital","lga":"Municipal Area Council","ward":"City Center 1"},"geometry":{"type":"Point","coordinates":[7.50657,9.07697]}},{"type":"Feature","properties":{"name":"Holy Trinity Hospital","kind":"clinic","ownership":"Private","level":"Primary","kind_detail":"Hospital","lga":"Municipal Area Council","ward":"City Center 1"},"geometry":{"type":"Point","coordinates":[7.50278,9.03195]}},{"type":"Feature","properties":{"name":"Maitama General Hospital","kind":"clinic","ownership":"Public","level":"Secondary","kind_detail":"General Hospital","lga":"Municipal Area Council","ward":"Wuse"},"geometry":{"type":"Point","coordinates":[7.48128,9.08622]}},{"type":"Feature","properties":{"name":"St Francois Medical Centre","kind":"clinic","ownership":"Private","level":"Primary","kind_detail":"Medical Center","lga":"Municipal Area Council","ward":"Wuse"},"geometry":{"type":"Point","coordinates":[7.482,9.06908]}},{"type":"Feature","properties":{"name":"Inec Staff Clinic","kind":"clinic","ownership":"Public","level":"Primary","kind_detail":"Clinic","lga":"Municipal Area Council","ward":"City Centre 1"},"geometry":{"type":"Point","coordinates":[7.48424,9.0408]}},{"type":"Feature","properties":{"name":"Cedamb  Hospital Mpape","kind":"clinic","ownership":"Private","level":"Secondary","kind_detail":"Hospital","lga":"Bwari","ward":"Dutse"},"geometry":{"type":"Point","coordinates":[7.49398,9.13102]}},{"type":"Feature","properties":{"name":"Asher Hospital And Maternity","kind":"clinic","ownership":"Private","level":"Primary","kind_detail":"Hospital","lga":"Municipal Area Council","ward":"Gwarinpa"},"geometry":{"type":"Point","coordinates":[7.47415,9.09935]}},{"type":"Feature","properties":{"name":"Garki Hospital Abuja","kind":"clinic","ownership":"Private","level":"Secondary","kind_detail":"Hospital","lga":"Municipal Area Council","ward":"City Centre 1"},"geometry":{"type":"Point","coordinates":[7.48511,9.03369]}},{"type":"Feature","properties":{"name":"National Hospital Abuja","kind":"clinic","ownership":"Public","level":"Tertiary","kind_detail":"Hospital","lga":"Municipal Area Council","ward":"City Center 1"},"geometry":{"type":"Point","coordinates":[7.46329,9.03911]}},{"type":"Feature","properties":{"name":"Fhc Area 2 Primary Health Centre","kind":"clinic","ownership":"Public","level":"Primary","kind_detail":"Primary Health Center","lga":"Municipal Area Council","ward":"City Center 1"},"geometry":{"type":"Point","coordinates":[7.47846,9.03596]}},{"type":"Feature","properties":{"name":"Capital Hospital And Maternity Ltd","kind":"clinic","ownership":"Private","level":"Primary","kind_detail":"Hospital","lga":"Municipal Area Council","ward":"Wuse"},"geometry":{"type":"Point","coordinates":[7.46265,9.05212]}},{"type":"Feature","properties":{"name":"Cbn Staff Clinic","kind":"clinic","ownership":"Public","level":"Secondary","kind_detail":"Clinic","lga":"Municipal Area Council","ward":"City Centre 1"},"geometry":{"type":"Point","coordinates":[7.49624,9.02924]}},{"type":"Feature","properties":{"name":"Sami Wadata Clinic ( Wuse )","kind":"clinic","ownership":"Private","level":"Primary","kind_detail":"Clinic","lga":"Municipal Area Council","ward":"Wuse"},"geometry":{"type":"Point","coordinates":[7.47042,9.08665]}},{"type":"Feature","properties":{"name":"Jikowyi Primary Health Care","kind":"clinic","ownership":"Private","level":"Primary","kind_detail":"Primary Health Center","lga":"Municipal Area Council","ward":"Karu"},"geometry":{"type":"Point","coordinates":[7.55594,8.97563]}},{"type":"Feature","properties":{"name":"Midland Clinic And Maternity","kind":"clinic","ownership":"Private","level":"Primary","kind_detail":"Maternity Home","lga":"Municipal Area Council","ward":"Karu"},"geometry":{"type":"Point","coordinates":[7.56014,9.01264]}},{"type":"Feature","properties":{"name":"Nigeria Custom Medical Centre","kind":"clinic","ownership":"Public","level":"Primary","kind_detail":"Medical Center","lga":"Municipal Area Council","ward":"Karu"},"geometry":{"type":"Point","coordinates":[7.56112,8.9978]}},{"type":"Feature","properties":{"name":"Glory Maternity Home","kind":"clinic","ownership":"Private","level":"Primary","kind_detail":"Maternity Home","lga":"Municipal Area Council","ward":"Karu"},"geometry":{"type":"Point","coordinates":[7.56131,8.98719]}},{"type":"Feature","properties":{"name":"Sisters Of Nativity Hospital","kind":"clinic","ownership":"Private","level":"Secondary","kind_detail":"Hospital","lga":"Municipal Area Council","ward":"Karu"},"geometry":{"type":"Point","coordinates":[7.56224,8.98698]}},{"type":"Feature","properties":{"name":"Jikwoyi Primary Health Centre","kind":"clinic","ownership":"Public","level":"Primary","kind_detail":"Primary Health Center","lga":"Municipal Area Council","ward":"Karu"},"geometry":{"type":"Point","coordinates":[7.56435,8.98427]}},{"type":"Feature","properties":{"name":"Fredrickson Mecal Clinic","kind":"clinic","ownership":"Public","level":"Primary","kind_detail":"Clinic","lga":"Municipal Area Council","ward":"Karu"},"geometry":{"type":"Point","coordinates":[7.56454,9.01231]}},{"type":"Feature","properties":{"name":"Abuja Clinic","kind":"clinic","ownership":"","level":"","kind_detail":"","lga":"Municipal Area Council","ward":"Karu"},"geometry":{"type":"Point","coordinates":[7.56531,9.00232]}},{"type":"Feature","properties":{"name":"Karu General Hospital","kind":"clinic","ownership":"Public","level":"Secondary","kind_detail":"General Hospital","lga":"Municipal Area Council","ward":"Karu"},"geometry":{"type":"Point","coordinates":[7.56736,9.00605]}},{"type":"Feature","properties":{"name":"Nyanya General Hospital","kind":"clinic","ownership":"Public","level":"Secondary","kind_detail":"General Hospital","lga":"Municipal Area Council","ward":"Nyanya 1"},"geometry":{"type":"Point","coordinates":[7.56989,9.02869]}},{"type":"Feature","properties":{"name":"Success Maternity (Jikwoyi Dagbana)","kind":"clinic","ownership":"Private","level":"Primary","kind_detail":"Maternity Home","lga":"Municipal Area Council","ward":"Karu"},"geometry":{"type":"Point","coordinates":[7.57411,9.00686]}},{"type":"Feature","properties":{"name":"Bismol Medical Center","kind":"clinic","ownership":"Private","level":"Primary","kind_detail":"Medical Center","lga":"Municipal Area Council","ward":"Nyanya 1"},"geometry":{"type":"Point","coordinates":[7.5753,9.0366]}},{"type":"Feature","properties":{"name":"Saferon Hospital Ltd","kind":"clinic","ownership":"Private","level":"Secondary","kind_detail":"Hospital","lga":"Municipal Area Council","ward":"Nyanya 1"},"geometry":{"type":"Point","coordinates":[7.57986,9.03741]}},{"type":"Feature","properties":{"name":"Gbagalape Primary Health Centre","kind":"clinic","ownership":"Public","level":"Primary","kind_detail":"Primary Health Center","lga":"Municipal Area Council","ward":"Nyanya 1"},"geometry":{"type":"Point","coordinates":[7.5803,9.05417]}},{"type":"Feature","properties":{"name":"King Clinic And Maternity","kind":"clinic","ownership":"Public","level":"Primary","kind_detail":"Maternity Home","lga":"Municipal Area Council","ward":"Nyanya 1"},"geometry":{"type":"Point","coordinates":[7.58217,9.02959]}},{"type":"Feature","properties":{"name":"Mayday Specialist Hospital","kind":"clinic","ownership":"Public","level":"Tertiary","kind_detail":"Specialist Hospital","lga":"Municipal Area Council","ward":"Nyanya 1"},"geometry":{"type":"Point","coordinates":[7.58393,9.03033]}},{"type":"Feature","properties":{"name":"Moli Medical Center","kind":"clinic","ownership":"","level":"","kind_detail":"","lga":"Municipal Area Council","ward":"Nyanya 1"},"geometry":{"type":"Point","coordinates":[7.58551,9.01752]}},{"type":"Feature","properties":{"name":"Wrisberg Hospital Ltd","kind":"clinic","ownership":"Private","level":"Secondary","kind_detail":"Hospital","lga":"Municipal Area Council","ward":"Gui"},"geometry":{"type":"Point","coordinates":[7.55933,8.97699]}},{"type":"Feature","properties":{"name":"Lofahod Clinic And Maternity ( Jikwoyi )","kind":"clinic","ownership":"Private","level":"Primary","kind_detail":"Maternity Home","lga":"Municipal Area Council","ward":"Karu"},"geometry":{"type":"Point","coordinates":[7.56733,8.97386]}},{"type":"Feature","properties":{"name":"Sophy Hospital","kind":"clinic","ownership":"Private","level":"Primary","kind_detail":"Hospital","lga":"Municipal Area Council","ward":"Karu"},"geometry":{"type":"Point","coordinates":[7.56064,8.97891]}},{"type":"Feature","properties":{"name":"Primus International Super Specialist Hospital","kind":"clinic","ownership":"Private","level":"Secondary","kind_detail":"Specialist Hospital","lga":"Municipal Area Council","ward":"Karu"},"geometry":{"type":"Point","coordinates":[7.56653,9.00653]}},{"type":"Feature","properties":{"name":"Cornelian Jubilee Hospital ( Jikwoyi )","kind":"clinic","ownership":"Private","level":"Secondary","kind_detail":"Hospital","lga":"Municipal Area Council","ward":"Karu"},"geometry":{"type":"Point","coordinates":[7.5744,8.97319]}},{"type":"Feature","properties":{"name":"Evangelical Church Of West Africa ( Ecwa  ) Medical Primary Health Centre","kind":"clinic","ownership":"Public","level":"Primary","kind_detail":"Primary Health Center","lga":"Municipal Area Council","ward":"Karu"},"geometry":{"type":"Point","coordinates":[7.5747,9.00963]}},{"type":"Feature","properties":{"name":"Hammersmith Medical Center","kind":"clinic","ownership":"","level":"","kind_detail":"","lga":"Municipal Area Council","ward":"Kabusa"},"geometry":{"type":"Point","coordinates":[7.37993,8.95397]}},{"type":"Feature","properties":{"name":"Lugbe Primary Health Centre","kind":"clinic","ownership":"Public","level":"Primary","kind_detail":"Primary Health Center","lga":"Municipal Area Council","ward":"Kabusa"},"geometry":{"type":"Point","coordinates":[7.37114,8.97224]}},{"type":"Feature","properties":{"name":"Agnes Maternity Home","kind":"clinic","ownership":"Private","level":"Primary","kind_detail":"Maternity Home","lga":"Municipal Area Council","ward":"Kabusa"},"geometry":{"type":"Point","coordinates":[7.37035,8.97417]}},{"type":"Feature","properties":{"name":"Massan Health Clinic","kind":"clinic","ownership":"Private","level":"Primary","kind_detail":"Clinic","lga":"Municipal Area Council","ward":"Kabusa"},"geometry":{"type":"Point","coordinates":[7.36249,8.98468]}},{"type":"Feature","properties":{"name":"Precious Clinic And Maternity","kind":"clinic","ownership":"Private","level":"Primary","kind_detail":"Maternity Home","lga":"Municipal Area Council","ward":"Jiwa"},"geometry":{"type":"Point","coordinates":[7.36219,8.98982]}},{"type":"Feature","properties":{"name":"Mailafiya Specialist Hospital","kind":"clinic","ownership":"Private","level":"Secondary","kind_detail":"Specialist Hospital","lga":"Municipal Area Council","ward":"Kabusa"},"geometry":{"type":"Point","coordinates":[7.35915,8.99504]}},{"type":"Feature","properties":{"name":"Abuja Unity Hospital And Maternity Lugbe","kind":"clinic","ownership":"Private","level":"Primary","kind_detail":"Hospital","lga":"Municipal Area Council","ward":"Kabusa"},"geometry":{"type":"Point","coordinates":[7.35736,8.99994]}},{"type":"Feature","properties":{"name":"Amac Hospital","kind":"clinic","ownership":"","level":"","kind_detail":"","lga":"Municipal Area Council","ward":"Kabusa"},"geometry":{"type":"Point","coordinates":[7.36001,9.002]}},{"type":"Feature","properties":{"name":"Living Faith Church Clinic","kind":"clinic","ownership":"","level":"","kind_detail":"","lga":"Municipal Area Council","ward":"Kabusa"},"geometry":{"type":"Point","coordinates":[7.34081,9.00312]}},{"type":"Feature","properties":{"name":"Elan Clinic","kind":"clinic","ownership":"","level":"","kind_detail":"","lga":"Municipal Area Council","ward":"Gwarinpa"},"geometry":{"type":"Point","coordinates":[7.36415,9.06867]}},{"type":"Feature","properties":{"name":"Aso Hospital","kind":"clinic","ownership":"Public","level":"Primary","kind_detail":"Hospital","lga":"Municipal Area Council","ward":"Gwarinpa"},"geometry":{"type":"Point","coordinates":[7.36276,9.07063]}},{"type":"Feature","properties":{"name":"Zadawaru Nursing Home ( Karmo )","kind":"clinic","ownership":"Private","level":"Primary","kind_detail":"Nursing / Convalescent Home","lga":"Municipal Area Council","ward":"Jiwa"},"geometry":{"type":"Point","coordinates":[7.36598,9.07952]}},{"type":"Feature","properties":{"name":"Una Clinic","kind":"clinic","ownership":"Private","level":"Primary","kind_detail":"Clinic","lga":"Municipal Area Council","ward":"Gwarinpa"},"geometry":{"type":"Point","coordinates":[7.32428,9.08411]}},{"type":"Feature","properties":{"name":"Tunga Kwaso Primary Health Centre","kind":"clinic","ownership":"Public","level":"Primary","kind_detail":"Primary Health Center","lga":"Bwari","ward":"Kubwa"},"geometry":{"type":"Point","coordinates":[7.24754,9.1036]}},{"type":"Feature","properties":{"name":"Gwarimpa Health Center","kind":"clinic","ownership":"Public","level":"Primary","kind_detail":"Health Center","lga":"Municipal Area Council","ward":"Gwarinpa"},"geometry":{"type":"Point","coordinates":[7.37377,9.1158]}},{"type":"Feature","properties":{"name":"Old Deidei Primary Health Centre","kind":"clinic","ownership":"Public","level":"Primary","kind_detail":"Primary Health Center","lga":"Bwari","ward":"Kubwa"},"geometry":{"type":"Point","coordinates":[7.25933,9.11486]}},{"type":"Feature","properties":{"name":"Zhidu Primary Health Centre","kind":"clinic","ownership":"Public","level":"Primary","kind_detail":"Primary Health Center","lga":"Municipal Area Council","ward":"Kabusa"},"geometry":{"type":"Point","coordinates":[7.37782,9.01755]}},{"type":"Feature","properties":{"name":"Deidei Comprehensive Health Centre","kind":"clinic","ownership":"Public","level":"Primary","kind_detail":"Primary Health Center","lga":"Bwari","ward":"Kubwa"},"geometry":{"type":"Point","coordinates":[7.25275,9.11467]}},{"type":"Feature","properties":{"name":"Idu Primary Health Centre","kind":"clinic","ownership":"Public","level":"Primary","kind_detail":"Primary Health Center","lga":"Municipal Area Council","ward":"Jiwa"},"geometry":{"type":"Point","coordinates":[7.35932,9.07138]}},{"type":"Feature","properties":{"name":"Pyakasa Primary Health Centre","kind":"clinic","ownership":"Public","level":"Primary","kind_detail":"Primary Health Center","lga":"Municipal Area Council","ward":"Kabusa"},"geometry":{"type":"Point","coordinates":[7.40547,8.96534]}},{"type":"Feature","properties":{"name":"Biriri Dispensary","kind":"clinic","ownership":"Public","level":"Primary","kind_detail":"Health Post","lga":"Municipal Area Council","ward":"Kabusa"},"geometry":{"type":"Point","coordinates":[7.45653,8.96811]}},{"type":"Feature","properties":{"name":"Taprobane Medical Center","kind":"clinic","ownership":"Private","level":"Secondary","kind_detail":"Medical Center","lga":"Municipal Area Council","ward":"Kabusa"},"geometry":{"type":"Point","coordinates":[7.4603,8.97539]}},{"type":"Feature","properties":{"name":"Dutsen Garki Health Clinic","kind":"clinic","ownership":"Public","level":"Primary","kind_detail":"Primary Health Center","lga":"Municipal Area Council","ward":"Garki 1"},"geometry":{"type":"Point","coordinates":[7.48679,8.97736]}},{"type":"Feature","properties":{"name":"Apo Zone B Primary Health Centre","kind":"clinic","ownership":"Public","level":"Primary","kind_detail":"Primary Health Center","lga":"Municipal Area Council","ward":"Garki 1"},"geometry":{"type":"Point","coordinates":[7.50544,8.98119]}},{"type":"Feature","properties":{"name":"White Diamond Clinic And Maternity","kind":"clinic","ownership":"Public","level":"Primary","kind_detail":"Maternity Home","lga":"Municipal Area Council","ward":"Garki 1"},"geometry":{"type":"Point","coordinates":[7.50137,8.98639]}},{"type":"Feature","properties":{"name":"Queens Specialist Hospital Ltd","kind":"clinic","ownership":"Private","level":"Tertiary","kind_detail":"Specialist Hospital","lga":"Municipal Area Council","ward":"Garki 1"},"geometry":{"type":"Point","coordinates":[7.42073,8.98945]}},{"type":"Feature","properties":{"name":"Galadimawa Health Clinic","kind":"clinic","ownership":"Public","level":"Primary","kind_detail":"Clinic","lga":"Municipal Area Council","ward":"Kabusa"},"geometry":{"type":"Point","coordinates":[7.426,8.9922]}},{"type":"Feature","properties":{"name":"Cedar Crest Hospital","kind":"clinic","ownership":"Private","level":"Primary","kind_detail":"Hospital","lga":"Municipal Area Council","ward":"Garki 1"},"geometry":{"type":"Point","coordinates":[7.48711,8.99288]}},{"type":"Feature","properties":{"name":"Crystal Paediatric Clinic","kind":"clinic","ownership":"Private","level":"Primary","kind_detail":"Specialist Clinic","lga":"Municipal Area Council","ward":"Garki 1"},"geometry":{"type":"Point","coordinates":[7.46582,8.99712]}},{"type":"Feature","properties":{"name":"Comforter Place","kind":"clinic","ownership":"Public","level":"Primary","kind_detail":"Primary Health Center","lga":"Municipal Area Council","ward":"Garki 1"},"geometry":{"type":"Point","coordinates":[7.46758,8.9985]}},{"type":"Feature","properties":{"name":"Piwoyi Primary Health Centre","kind":"clinic","ownership":"Public","level":"Primary","kind_detail":"Primary Health Center","lga":"Municipal Area Council","ward":"Gwarinpa"},"geometry":{"type":"Point","coordinates":[7.39381,8.99915]}},{"type":"Feature","properties":{"name":"Kobi Primary Health Centre","kind":"clinic","ownership":"Public","level":"Primary","kind_detail":"Primary Health Center","lga":"Municipal Area Council","ward":"Garki 1"},"geometry":{"type":"Point","coordinates":[7.52392,8.99939]}},{"type":"Feature","properties":{"name":"Rouz Hospital And Maternity","kind":"clinic","ownership":"Private","level":"Secondary","kind_detail":"Hospital","lga":"Municipal Area Council","ward":"Garki 1"},"geometry":{"type":"Point","coordinates":[7.47961,9.00101]}},{"type":"Feature","properties":{"name":"Stephen Clinic","kind":"clinic","ownership":"","level":"","kind_detail":"","lga":"Municipal Area Council","ward":"Gwarinpa"},"geometry":{"type":"Point","coordinates":[7.3941,9.00269]}},{"type":"Feature","properties":{"name":"Silver Fountain Medical Center","kind":"clinic","ownership":"Private","level":"Primary","kind_detail":"Medical Center","lga":"Municipal Area Council","ward":"Gwarinpa"},"geometry":{"type":"Point","coordinates":[7.42038,9.00987]}},{"type":"Feature","properties":{"name":"Durumi II Primary Health Centre","kind":"clinic","ownership":"Public","level":"Primary","kind_detail":"Primary Health Center","lga":"Municipal Area Council","ward":"Garki 1"},"geometry":{"type":"Point","coordinates":[7.46662,9.01]}},{"type":"Feature","properties":{"name":"Rainbow Hospital","kind":"clinic","ownership":"Private","level":"Secondary","kind_detail":"Hospital","lga":"Municipal Area Council","ward":"Garki 1"},"geometry":{"type":"Point","coordinates":[7.47257,9.01135]}},{"type":"Feature","properties":{"name":"Diamond Medical Center","kind":"clinic","ownership":"Private","level":"Primary","kind_detail":"Medical Center","lga":"Municipal Area Council","ward":"Garki 1"},"geometry":{"type":"Point","coordinates":[7.49103,9.01303]}},{"type":"Feature","properties":{"name":"Awmecare Clinic And Maternity","kind":"clinic","ownership":"Public","level":"Primary","kind_detail":"Maternity Home","lga":"Municipal Area Council","ward":"Garki 1"},"geometry":{"type":"Point","coordinates":[7.47084,9.01378]}},{"type":"Feature","properties":{"name":"Jabi Federal Medical Center","kind":"clinic","ownership":"Public","level":"Tertiary","kind_detail":"Federal Medical Center","lga":"Municipal Area Council","ward":"Gwarinpa"},"geometry":{"type":"Point","coordinates":[7.40789,9.01451]}},{"type":"Feature","properties":{"name":"Ruz Medical And Diagnostic Center","kind":"clinic","ownership":"Private","level":"Secondary","kind_detail":"Diagnostic / Laboratory Center","lga":"Municipal Area Council","ward":"Garki 1"},"geometry":{"type":"Point","coordinates":[7.49035,9.01547]}},{"type":"Feature","properties":{"name":"Zenith Medical And Kidney Center","kind":"clinic","ownership":"Public","level":"Primary","kind_detail":"Medical Center","lga":"Municipal Area Council","ward":"Garki 1"},"geometry":{"type":"Point","coordinates":[7.48931,9.01588]}},{"type":"Feature","properties":{"name":"Kuchigoro Primary Health Centre","kind":"clinic","ownership":"Public","level":"Primary","kind_detail":"Primary Health Center","lga":"Municipal Area Council","ward":"Gwarinpa"},"geometry":{"type":"Point","coordinates":[7.42272,9.01603]}},{"type":"Feature","properties":{"name":"Vinette Hospital And Maternity","kind":"clinic","ownership":"Private","level":"Primary","kind_detail":"Hospital","lga":"Municipal Area Council","ward":"Garki 1"},"geometry":{"type":"Point","coordinates":[7.49161,9.01759]}},{"type":"Feature","properties":{"name":"Acupuncture Hospital","kind":"clinic","ownership":"Public","level":"Primary","kind_detail":"Hospital","lga":"Municipal Area Council","ward":"Garki 1"},"geometry":{"type":"Point","coordinates":[7.49079,9.01863]}},{"type":"Feature","properties":{"name":"Garki Village Primary Health Centre","kind":"clinic","ownership":"Public","level":"Primary","kind_detail":"Primary Health Center","lga":"Municipal Area Council","ward":"Garki 1"},"geometry":{"type":"Point","coordinates":[7.48841,9.01928]}},{"type":"Feature","properties":{"name":"Garki Federal Staff Hospital","kind":"clinic","ownership":"Public","level":"Secondary","kind_detail":"Hospital","lga":"Municipal Area Council","ward":"Garki 1"},"geometry":{"type":"Point","coordinates":[7.49533,9.01942]}},{"type":"Feature","properties":{"name":"Abuja Clinic","kind":"clinic","ownership":"Public","level":"Primary","kind_detail":"Clinic","lga":"Municipal Area Council","ward":"Garki 1"},"geometry":{"type":"Point","coordinates":[7.48002,9.02008]}},{"type":"Feature","properties":{"name":"Divine Clinic","kind":"clinic","ownership":"Private","level":"Primary","kind_detail":"Clinic","lga":"Municipal Area Council","ward":"Gui"},"geometry":{"type":"Point","coordinates":[7.46389,9.02143]}},{"type":"Feature","properties":{"name":"Karon Majigi Primary Health Centre","kind":"clinic","ownership":"Public","level":"Primary","kind_detail":"Primary Health Center","lga":"Municipal Area Council","ward":"Gwarinpa"},"geometry":{"type":"Point","coordinates":[7.42473,9.02567]}},{"type":"Feature","properties":{"name":"Dnakwo Primary Health Centre","kind":"clinic","ownership":"Public","level":"Primary","kind_detail":"Primary Health Center","lga":"Municipal Area Council","ward":"Kabusa"},"geometry":{"type":"Point","coordinates":[7.44513,8.97843]}},{"type":"Feature","properties":{"name":"Aleiyita Primary Health Centre","kind":"clinic","ownership":"Public","level":"Primary","kind_detail":"Primary Health Center","lga":"Municipal Area Council","ward":"Kabusa"},"geometry":{"type":"Point","coordinates":[7.39806,8.98826]}},{"type":"Feature","properties":{"name":"Damagaza Primary Health Centre","kind":"clinic","ownership":"Public","level":"Primary","kind_detail":"Primary Health Center","lga":"Municipal Area Council","ward":"Garki 1"},"geometry":{"type":"Point","coordinates":[7.46824,8.98255]}},{"type":"Feature","properties":{"name":"Get Well Hospital And Maternity","kind":"clinic","ownership":"","level":"","kind_detail":"","lga":"Municipal Area Council","ward":"Gwarinpa"},"geometry":{"type":"Point","coordinates":[7.32172,9.0849]}},{"type":"Feature","properties":{"name":"Nigeria Police Hospital","kind":"clinic","ownership":"Public","level":"Secondary","kind_detail":"Hospital","lga":"Bwari","ward":"Kubwa"},"geometry":{"type":"Point","coordinates":[7.27367,9.13022]}},{"type":"Feature","properties":{"name":"Kubwa Owner Occupier Clinic","kind":"clinic","ownership":"Public","level":"Primary","kind_detail":"Primary Health Center","lga":"Bwari","ward":"Usuma"},"geometry":{"type":"Point","coordinates":[7.36069,9.13789]}},{"type":"Feature","properties":{"name":"Jethrone Hospital ( Kubwa )","kind":"clinic","ownership":"Private","level":"Secondary","kind_detail":"Hospital","lga":"Bwari","ward":"Kubwa"},"geometry":{"type":"Point","coordinates":[7.31544,9.14166]}},{"type":"Feature","properties":{"name":"Posing Hospital","kind":"clinic","ownership":"","level":"","kind_detail":"","lga":"Bwari","ward":"Usuma"},"geometry":{"type":"Point","coordinates":[7.35132,9.14191]}},{"type":"Feature","properties":{"name":"Boris Clinic Limited","kind":"clinic","ownership":"Private","level":"Primary","kind_detail":"Clinic","lga":"Bwari","ward":"Kubwa"},"geometry":{"type":"Point","coordinates":[7.32626,9.14386]}},{"type":"Feature","properties":{"name":"Miracle Seed Clinic And Maternity","kind":"clinic","ownership":"Private","level":"Primary","kind_detail":"Maternity Home","lga":"Bwari","ward":"Usuma"},"geometry":{"type":"Point","coordinates":[7.3255,9.14392]}},{"type":"Feature","properties":{"name":"Express Hospital","kind":"clinic","ownership":"Private","level":"Secondary","kind_detail":"Hospital","lga":"Bwari","ward":"Kubwa"},"geometry":{"type":"Point","coordinates":[7.31659,9.14523]}},{"type":"Feature","properties":{"name":"Usuma Hospital","kind":"clinic","ownership":"","level":"","kind_detail":"","lga":"Bwari","ward":"Usuma"},"geometry":{"type":"Point","coordinates":[7.3549,9.14617]}},{"type":"Feature","properties":{"name":"Diocese Of Kubwa, Anglican Hospital","kind":"clinic","ownership":"Private","level":"Primary","kind_detail":"Hospital","lga":"Bwari","ward":"Usuma"},"geometry":{"type":"Point","coordinates":[7.35336,9.14833]}},{"type":"Feature","properties":{"name":"Nysc Clinic","kind":"clinic","ownership":"","level":"","kind_detail":"","lga":"Bwari","ward":"Kubwa"},"geometry":{"type":"Point","coordinates":[7.31725,9.14929]}},{"type":"Feature","properties":{"name":"Zoputa Clinic And Maternity","kind":"clinic","ownership":"Private","level":"Primary","kind_detail":"Maternity Home","lga":"Bwari","ward":"Kubwa"},"geometry":{"type":"Point","coordinates":[7.34931,9.15073]}},{"type":"Feature","properties":{"name":"Umuogerem Health Center","kind":"clinic","ownership":"Public","level":"Primary","kind_detail":"Health Center","lga":"Bwari","ward":"Usuma"},"geometry":{"type":"Point","coordinates":[7.3454,9.15133]}},{"type":"Feature","properties":{"name":"Asher Hospital Kubwa","kind":"clinic","ownership":"Private","level":"Primary","kind_detail":"Hospital","lga":"Bwari","ward":"Kubwa"},"geometry":{"type":"Point","coordinates":[7.32629,9.15149]}},{"type":"Feature","properties":{"name":"Apex Specialist Hospital","kind":"clinic","ownership":"Private","level":"Secondary","kind_detail":"Specialist Hospital","lga":"Bwari","ward":"Usuma"},"geometry":{"type":"Point","coordinates":[7.33343,9.15286]}},{"type":"Feature","properties":{"name":"Peterevera Maternity And Health Service Ltd","kind":"clinic","ownership":"Private","level":"Primary","kind_detail":"Maternity Home","lga":"Bwari","ward":"Kubwa"},"geometry":{"type":"Point","coordinates":[7.31791,9.15301]}},{"type":"Feature","properties":{"name":"Divine Mercy Hospital","kind":"clinic","ownership":"Private","level":"Primary","kind_detail":"Hospital","lga":"Bwari","ward":"Usuma"},"geometry":{"type":"Point","coordinates":[7.34991,9.1535]}},{"type":"Feature","properties":{"name":"Medford Hospital ( Kubwa )","kind":"clinic","ownership":"Private","level":"Secondary","kind_detail":"Hospital","lga":"Bwari","ward":"Kubwa"},"geometry":{"type":"Point","coordinates":[7.33431,9.15372]}},{"type":"Feature","properties":{"name":"Pison Hospital","kind":"clinic","ownership":"Private","level":"Secondary","kind_detail":"Hospital","lga":"Bwari","ward":"Usuma"},"geometry":{"type":"Point","coordinates":[7.33777,9.15423]}},{"type":"Feature","properties":{"name":"Unity Clinic And Maternity","kind":"clinic","ownership":"Private","level":"Secondary","kind_detail":"Maternity Home","lga":"Bwari","ward":"Usuma"},"geometry":{"type":"Point","coordinates":[7.34729,9.15472]}},{"type":"Feature","properties":{"name":"Kubwa Muslim Community Hospital","kind":"clinic","ownership":"Private","level":"Secondary","kind_detail":"Hospital","lga":"Bwari","ward":"Usuma"},"geometry":{"type":"Point","coordinates":[7.34589,9.15527]}},{"type":"Feature","properties":{"name":"Kubwa General Hospital","kind":"clinic","ownership":"Public","level":"Secondary","kind_detail":"General Hospital","lga":"Bwari","ward":"Usuma"},"geometry":{"type":"Point","coordinates":[7.34078,9.15706]}},{"type":"Feature","properties":{"name":"Agbade Hospital And Maternity","kind":"clinic","ownership":"","level":"","kind_detail":"","lga":"Bwari","ward":"Usuma"},"geometry":{"type":"Point","coordinates":[7.34387,9.15729]}},{"type":"Feature","properties":{"name":"Santo Ellis Hospital Arab Road Kubwa","kind":"clinic","ownership":"Private","level":"Secondary","kind_detail":"Hospital","lga":"Bwari","ward":"Kubwa"},"geometry":{"type":"Point","coordinates":[7.31588,9.16178]}},{"type":"Feature","properties":{"name":"Daughters  Of Charity St Vincent Hospital","kind":"clinic","ownership":"Private","level":"Secondary","kind_detail":"Hospital","lga":"Bwari","ward":"Usuma"},"geometry":{"type":"Point","coordinates":[7.35766,9.16244]}},{"type":"Feature","properties":{"name":"Kubwa Clinic And Maternity ( Kubwa )","kind":"clinic","ownership":"Private","level":"Primary","kind_detail":"Maternity Home","lga":"Bwari","ward":"Kubwa"},"geometry":{"type":"Point","coordinates":[7.32324,9.14684]}},{"type":"Feature","properties":{"name":"Kings Care Hospital","kind":"clinic","ownership":"Private","level":"Secondary","kind_detail":"Hospital","lga":"Bwari","ward":"Usuma"},"geometry":{"type":"Point","coordinates":[7.34131,9.15149]}},{"type":"Feature","properties":{"name":"Redeemed Christian Church Of God Clinic","kind":"clinic","ownership":"Private","level":"Primary","kind_detail":"Clinic","lga":"Bwari","ward":"Usuma"},"geometry":{"type":"Point","coordinates":[7.34537,9.14464]}},{"type":"Feature","properties":{"name":"Gbazango Primary Health Centre","kind":"clinic","ownership":"Public","level":"Primary","kind_detail":"Primary Health Center","lga":"Bwari","ward":"Kubwa"},"geometry":{"type":"Point","coordinates":[7.31344,9.14471]}},{"type":"Feature","properties":{"name":"Asokoro District Hospital","kind":"clinic","ownership":"Public","level":"Secondary","kind_detail":"Hospital","lga":"Municipal Area Council","ward":"City Centre 1"},"geometry":{"type":"Point","coordinates":[7.52327,9.04561]}},{"type":"Feature","properties":{"name":"Medicaid Radioagnostic","kind":"clinic","ownership":"Public","level":"Primary","kind_detail":"Primary Health Center","lga":"Municipal Area Council","ward":"Wuse"},"geometry":{"type":"Point","coordinates":[7.46208,9.07742]}},{"type":"Feature","properties":{"name":"Divine Winners  Medical  And Maternity Ltd","kind":"clinic","ownership":"Private","level":"Secondary","kind_detail":"Maternity Home","lga":"Bwari","ward":"Dutse"},"geometry":{"type":"Point","coordinates":[7.36893,9.14033]}},{"type":"Feature","properties":{"name":"Nisa Premier Hospital","kind":"clinic","ownership":"Private","level":"Tertiary","kind_detail":"Hospital","lga":"Municipal Area Council","ward":"Gwarinpa"},"geometry":{"type":"Point","coordinates":[7.41149,9.06735]}},{"type":"Feature","properties":{"name":"Leblon Clinic And Maternity","kind":"clinic","ownership":"Private","level":"Primary","kind_detail":"Maternity Home","lga":"Municipal Area Council","ward":"Gwarinpa"},"geometry":{"type":"Point","coordinates":[7.4017,9.06951]}},{"type":"Feature","properties":{"name":"Frsc Medical Center","kind":"clinic","ownership":"Public","level":"Secondary","kind_detail":"Medical Center","lga":"Municipal Area Council","ward":"Wuse"},"geometry":{"type":"Point","coordinates":[7.46309,9.07021]}},{"type":"Feature","properties":{"name":"Arewa Specialist Hospital","kind":"clinic","ownership":"Private","level":"Primary","kind_detail":"Specialist Hospital","lga":"Municipal Area Council","ward":"Gwarinpa"},"geometry":{"type":"Point","coordinates":[7.41579,9.07282]}},{"type":"Feature","properties":{"name":"Hands Wellness Clinic Physiotherapi","kind":"clinic","ownership":"Private","level":"Primary","kind_detail":"Clinic","lga":"Municipal Area Council","ward":"Gwarinpa"},"geometry":{"type":"Point","coordinates":[7.4316,9.07519]}},{"type":"Feature","properties":{"name":"Nnpc Medical Center","kind":"clinic","ownership":"Public","level":"Secondary","kind_detail":"Medical Center","lga":"Municipal Area Council","ward":"Wuse"},"geometry":{"type":"Point","coordinates":[7.49784,9.07652]}},{"type":"Feature","properties":{"name":"Julius Berger Medical Service Ltd","kind":"clinic","ownership":"Private","level":"Primary","kind_detail":"Medical Center","lga":"Municipal Area Council","ward":"Gwarinpa"},"geometry":{"type":"Point","coordinates":[7.39156,9.07859]}},{"type":"Feature","properties":{"name":"State House Clinic Mambilla B","kind":"clinic","ownership":"Public","level":"Secondary","kind_detail":"Clinic","lga":"Municipal Area Council","ward":"City Centre 1"},"geometry":{"type":"Point","coordinates":[7.52065,9.08686]}},{"type":"Feature","properties":{"name":"St Georges Hospital","kind":"clinic","ownership":"Private","level":"Primary","kind_detail":"Hospital","lga":"Municipal Area Council","ward":"Gwarinpa"},"geometry":{"type":"Point","coordinates":[7.41445,9.09286]}},{"type":"Feature","properties":{"name":"Dr Hassan Clinic And Diagnostic Center","kind":"clinic","ownership":"Private","level":"Primary","kind_detail":"Diagnostic / Laboratory Center","lga":"Municipal Area Council","ward":"Wuse"},"geometry":{"type":"Point","coordinates":[7.49553,9.09418]}},{"type":"Feature","properties":{"name":"Gishiri Primary Health Centre","kind":"clinic","ownership":"Public","level":"Primary","kind_detail":"Clinic","lga":"Municipal Area Council","ward":"Gwarinpa"},"geometry":{"type":"Point","coordinates":[7.4647,9.10013]}},{"type":"Feature","properties":{"name":"Zhudi Amac Clinic","kind":"clinic","ownership":"","level":"","kind_detail":"","lga":"Municipal Area Council","ward":"Gwarinpa"},"geometry":{"type":"Point","coordinates":[7.38098,9.10417]}},{"type":"Feature","properties":{"name":"Gongolong Health Clinic","kind":"clinic","ownership":"Private","level":"Primary","kind_detail":"Clinic","lga":"Municipal Area Council","ward":"Gwarinpa"},"geometry":{"type":"Point","coordinates":[7.40552,9.10697]}},{"type":"Feature","properties":{"name":"Mpape Clinic Limited","kind":"clinic","ownership":"","level":"","kind_detail":"","lga":"Bwari","ward":"Dutse"},"geometry":{"type":"Point","coordinates":[7.48468,9.13428]}},{"type":"Feature","properties":{"name":"Olu Beautiful Gate Clinic And Maternity , Mpape","kind":"clinic","ownership":"Private","level":"Primary","kind_detail":"Maternity Home","lga":"Bwari","ward":"Dutse"},"geometry":{"type":"Point","coordinates":[7.49199,9.13749]}},{"type":"Feature","properties":{"name":"Aujo Clinic And Maternity","kind":"clinic","ownership":"Private","level":"Primary","kind_detail":"Maternity Home","lga":"Bwari","ward":"Dutse"},"geometry":{"type":"Point","coordinates":[7.38504,9.13894]}},{"type":"Feature","properties":{"name":"Mpape Primary Health Centre","kind":"clinic","ownership":"Public","level":"Primary","kind_detail":"Primary Health Center","lga":"Bwari","ward":"Dutse"},"geometry":{"type":"Point","coordinates":[7.4932,9.13948]}},{"type":"Feature","properties":{"name":"Alpha Clinic","kind":"clinic","ownership":"Private","level":"Primary","kind_detail":"Clinic","lga":"Bwari","ward":"Dutse"},"geometry":{"type":"Point","coordinates":[7.37372,9.14008]}},{"type":"Feature","properties":{"name":"Madonna Hospital And Maternity","kind":"clinic","ownership":"","level":"","kind_detail":"","lga":"Bwari","ward":"Dutse"},"geometry":{"type":"Point","coordinates":[7.50189,9.14008]}},{"type":"Feature","properties":{"name":"Gideon Legacy Hospital","kind":"clinic","ownership":"Private","level":"Secondary","kind_detail":"Hospital","lga":"Bwari","ward":"Dutse"},"geometry":{"type":"Point","coordinates":[7.38092,9.14093]}},{"type":"Feature","properties":{"name":"Dutse Alhaji Primary Health Centre","kind":"clinic","ownership":"Public","level":"Primary","kind_detail":"Primary Health Center","lga":"Bwari","ward":"Dutse"},"geometry":{"type":"Point","coordinates":[7.37268,9.14147]}},{"type":"Feature","properties":{"name":"Jikoko Primary Health Centre","kind":"clinic","ownership":"Public","level":"Primary","kind_detail":"Primary Health Center","lga":"Bwari","ward":"Dutse"},"geometry":{"type":"Point","coordinates":[7.4671,9.14223]}},{"type":"Feature","properties":{"name":"Royal Lords Hospital 7 Maternity","kind":"clinic","ownership":"Private","level":"Secondary","kind_detail":"Hospital","lga":"Bwari","ward":"Dutse"},"geometry":{"type":"Point","coordinates":[7.37393,9.14425]}},{"type":"Feature","properties":{"name":"Junex Hospital And Maternity","kind":"clinic","ownership":"","level":"","kind_detail":"","lga":"Bwari","ward":"Dutse"},"geometry":{"type":"Point","coordinates":[7.37793,9.14948]}},{"type":"Feature","properties":{"name":"Dutse Makaranta Primary Health Centre","kind":"clinic","ownership":"Public","level":"Primary","kind_detail":"Primary Health Center","lga":"Bwari","ward":"Dutse"},"geometry":{"type":"Point","coordinates":[7.37798,9.16571]}},{"type":"Feature","properties":{"name":"Oweh Memorial Clinic  Opposite Tipper Garage. Dutse Baupma","kind":"clinic","ownership":"Private","level":"Primary","kind_detail":"Clinic","lga":"Bwari","ward":"Dutse"},"geometry":{"type":"Point","coordinates":[7.38352,9.17249]}},{"type":"Feature","properties":{"name":"Mercy Maternity Home","kind":"clinic","ownership":"Public","level":"Primary","kind_detail":"Maternity Home","lga":"Municipal Area Council","ward":"Karu"},"geometry":{"type":"Point","coordinates":[7.56729,8.97402]}},{"type":"Feature","properties":{"name":"Rapha Hospital And Maternity","kind":"clinic","ownership":"Private","level":"Primary","kind_detail":"Hospital","lga":"Municipal Area Council","ward":"Karu"},"geometry":{"type":"Point","coordinates":[7.56814,8.97683]}},{"type":"Feature","properties":{"name":"Jikwoyi Native Hospital","kind":"clinic","ownership":"Private","level":"Primary","kind_detail":"Hospital","lga":"Municipal Area Council","ward":"Karu"},"geometry":{"type":"Point","coordinates":[7.56213,8.98629]}},{"type":"Feature","properties":{"name":"First Hospital Maternity Karu","kind":"clinic","ownership":"Private","level":"Primary","kind_detail":"Hospital","lga":"Municipal Area Council","ward":"Karu"},"geometry":{"type":"Point","coordinates":[7.56372,8.99951]}},{"type":"Feature","properties":{"name":"Nufin Allah Maternity Home","kind":"clinic","ownership":"Private","level":"Primary","kind_detail":"Maternity Home","lga":"Municipal Area Council","ward":"Karu"},"geometry":{"type":"Point","coordinates":[7.5748,9.0037]}},{"type":"Feature","properties":{"name":"Custom Medical Center","kind":"clinic","ownership":"Public","level":"Primary","kind_detail":"Medical Center","lga":"Municipal Area Council","ward":"Karu"},"geometry":{"type":"Point","coordinates":[7.56427,9.00372]}},{"type":"Feature","properties":{"name":"Albama Clinic","kind":"clinic","ownership":"Private","level":"Primary","kind_detail":"Clinic","lga":"Municipal Area Council","ward":"Karu"},"geometry":{"type":"Point","coordinates":[7.58014,9.00416]}},{"type":"Feature","properties":{"name":"Karu Primary Health Centre","kind":"clinic","ownership":"Public","level":"Primary","kind_detail":"Primary Health Center","lga":"Municipal Area Council","ward":"Karu"},"geometry":{"type":"Point","coordinates":[7.57897,9.00894]}},{"type":"Feature","properties":{"name":"Arewa Clinic","kind":"clinic","ownership":"Private","level":"Primary","kind_detail":"Clinic","lga":"Municipal Area Council","ward":"Karu"},"geometry":{"type":"Point","coordinates":[7.56215,9.01363]}},{"type":"Feature","properties":{"name":"Fountain Head Hospital","kind":"clinic","ownership":"Public","level":"Primary","kind_detail":"Hospital","lga":"Municipal Area Council","ward":"Nyanya 1"},"geometry":{"type":"Point","coordinates":[7.58633,9.02381]}},{"type":"Feature","properties":{"name":"Alibu And Maternity","kind":"clinic","ownership":"Private","level":"Primary","kind_detail":"Maternity Home","lga":"Municipal Area Council","ward":"Nyanya 1"},"geometry":{"type":"Point","coordinates":[7.57032,9.0262]}},{"type":"Feature","properties":{"name":"Blessed Trinity Hospital","kind":"clinic","ownership":"Public","level":"Primary","kind_detail":"Hospital","lga":"Municipal Area Council","ward":"Nyanya 1"},"geometry":{"type":"Point","coordinates":[7.58796,9.03126]}}]}