{"type":"FeatureCollection","features":[{"type":"Feature","properties":{"name":"Garki","label":"Garki","place":"suburb","rank":10,"pinned":1,"priority":10,"always":0},"geometry":{"type":"Point","coordinates":[7.46848,9.00849]}},{"type":"Feature","properties":{"name":"Wuse","label":"Wuse","place":"suburb","rank":10,"pinned":1,"priority":10,"always":0},"geometry":{"type":"Point","coordinates":[7.47296,9.06547]}},{"type":"Feature","properties":{"name":"Asokoro","label":"Asokoro","place":"suburb","rank":10,"pinned":1,"priority":10,"always":0},"geometry":{"type":"Point","coordinates":[7.51969,9.04235]}},{"type":"Feature","properties":{"name":"Maitama","label":"Maitama","place":"suburb","rank":10,"pinned":1,"priority":10,"always":0},"geometry":{"type":"Point","coordinates":[7.49081,9.0901]}},{"type":"Feature","properties":{"name":"Gwarinpa","label":"Gwarinpa","place":"suburb","rank":10,"pinned":1,"priority":10,"always":1},"geometry":{"type":"Point","coordinates":[7.41015,9.09524]}},{"type":"Feature","properties":{"name":"Apo","label":"Apo","place":"locality","rank":8,"pinned":1,"priority":10,"always":1},"geometry":{"type":"Point","coordinates":[7.49966,8.97364]}},{"type":"Feature","properties":{"name":"Lugbe","label":"Lugbe","place":"locality","rank":8,"pinned":1,"priority":10,"always":1},"geometry":{"type":"Point","coordinates":[7.37106,8.97212]}},{"type":"Feature","properties":{"name":"Dutse","label":"Dutse","place":"locality","rank":8,"pinned":1,"priority":10,"always":1},"geometry":{"type":"Point","coordinates":[7.37577,9.14212]}},{"type":"Feature","properties":{"name":"Kabusa","label":"Kabusa","place":"locality","rank":8,"pinned":1,"priority":10,"always":1},"geometry":{"type":"Point","coordinates":[7.44353,8.94871]}},{"type":"Feature","properties":{"name":"City Centre","label":"City Centre","place":"locality","rank":8,"pinned":1,"priority":10,"always":0},"geometry":{"type":"Point","coordinates":[7.48098,9.03295]}},{"type":"Feature","properties":{"name":"Usuma","label":"Usuma","place":"locality","rank":8,"pinned":1,"priority":10,"always":0},"geometry":{"type":"Point","coordinates":[7.34935,9.15139]}},{"type":"Feature","properties":{"name":"Lokogoma","label":"Lokogoma","place":"residential","rank":7,"pinned":1,"priority":10,"always":1},"geometry":{"type":"Point","coordinates":[7.47374,8.96607]}},{"type":"Feature","properties":{"name":"Karu","label":"Karu","place":"village","rank":5,"pinned":1,"priority":10,"always":1},"geometry":{"type":"Point","coordinates":[7.5635,8.98107]}},{"type":"Feature","properties":{"name":"Nyanya","label":"Nyanya","place":"village","rank":5,"pinned":1,"priority":10,"always":1},"geometry":{"type":"Point","coordinates":[7.57394,9.02899]}},{"type":"Feature","properties":{"name":"Kubwa","label":"Kubwa","place":"town","rank":5,"pinned":1,"priority":10,"always":1},"geometry":{"type":"Point","coordinates":[7.31961,9.14839]}},{"type":"Feature","properties":{"name":"Utako","label":"Utako","place":"suburb","rank":10,"pinned":1,"priority":8,"always":0},"geometry":{"type":"Point","coordinates":[7.44353,9.06911]}},{"type":"Feature","properties":{"name":"Durumi","label":"Durumi","place":"suburb","rank":10,"pinned":1,"priority":8,"always":0},"geometry":{"type":"Point","coordinates":[7.46433,9.01946]}},{"type":"Feature","properties":{"name":"Gudu","label":"Gudu","place":"suburb","rank":10,"pinned":1,"priority":8,"always":0},"geometry":{"type":"Point","coordinates":[7.4799,9.00818]}},{"type":"Feature","properties":{"name":"Jabi","label":"Jabi","place":"suburb","rank":10,"pinned":1,"priority":8,"always":0},"geometry":{"type":"Point","coordinates":[7.42101,9.06462]}},{"type":"Feature","properties":{"name":"Wuye","label":"Wuye","place":"suburb","rank":10,"pinned":1,"priority":8,"always":0},"geometry":{"type":"Point","coordinates":[7.44253,9.04977]}},{"type":"Feature","properties":{"name":"Kaura","label":"Kaura","place":"suburb","rank":10,"pinned":1,"priority":8,"always":0},"geometry":{"type":"Point","coordinates":[7.44561,9.00316]}},{"type":"Feature","properties":{"name":"Galadimawa","label":"Galadimawa","place":"village","rank":5,"pinned":1,"priority":8,"always":0},"geometry":{"type":"Point","coordinates":[7.43056,8.98472]}}]}