{"type":"FeatureCollection","features":[{"type":"Feature","properties":{"name":"Chika","alt_name":"","kind":"settlement","source":"grid3","ward":"Kabusa","lga":"Municipal Area Council","is_primary":1,"in_plate":1},"geometry":{"type":"Point","coordinates":[7.4076,8.99277]}},{"type":"Feature","properties":{"name":"Dakwa 2","alt_name":"","kind":"settlement","source":"grid3","ward":"Kubwa","lga":"Bwari","is_primary":1,"in_plate":1},"geometry":{"type":"Point","coordinates":[7.23344,9.11201]}},{"type":"Feature","properties":{"name":"Durumi","alt_name":"","kind":"settlement","source":"grid3","ward":"Garki","lga":"Municipal Area Council","is_primary":1,"in_plate":1},"geometry":{"type":"Point","coordinates":[7.47342,9.01212]}},{"type":"Feature","properties":{"name":"Dutse Alhaji","alt_name":"","kind":"settlement","source":"grid3","ward":"Dutse","lga":"Bwari","is_primary":1,"in_plate":1},"geometry":{"type":"Point","coordinates":[7.37108,9.13999]}},{"type":"Feature","properties":{"name":"Dutsen Garki","alt_name":"","kind":"settlement","source":"grid3","ward":"Garki","lga":"Municipal Area Council","is_primary":1,"in_plate":1},"geometry":{"type":"Point","coordinates":[7.48647,8.97718]}},{"type":"Feature","properties":{"name":"Garki Area 1","alt_name":"","kind":"settlement","source":"grid3","ward":"City Centre","lga":"Municipal Area Council","is_primary":1,"in_plate":1},"geometry":{"type":"Point","coordinates":[7.47081,9.03104]}},{"type":"Feature","properties":{"name":"Garki II Area 11","alt_name":"","kind":"settlement","source":"grid3","ward":"City Centre","lga":"Municipal Area Council","is_primary":1,"in_plate":1},"geometry":{"type":"Point","coordinates":[7.49569,9.03634]}},{"type":"Feature","properties":{"name":"Idu Okoro 1","alt_name":"","kind":"settlement","source":"grid3","ward":"Gwarinpa","lga":"Municipal Area Council","is_primary":1,"in_plate":1},"geometry":{"type":"Point","coordinates":[7.35932,9.07159]}},{"type":"Feature","properties":{"name":"Jahi 1","alt_name":"","kind":"settlement","source":"grid3","ward":"Gwarinpa","lga":"Municipal Area Council","is_primary":1,"in_plate":1},"geometry":{"type":"Point","coordinates":[7.44121,9.09559]}},{"type":"Feature","properties":{"name":"Jikwoyi","alt_name":"","kind":"settlement","source":"grid3","ward":"Karu","lga":"Municipal Area Council","is_primary":1,"in_plate":1},"geometry":{"type":"Point","coordinates":[7.57064,8.99625]}},{"type":"Feature","properties":{"name":"Karsana","alt_name":"","kind":"settlement","source":"grid3","ward":"Gwarinpa","lga":"Municipal Area Council","is_primary":1,"in_plate":1},"geometry":{"type":"Point","coordinates":[7.33689,9.12461]}},{"type":"Feature","properties":{"name":"Ketti","alt_name":"","kind":"settlement","source":"grid3","ward":"Kabusa","lga":"Municipal Area Council","is_primary":1,"in_plate":1},"geometry":{"type":"Point","coordinates":[7.39435,8.92651]}},{"type":"Feature","properties":{"name":"Kubwa","alt_name":"","kind":"settlement","source":"grid3","ward":"Usuma","lga":"Bwari","is_primary":1,"in_plate":1},"geometry":{"type":"Point","coordinates":[7.34066,9.15724]}},{"type":"Feature","properties":{"name":"Kubwa Village","alt_name":"","kind":"settlement","source":"grid3","ward":"Kubwa","lga":"Bwari","is_primary":1,"in_plate":1},"geometry":{"type":"Point","coordinates":[7.32067,9.15287]}},{"type":"Feature","properties":{"name":"Kuchigoro","alt_name":"","kind":"settlement","source":"grid3","ward":"Gwarinpa","lga":"Municipal Area Council","is_primary":1,"in_plate":1},"geometry":{"type":"Point","coordinates":[7.4222,9.01582]}},{"type":"Feature","properties":{"name":"Kugbo 1 Catholic Church","alt_name":"","kind":"settlement","source":"grid3","ward":"Nyanya","lga":"Municipal Area Council","is_primary":1,"in_plate":1},"geometry":{"type":"Point","coordinates":[7.54543,9.02481]}},{"type":"Feature","properties":{"name":"Life Camp","alt_name":"","kind":"settlement","source":"grid3","ward":"Gwarinpa","lga":"Municipal Area Council","is_primary":1,"in_plate":1},"geometry":{"type":"Point","coordinates":[7.3984,9.07764]}},{"type":"Feature","properties":{"name":"Lugbe Fha","alt_name":"","kind":"settlement","source":"grid3","ward":"Kabusa","lga":"Municipal Area Council","is_primary":1,"in_plate":1},"geometry":{"type":"Point","coordinates":[7.32443,8.9661]}},{"type":"Feature","properties":{"name":"Mabushi Nakowa","alt_name":"","kind":"settlement","source":"grid3","ward":"Gwarinpa","lga":"Municipal Area Council","is_primary":1,"in_plate":1},"geometry":{"type":"Point","coordinates":[7.45503,9.0819]}},{"type":"Feature","properties":{"name":"Nyanya","alt_name":"","kind":"settlement","source":"grid3","ward":"Nyanya","lga":"Municipal Area Council","is_primary":1,"in_plate":1},"geometry":{"type":"Point","coordinates":[7.56728,9.0221]}},{"type":"Feature","properties":{"name":"Shape 1","alt_name":"","kind":"settlement","source":"grid3","ward":"Dutse","lga":"Bwari","is_primary":1,"in_plate":1},"geometry":{"type":"Point","coordinates":[7.56625,9.11062]}},{"type":"Feature","properties":{"name":"Wuye","alt_name":"","kind":"settlement","source":"grid3","ward":"Gwarinpa","lga":"Municipal Area Council","is_primary":1,"in_plate":1},"geometry":{"type":"Point","coordinates":[7.44584,9.0531]}},{"type":"Feature","properties":{"name":"Zhako Yako","alt_name":"","kind":"settlement","source":"grid3","ward":"Kabusa","lga":"Municipal Area Council","is_primary":1,"in_plate":1},"geometry":{"type":"Point","coordinates":[7.45576,8.88937]}},{"type":"Feature","properties":{"name":"Aguiyi Ironsi Cantonment","alt_name":"","kind":"settlement","source":"grid3","ward":"City Centre","lga":"Municipal Area Council","is_primary":0,"in_plate":1},"geometry":{"type":"Point","coordinates":[7.52711,9.06654]}},{"type":"Feature","properties":{"name":"Aleyita","alt_name":"","kind":"settlement","source":"grid3","ward":"Kabusa","lga":"Municipal Area Council","is_primary":0,"in_plate":1},"geometry":{"type":"Point","coordinates":[7.40119,8.99125]}},{"type":"Feature","properties":{"name":"Anakita","alt_name":"Ketti Village","kind":"settlement","source":"grid3","ward":"Kabusa","lga":"Municipal Area Council","is_primary":0,"in_plate":1},"geometry":{"type":"Point","coordinates":[7.39999,8.91893]}},{"type":"Feature","properties":{"name":"Anguwan Gbagyi Gbagalape","alt_name":"","kind":"settlement","source":"grid3","ward":"Nyanya","lga":"Municipal Area Council","is_primary":0,"in_plate":1},"geometry":{"type":"Point","coordinates":[7.57695,9.05772]}},{"type":"Feature","properties":{"name":"Anguwan Hausawa","alt_name":"","kind":"settlement","source":"grid3","ward":"Nyanya","lga":"Municipal Area Council","is_primary":0,"in_plate":1},"geometry":{"type":"Point","coordinates":[7.56805,9.02088]}},{"type":"Feature","properties":{"name":"Apo","alt_name":"","kind":"settlement","source":"grid3","ward":"Garki","lga":"Municipal Area Council","is_primary":0,"in_plate":1},"geometry":{"type":"Point","coordinates":[7.49966,8.97364]}},{"type":"Feature","properties":{"name":"Apo Resettlement","alt_name":"","kind":"settlement","source":"grid3","ward":"Garki","lga":"Municipal Area Council","is_primary":0,"in_plate":1},"geometry":{"type":"Point","coordinates":[7.49607,8.98663]}},{"type":"Feature","properties":{"name":"Apo Roundabout Settlement","alt_name":"","kind":"settlement","source":"grid3","ward":"Garki","lga":"Municipal Area Council","is_primary":0,"in_plate":1},"geometry":{"type":"Point","coordinates":[7.4912,9.01501]}},{"type":"Feature","properties":{"name":"Apo Sunrise Plaza","alt_name":"","kind":"settlement","source":"grid3","ward":"Garki","lga":"Municipal Area Council","is_primary":0,"in_plate":1},"geometry":{"type":"Point","coordinates":[7.49821,8.98745]}},{"type":"Feature","properties":{"name":"Apostolic Church","alt_name":"","kind":"settlement","source":"grid3","ward":"Nyanya","lga":"Municipal Area Council","is_primary":0,"in_plate":1},"geometry":{"type":"Point","coordinates":[7.57728,9.05565]}},{"type":"Feature","properties":{"name":"Aquamarine Estate","alt_name":"","kind":"settlement","source":"grid3","ward":"Garki","lga":"Municipal Area Council","is_primary":0,"in_plate":1},"geometry":{"type":"Point","coordinates":[7.49525,8.95552]}},{"type":"Feature","properties":{"name":"Area 1 Dagba","alt_name":"","kind":"settlement","source":"grid3","ward":"City Centre","lga":"Municipal Area Council","is_primary":0,"in_plate":1},"geometry":{"type":"Point","coordinates":[7.46819,9.02374]}},{"type":"Feature","properties":{"name":"Area A 1","alt_name":"","kind":"settlement","source":"grid3","ward":"Nyanya","lga":"Municipal Area Council","is_primary":0,"in_plate":1},"geometry":{"type":"Point","coordinates":[7.56681,9.02762]}},{"type":"Feature","properties":{"name":"Area A1 Islamiya School","alt_name":"","kind":"settlement","source":"grid3","ward":"Nyanya","lga":"Municipal Area Council","is_primary":0,"in_plate":1},"geometry":{"type":"Point","coordinates":[7.56715,9.02781]}},{"type":"Feature","properties":{"name":"Area A2 Block7","alt_name":"","kind":"settlement","source":"grid3","ward":"Nyanya","lga":"Municipal Area Council","is_primary":0,"in_plate":1},"geometry":{"type":"Point","coordinates":[7.56818,9.02672]}},{"type":"Feature","properties":{"name":"Area B","alt_name":"","kind":"settlement","source":"grid3","ward":"Nyanya","lga":"Municipal Area Council","is_primary":0,"in_plate":1},"geometry":{"type":"Point","coordinates":[7.56971,9.02908]}},{"type":"Feature","properties":{"name":"Area B Extention","alt_name":"","kind":"settlement","source":"grid3","ward":"Nyanya","lga":"Municipal Area Council","is_primary":0,"in_plate":1},"geometry":{"type":"Point","coordinates":[7.56771,9.03157]}},{"type":"Feature","properties":{"name":"Area B Extention Capital City Blessed Academy","alt_name":"","kind":"settlement","source":"grid3","ward":"Nyanya","lga":"Municipal Area Council","is_primary":0,"in_plate":1},"geometry":{"type":"Point","coordinates":[7.56963,9.03216]}},{"type":"Feature","properties":{"name":"Area B Extention Deeper Life","alt_name":"","kind":"settlement","source":"grid3","ward":"Nyanya","lga":"Municipal Area Council","is_primary":0,"in_plate":1},"geometry":{"type":"Point","coordinates":[7.56959,9.03168]}},{"type":"Feature","properties":{"name":"Area B Extention Fountain Academy","alt_name":"","kind":"settlement","source":"grid3","ward":"Nyanya","lga":"Municipal Area Council","is_primary":0,"in_plate":1},"geometry":{"type":"Point","coordinates":[7.57137,9.03323]}},{"type":"Feature","properties":{"name":"Area B Extention Redeem Church","alt_name":"","kind":"settlement","source":"grid3","ward":"Nyanya","lga":"Municipal Area Council","is_primary":0,"in_plate":1},"geometry":{"type":"Point","coordinates":[7.57007,9.03433]}},{"type":"Feature","properties":{"name":"Area B Extention Revival Outreach","alt_name":"","kind":"settlement","source":"grid3","ward":"Nyanya","lga":"Municipal Area Council","is_primary":0,"in_plate":1},"geometry":{"type":"Point","coordinates":[7.56937,9.03255]}},{"type":"Feature","properties":{"name":"Area B Extention Ris School","alt_name":"","kind":"settlement","source":"grid3","ward":"Nyanya","lga":"Municipal Area Council","is_primary":0,"in_plate":1},"geometry":{"type":"Point","coordinates":[7.57137,9.0335]}},{"type":"Feature","properties":{"name":"Area B Extention United Evangelical School","alt_name":"","kind":"settlement","source":"grid3","ward":"Nyanya","lga":"Municipal Area Council","is_primary":0,"in_plate":1},"geometry":{"type":"Point","coordinates":[7.57107,9.03224]}},{"type":"Feature","properties":{"name":"Area B Extention the Redeemed Sanctified Zion Church","alt_name":"","kind":"settlement","source":"grid3","ward":"Nyanya","lga":"Municipal Area Council","is_primary":0,"in_plate":1},"geometry":{"type":"Point","coordinates":[7.56977,9.03421]}},{"type":"Feature","properties":{"name":"Area C Costom","alt_name":"","kind":"settlement","source":"grid3","ward":"Nyanya","lga":"Municipal Area Council","is_primary":0,"in_plate":1},"geometry":{"type":"Point","coordinates":[7.57374,9.03213]}},{"type":"Feature","properties":{"name":"Area C Extension","alt_name":"","kind":"settlement","source":"grid3","ward":"Nyanya","lga":"Municipal Area Council","is_primary":0,"in_plate":1},"geometry":{"type":"Point","coordinates":[7.57528,9.03286]}},{"type":"Feature","properties":{"name":"Area C Hilltop","alt_name":"","kind":"settlement","source":"grid3","ward":"Nyanya","lga":"Municipal Area Council","is_primary":0,"in_plate":1},"geometry":{"type":"Point","coordinates":[7.57454,9.03568]}},{"type":"Feature","properties":{"name":"Area C Mopol","alt_name":"","kind":"settlement","source":"grid3","ward":"Nyanya","lga":"Municipal Area Council","is_primary":0,"in_plate":1},"geometry":{"type":"Point","coordinates":[7.57536,9.03388]}},{"type":"Feature","properties":{"name":"Area C Quaters","alt_name":"","kind":"settlement","source":"grid3","ward":"Nyanya","lga":"Municipal Area Council","is_primary":0,"in_plate":1},"geometry":{"type":"Point","coordinates":[7.57324,9.03243]}},{"type":"Feature","properties":{"name":"Area D Block 110","alt_name":"","kind":"settlement","source":"grid3","ward":"Nyanya","lga":"Municipal Area Council","is_primary":0,"in_plate":1},"geometry":{"type":"Point","coordinates":[7.57729,9.02933]}},{"type":"Feature","properties":{"name":"Area D Ss Peter and Paul Nyanya","alt_name":"","kind":"settlement","source":"grid3","ward":"Nyanya","lga":"Municipal Area Council","is_primary":0,"in_plate":1},"geometry":{"type":"Point","coordinates":[7.57748,9.02865]}},{"type":"Feature","properties":{"name":"Area F 1 Vicilly Excel School","alt_name":"","kind":"settlement","source":"grid3","ward":"Nyanya","lga":"Municipal Area Council","is_primary":0,"in_plate":1},"geometry":{"type":"Point","coordinates":[7.57243,9.02609]}},{"type":"Feature","properties":{"name":"Area F2","alt_name":"","kind":"settlement","source":"grid3","ward":"Nyanya","lga":"Municipal Area Council","is_primary":0,"in_plate":1},"geometry":{"type":"Point","coordinates":[7.57064,9.02811]}},{"type":"Feature","properties":{"name":"Army Barrack","alt_name":"","kind":"settlement","source":"grid3","ward":"City Centre","lga":"Municipal Area Council","is_primary":0,"in_plate":1},"geometry":{"type":"Point","coordinates":[7.51199,9.0814]}},{"type":"Feature","properties":{"name":"Aso","alt_name":"","kind":"village","source":"osm","ward":"City Centre","lga":"Municipal Area Council","is_primary":0,"in_plate":1},"geometry":{"type":"Point","coordinates":[7.53002,9.05189]}},{"type":"Feature","properties":{"name":"Aso Drive","alt_name":"","kind":"settlement","source":"grid3","ward":"City Centre","lga":"Municipal Area Council","is_primary":0,"in_plate":1},"geometry":{"type":"Point","coordinates":[7.50711,9.07764]}},{"type":"Feature","properties":{"name":"Asokoro","alt_name":"","kind":"settlement","source":"grid3","ward":"Garki","lga":"Municipal Area Council","is_primary":0,"in_plate":1},"geometry":{"type":"Point","coordinates":[7.51907,9.03678]}},{"type":"Feature","properties":{"name":"Asokoro","alt_name":"","kind":"settlement","source":"grid3","ward":"City Centre","lga":"Municipal Area Council","is_primary":0,"in_plate":1},"geometry":{"type":"Point","coordinates":[7.52608,9.04944]}},{"type":"Feature","properties":{"name":"Asokoro Extension Paduma Hill","alt_name":"","kind":"settlement","source":"grid3","ward":"Garki","lga":"Municipal Area Council","is_primary":0,"in_plate":1},"geometry":{"type":"Point","coordinates":[7.52549,9.02697]}},{"type":"Feature","properties":{"name":"Baracha Estate","alt_name":"","kind":"settlement","source":"grid3","ward":"City Centre","lga":"Municipal Area Council","is_primary":0,"in_plate":1},"geometry":{"type":"Point","coordinates":[7.4486,9.01255]}},{"type":"Feature","properties":{"name":"Barack","alt_name":"","kind":"settlement","source":"grid3","ward":"Nyanya","lga":"Municipal Area Council","is_primary":0,"in_plate":1},"geometry":{"type":"Point","coordinates":[7.57336,9.02789]}},{"type":"Feature","properties":{"name":"Barracks Lungi","alt_name":"","kind":"settlement","source":"grid3","ward":"City Centre","lga":"Municipal Area Council","is_primary":0,"in_plate":1},"geometry":{"type":"Point","coordinates":[7.52313,9.09061]}},{"type":"Feature","properties":{"name":"Bmuko","alt_name":"","kind":"settlement","source":"grid3","ward":"Dutse","lga":"Bwari","is_primary":0,"in_plate":1},"geometry":{"type":"Point","coordinates":[7.37497,9.18586]}},{"type":"Feature","properties":{"name":"Borehole","alt_name":"","kind":"settlement","source":"grid3","ward":"Nyanya","lga":"Municipal Area Council","is_primary":0,"in_plate":1},"geometry":{"type":"Point","coordinates":[7.5735,9.02886]}},{"type":"Feature","properties":{"name":"Boundary Road","alt_name":"","kind":"settlement","source":"grid3","ward":"Nyanya","lga":"Municipal Area Council","is_primary":0,"in_plate":1},"geometry":{"type":"Point","coordinates":[7.58007,9.03248]}},{"type":"Feature","properties":{"name":"Boundary Road Explot School","alt_name":"","kind":"settlement","source":"grid3","ward":"Nyanya","lga":"Municipal Area Council","is_primary":0,"in_plate":1},"geometry":{"type":"Point","coordinates":[7.57779,9.02868]}},{"type":"Feature","properties":{"name":"Boundary Road Gods Anoited School","alt_name":"","kind":"settlement","source":"grid3","ward":"Nyanya","lga":"Municipal Area Council","is_primary":0,"in_plate":1},"geometry":{"type":"Point","coordinates":[7.58017,9.02889]}},{"type":"Feature","properties":{"name":"Boundary Road Twin Academy","alt_name":"","kind":"settlement","source":"grid3","ward":"Nyanya","lga":"Municipal Area Council","is_primary":0,"in_plate":1},"geometry":{"type":"Point","coordinates":[7.58051,9.03613]}},{"type":"Feature","properties":{"name":"Brick City Kubwa Phase 2","alt_name":"","kind":"settlement","source":"grid3","ward":"Kubwa","lga":"Bwari","is_primary":0,"in_plate":1},"geometry":{"type":"Point","coordinates":[7.29084,9.14363]}},{"type":"Feature","properties":{"name":"Burum","alt_name":"","kind":"settlement","source":"grid3","ward":"Kabusa","lga":"Municipal Area Council","is_primary":0,"in_plate":1},"geometry":{"type":"Point","coordinates":[7.43783,8.88933]}},{"type":"Feature","properties":{"name":"Catholic Gate","alt_name":"","kind":"settlement","source":"grid3","ward":"Nyanya","lga":"Municipal Area Council","is_primary":0,"in_plate":1},"geometry":{"type":"Point","coordinates":[7.57977,9.02917]}},{"type":"Feature","properties":{"name":"Cbn Housing Estate","alt_name":"","kind":"settlement","source":"grid3","ward":"Garki","lga":"Municipal Area Council","is_primary":0,"in_plate":1},"geometry":{"type":"Point","coordinates":[7.48773,8.97117]}},{"type":"Feature","properties":{"name":"Cbn Junction","alt_name":"","kind":"settlement","source":"grid3","ward":"City Centre","lga":"Municipal Area Council","is_primary":0,"in_plate":1},"geometry":{"type":"Point","coordinates":[7.5026,9.03183]}},{"type":"Feature","properties":{"name":"Christ Church Boundary","alt_name":"","kind":"settlement","source":"grid3","ward":"Nyanya","lga":"Municipal Area Council","is_primary":0,"in_plate":1},"geometry":{"type":"Point","coordinates":[7.57969,9.02906]}},{"type":"Feature","properties":{"name":"Chuks Estate","alt_name":"","kind":"settlement","source":"grid3","ward":"Nyanya","lga":"Municipal Area Council","is_primary":0,"in_plate":1},"geometry":{"type":"Point","coordinates":[7.57993,9.03634]}},{"type":"Feature","properties":{"name":"Church of Christ","alt_name":"","kind":"settlement","source":"grid3","ward":"Nyanya","lga":"Municipal Area Council","is_primary":0,"in_plate":1},"geometry":{"type":"Point","coordinates":[7.57563,9.05702]}},{"type":"Feature","properties":{"name":"City Gate Police Baracks","alt_name":"","kind":"settlement","source":"grid3","ward":"Gwarinpa","lga":"Municipal Area Council","is_primary":0,"in_plate":1},"geometry":{"type":"Point","coordinates":[7.43264,9.02793]}},{"type":"Feature","properties":{"name":"Citygate","alt_name":"","kind":"settlement","source":"grid3","ward":"City Centre","lga":"Municipal Area Council","is_primary":0,"in_plate":1},"geometry":{"type":"Point","coordinates":[7.4544,9.01938]}},{"type":"Feature","properties":{"name":"Custom Estate","alt_name":"","kind":"settlement","source":"grid3","ward":"Karu","lga":"Municipal Area Council","is_primary":0,"in_plate":1},"geometry":{"type":"Point","coordinates":[7.56414,9.00424]}},{"type":"Feature","properties":{"name":"Dagba","alt_name":"","kind":"settlement","source":"grid3","ward":"City Centre","lga":"Municipal Area Council","is_primary":0,"in_plate":1},"geometry":{"type":"Point","coordinates":[7.46144,9.01777]}},{"type":"Feature","properties":{"name":"Dagbana","alt_name":"","kind":"settlement","source":"grid3","ward":"Karu","lga":"Municipal Area Council","is_primary":0,"in_plate":1},"geometry":{"type":"Point","coordinates":[7.576,8.96824]}},{"type":"Feature","properties":{"name":"Dakin Biyu Karshi","alt_name":"","kind":"settlement","source":"grid3","ward":"Kabusa","lga":"Municipal Area Council","is_primary":0,"in_plate":1},"geometry":{"type":"Point","coordinates":[7.4368,8.87598]}},{"type":"Feature","properties":{"name":"Dakwa","alt_name":"","kind":"settlement","source":"grid3","ward":"Kubwa","lga":"Bwari","is_primary":0,"in_plate":1},"geometry":{"type":"Point","coordinates":[7.23728,9.11422]}},{"type":"Feature","properties":{"name":"Dakwa 1","alt_name":"","kind":"settlement","source":"grid3","ward":"Kubwa","lga":"Bwari","is_primary":0,"in_plate":1},"geometry":{"type":"Point","coordinates":[7.2385,9.11397]}},{"type":"Feature","properties":{"name":"Damangaza","alt_name":"","kind":"settlement","source":"grid3","ward":"Garki","lga":"Municipal Area Council","is_primary":0,"in_plate":1},"geometry":{"type":"Point","coordinates":[7.47087,8.98183]}},{"type":"Feature","properties":{"name":"Dape Village","alt_name":"","kind":"settlement","source":"grid3","ward":"Gwarinpa","lga":"Municipal Area Council","is_primary":0,"in_plate":1},"geometry":{"type":"Point","coordinates":[7.37233,9.09129]}},{"type":"Feature","properties":{"name":"Darlington Pampers Special Academy","alt_name":"","kind":"settlement","source":"grid3","ward":"Nyanya","lga":"Municipal Area Council","is_primary":0,"in_plate":1},"geometry":{"type":"Point","coordinates":[7.57701,9.0574]}},{"type":"Feature","properties":{"name":"Dawaki","alt_name":"","kind":"settlement","source":"grid3","ward":"Dutse","lga":"Bwari","is_primary":0,"in_plate":1},"geometry":{"type":"Point","coordinates":[7.39106,9.12737]}},{"type":"Feature","properties":{"name":"Deeper Life 2","alt_name":"","kind":"settlement","source":"grid3","ward":"Nyanya","lga":"Municipal Area Council","is_primary":0,"in_plate":1},"geometry":{"type":"Point","coordinates":[7.57712,9.05543]}},{"type":"Feature","properties":{"name":"Dei Dei Shagari Quarters","alt_name":"","kind":"settlement","source":"grid3","ward":"Kubwa","lga":"Bwari","is_primary":0,"in_plate":1},"geometry":{"type":"Point","coordinates":[7.2532,9.11447]}},{"type":"Feature","properties":{"name":"Deidei","alt_name":"","kind":"settlement","source":"grid3","ward":"Kubwa","lga":"Bwari","is_primary":0,"in_plate":1},"geometry":{"type":"Point","coordinates":[7.25895,9.11446]}},{"type":"Feature","properties":{"name":"Dnako","alt_name":"","kind":"settlement","source":"grid3","ward":"Kabusa","lga":"Municipal Area Council","is_primary":0,"in_plate":1},"geometry":{"type":"Point","coordinates":[7.44662,8.97715]}},{"type":"Feature","properties":{"name":"Dominion Chapel","alt_name":"","kind":"settlement","source":"grid3","ward":"Nyanya","lga":"Municipal Area Council","is_primary":0,"in_plate":1},"geometry":{"type":"Point","coordinates":[7.57505,9.0352]}},{"type":"Feature","properties":{"name":"Dunamis School","alt_name":"","kind":"settlement","source":"grid3","ward":"Nyanya","lga":"Municipal Area Council","is_primary":0,"in_plate":1},"geometry":{"type":"Point","coordinates":[7.58066,9.03265]}},{"type":"Feature","properties":{"name":"Durumi 2","alt_name":"","kind":"settlement","source":"grid3","ward":"Garki","lga":"Municipal Area Council","is_primary":0,"in_plate":1},"geometry":{"type":"Point","coordinates":[7.46829,9.00995]}},{"type":"Feature","properties":{"name":"Dutse Baupma","alt_name":"","kind":"settlement","source":"grid3","ward":"Dutse","lga":"Bwari","is_primary":0,"in_plate":1},"geometry":{"type":"Point","coordinates":[7.38139,9.17361]}},{"type":"Feature","properties":{"name":"Dutse Garki Apo","alt_name":"","kind":"settlement","source":"grid3","ward":"Garki","lga":"Municipal Area Council","is_primary":0,"in_plate":1},"geometry":{"type":"Point","coordinates":[7.48997,8.9757]}},{"type":"Feature","properties":{"name":"Dutse Makaranta","alt_name":"","kind":"settlement","source":"grid3","ward":"Dutse","lga":"Bwari","is_primary":0,"in_plate":1},"geometry":{"type":"Point","coordinates":[7.3794,9.16617]}},{"type":"Feature","properties":{"name":"Dutse Saukale","alt_name":"","kind":"settlement","source":"grid3","ward":"Dutse","lga":"Bwari","is_primary":0,"in_plate":1},"geometry":{"type":"Point","coordinates":[7.37852,9.14853]}},{"type":"Feature","properties":{"name":"Dutsen Alhaji","alt_name":"","kind":"town","source":"osm","ward":"Dutse","lga":"Bwari","is_primary":0,"in_plate":1},"geometry":{"type":"Point","coordinates":[7.37266,9.13996]}},{"type":"Feature","properties":{"name":"Efab Estate","alt_name":"","kind":"settlement","source":"grid3","ward":"Kabusa","lga":"Municipal Area Council","is_primary":0,"in_plate":1},"geometry":{"type":"Point","coordinates":[7.4603,8.97539]}},{"type":"Feature","properties":{"name":"Efab Global Estate","alt_name":"","kind":"settlement","source":"grid3","ward":"Gwarinpa","lga":"Municipal Area Council","is_primary":0,"in_plate":1},"geometry":{"type":"Point","coordinates":[7.39214,9.04301]}},{"type":"Feature","properties":{"name":"Ercc Church","alt_name":"","kind":"settlement","source":"grid3","ward":"Nyanya","lga":"Municipal Area Council","is_primary":0,"in_plate":1},"geometry":{"type":"Point","coordinates":[7.57627,9.05663]}},{"type":"Feature","properties":{"name":"F H A 1","alt_name":"","kind":"settlement","source":"grid3","ward":"Nyanya","lga":"Municipal Area Council","is_primary":0,"in_plate":1},"geometry":{"type":"Point","coordinates":[7.57787,9.02218]}},{"type":"Feature","properties":{"name":"F H A 2","alt_name":"","kind":"settlement","source":"grid3","ward":"Nyanya","lga":"Municipal Area Council","is_primary":0,"in_plate":1},"geometry":{"type":"Point","coordinates":[7.57834,9.01779]}},{"type":"Feature","properties":{"name":"Flames of Fire","alt_name":"","kind":"settlement","source":"grid3","ward":"Nyanya","lga":"Municipal Area Council","is_primary":0,"in_plate":1},"geometry":{"type":"Point","coordinates":[7.57537,9.05625]}},{"type":"Feature","properties":{"name":"Force Headquarters Residential Quarters","alt_name":"","kind":"settlement","source":"grid3","ward":"City Centre","lga":"Municipal Area Council","is_primary":0,"in_plate":1},"geometry":{"type":"Point","coordinates":[7.50423,9.0532]}},{"type":"Feature","properties":{"name":"Galadimawa","alt_name":"Galadimawa Sun City","kind":"settlement","source":"grid3","ward":"Kabusa","lga":"Municipal Area Council","is_primary":0,"in_plate":1},"geometry":{"type":"Point","coordinates":[7.42856,8.99395]}},{"type":"Feature","properties":{"name":"Galadimawa","alt_name":"","kind":"village","source":"osm","ward":"Kabusa","lga":"Municipal Area Council","is_primary":0,"in_plate":1},"geometry":{"type":"Point","coordinates":[7.43056,8.98472]}},{"type":"Feature","properties":{"name":"Galadimawa Village","alt_name":"","kind":"village","source":"osm","ward":"Kabusa","lga":"Municipal Area Council","is_primary":0,"in_plate":1},"geometry":{"type":"Point","coordinates":[7.42389,8.99457]}},{"type":"Feature","properties":{"name":"Galadinmawa","alt_name":"","kind":"settlement","source":"grid3","ward":"Kabusa","lga":"Municipal Area Council","is_primary":0,"in_plate":1},"geometry":{"type":"Point","coordinates":[7.41847,8.98625]}},{"type":"Feature","properties":{"name":"Garki Area 10","alt_name":"","kind":"settlement","source":"grid3","ward":"City Centre","lga":"Municipal Area Council","is_primary":0,"in_plate":1},"geometry":{"type":"Point","coordinates":[7.47036,9.02575]}},{"type":"Feature","properties":{"name":"Garki Area 11","alt_name":"","kind":"settlement","source":"grid3","ward":"City Centre","lga":"Municipal Area Council","is_primary":0,"in_plate":1},"geometry":{"type":"Point","coordinates":[7.50192,9.04348]}},{"type":"Feature","properties":{"name":"Garki Area 2","alt_name":"","kind":"settlement","source":"grid3","ward":"City Centre","lga":"Municipal Area Council","is_primary":0,"in_plate":1},"geometry":{"type":"Point","coordinates":[7.47864,9.04329]}},{"type":"Feature","properties":{"name":"Garki Area 8","alt_name":"","kind":"settlement","source":"grid3","ward":"City Centre","lga":"Municipal Area Council","is_primary":0,"in_plate":1},"geometry":{"type":"Point","coordinates":[7.48955,9.03495]}},{"type":"Feature","properties":{"name":"Garki Village","alt_name":"","kind":"settlement","source":"grid3","ward":"Garki","lga":"Municipal Area Council","is_primary":0,"in_plate":1},"geometry":{"type":"Point","coordinates":[7.48599,9.02085]}},{"type":"Feature","properties":{"name":"Gbagalape Aso C Junction","alt_name":"","kind":"settlement","source":"grid3","ward":"Nyanya","lga":"Municipal Area Council","is_primary":0,"in_plate":1},"geometry":{"type":"Point","coordinates":[7.57909,9.05367]}},{"type":"Feature","properties":{"name":"Gbagalape Kudu","alt_name":"","kind":"settlement","source":"grid3","ward":"Nyanya","lga":"Municipal Area Council","is_primary":0,"in_plate":1},"geometry":{"type":"Point","coordinates":[7.5806,9.05476]}},{"type":"Feature","properties":{"name":"Gbagarape","alt_name":"","kind":"settlement","source":"grid3","ward":"Nyanya","lga":"Municipal Area Council","is_primary":0,"in_plate":1},"geometry":{"type":"Point","coordinates":[7.56859,9.02038]}},{"type":"Feature","properties":{"name":"Gbalango","alt_name":"","kind":"settlement","source":"grid3","ward":"Kubwa","lga":"Bwari","is_primary":0,"in_plate":1},"geometry":{"type":"Point","coordinates":[7.31555,9.14332]}},{"type":"Feature","properties":{"name":"Gishiri","alt_name":"","kind":"settlement","source":"grid3","ward":"Gwarinpa","lga":"Municipal Area Council","is_primary":0,"in_plate":1},"geometry":{"type":"Point","coordinates":[7.46685,9.099]}},{"type":"Feature","properties":{"name":"Gishiri Mbuwaha","alt_name":"","kind":"settlement","source":"grid3","ward":"Gwarinpa","lga":"Municipal Area Council","is_primary":0,"in_plate":1},"geometry":{"type":"Point","coordinates":[7.4642,9.09996]}},{"type":"Feature","properties":{"name":"Gods Anoited","alt_name":"","kind":"settlement","source":"grid3","ward":"Nyanya","lga":"Municipal Area Council","is_primary":0,"in_plate":1},"geometry":{"type":"Point","coordinates":[7.58028,9.02813]}},{"type":"Feature","properties":{"name":"Guzape","alt_name":"","kind":"settlement","source":"grid3","ward":"Garki","lga":"Municipal Area Council","is_primary":0,"in_plate":1},"geometry":{"type":"Point","coordinates":[7.50377,9.00939]}},{"type":"Feature","properties":{"name":"Guzape","alt_name":"","kind":"village","source":"osm","ward":"Garki","lga":"Municipal Area Council","is_primary":0,"in_plate":1},"geometry":{"type":"Point","coordinates":[7.52,9.01889]}},{"type":"Feature","properties":{"name":"Gwarinpa","alt_name":"","kind":"settlement","source":"grid3","ward":"Gwarinpa","lga":"Municipal Area Council","is_primary":0,"in_plate":1},"geometry":{"type":"Point","coordinates":[7.40197,9.11104]}},{"type":"Feature","properties":{"name":"Gwarinpa","alt_name":"","kind":"town","source":"osm","ward":"Gwarinpa","lga":"Municipal Area Council","is_primary":0,"in_plate":1},"geometry":{"type":"Point","coordinates":[7.40806,9.09944]}},{"type":"Feature","properties":{"name":"Hill City Church Nyanya Market","alt_name":"","kind":"settlement","source":"grid3","ward":"Nyanya","lga":"Municipal Area Council","is_primary":0,"in_plate":1},"geometry":{"type":"Point","coordinates":[7.56915,9.02621]}},{"type":"Feature","properties":{"name":"Iddo Gbagy","alt_name":"Patachi","kind":"settlement","source":"grid3","ward":"Gwarinpa","lga":"Municipal Area Council","is_primary":0,"in_plate":1},"geometry":{"type":"Point","coordinates":[7.36535,9.08558]}},{"type":"Feature","properties":{"name":"Idp Camp Kuchigoro","alt_name":"","kind":"settlement","source":"grid3","ward":"City Centre","lga":"Municipal Area Council","is_primary":0,"in_plate":1},"geometry":{"type":"Point","coordinates":[7.43572,9.01026]}},{"type":"Feature","properties":{"name":"Inter House Sport","alt_name":"","kind":"settlement","source":"grid3","ward":"Nyanya","lga":"Municipal Area Council","is_primary":0,"in_plate":1},"geometry":{"type":"Point","coordinates":[7.57351,9.02956]}},{"type":"Feature","properties":{"name":"Jabi","alt_name":"","kind":"settlement","source":"grid3","ward":"Gwarinpa","lga":"Municipal Area Council","is_primary":0,"in_plate":1},"geometry":{"type":"Point","coordinates":[7.40789,9.01451]}},{"type":"Feature","properties":{"name":"Jabi 1","alt_name":"","kind":"settlement","source":"grid3","ward":"Gwarinpa","lga":"Municipal Area Council","is_primary":0,"in_plate":1},"geometry":{"type":"Point","coordinates":[7.44219,9.10473]}},{"type":"Feature","properties":{"name":"Jabi 2","alt_name":"","kind":"settlement","source":"grid3","ward":"Gwarinpa","lga":"Municipal Area Council","is_primary":0,"in_plate":1},"geometry":{"type":"Point","coordinates":[7.44245,9.10685]}},{"type":"Feature","properties":{"name":"Jabi Main","alt_name":"","kind":"settlement","source":"grid3","ward":"Gwarinpa","lga":"Municipal Area Council","is_primary":0,"in_plate":1},"geometry":{"type":"Point","coordinates":[7.42153,9.06419]}},{"type":"Feature","properties":{"name":"Jabi Maje","alt_name":"","kind":"settlement","source":"grid3","ward":"Gwarinpa","lga":"Municipal Area Council","is_primary":0,"in_plate":1},"geometry":{"type":"Point","coordinates":[7.40722,9.04556]}},{"type":"Feature","properties":{"name":"Jayi 1","alt_name":"","kind":"settlement","source":"grid3","ward":"Gwarinpa","lga":"Municipal Area Council","is_primary":0,"in_plate":1},"geometry":{"type":"Point","coordinates":[7.43997,9.09619]}},{"type":"Feature","properties":{"name":"Jibi Dei Dei","alt_name":"","kind":"settlement","source":"grid3","ward":"Kubwa","lga":"Bwari","is_primary":0,"in_plate":1},"geometry":{"type":"Point","coordinates":[7.25478,9.14503]}},{"type":"Feature","properties":{"name":"Jibi Poweye","alt_name":"","kind":"settlement","source":"grid3","ward":"Kubwa","lga":"Bwari","is_primary":0,"in_plate":1},"geometry":{"type":"Point","coordinates":[7.25873,9.12012]}},{"type":"Feature","properties":{"name":"Jikakuchi","alt_name":"","kind":"village","source":"osm","ward":"Dutse","lga":"Bwari","is_primary":0,"in_plate":1},"geometry":{"type":"Point","coordinates":[7.55861,9.10806]}},{"type":"Feature","properties":{"name":"Jikoko","alt_name":"","kind":"settlement","source":"grid3","ward":"Dutse","lga":"Bwari","is_primary":0,"in_plate":1},"geometry":{"type":"Point","coordinates":[7.46608,9.14087]}},{"type":"Feature","properties":{"name":"Jiru","alt_name":"","kind":"village","source":"osm","ward":"Gwarinpa","lga":"Municipal Area Council","is_primary":0,"in_plate":1},"geometry":{"type":"Point","coordinates":[7.4546,9.11683]}},{"type":"Feature","properties":{"name":"Jiwa A","alt_name":"","kind":"settlement","source":"grid3","ward":"Gwarinpa","lga":"Municipal Area Council","is_primary":0,"in_plate":1},"geometry":{"type":"Point","coordinates":[7.32135,9.08572]}},{"type":"Feature","properties":{"name":"Junbic Apartment and Suites","alt_name":"","kind":"settlement","source":"grid3","ward":"City Centre","lga":"Municipal Area Council","is_primary":0,"in_plate":1},"geometry":{"type":"Point","coordinates":[7.44207,9.01606]}},{"type":"Feature","properties":{"name":"Kado Kuchi","alt_name":"","kind":"settlement","source":"grid3","ward":"Gwarinpa","lga":"Municipal Area Council","is_primary":0,"in_plate":1},"geometry":{"type":"Point","coordinates":[7.43604,9.0942]}},{"type":"Feature","properties":{"name":"Kagini","alt_name":"","kind":"settlement","source":"grid3","ward":"Kubwa","lga":"Bwari","is_primary":0,"in_plate":1},"geometry":{"type":"Point","coordinates":[7.30061,9.13888]}},{"type":"Feature","properties":{"name":"Kaima","alt_name":"","kind":"settlement","source":"grid3","ward":"City Centre","lga":"Municipal Area Council","is_primary":0,"in_plate":1},"geometry":{"type":"Point","coordinates":[7.53817,9.08801]}},{"type":"Feature","properties":{"name":"Karmajiji","alt_name":"","kind":"village","source":"osm","ward":"Gwarinpa","lga":"Municipal Area Council","is_primary":0,"in_plate":1},"geometry":{"type":"Point","coordinates":[7.42297,9.024]}},{"type":"Feature","properties":{"name":"Karon Majigi","alt_name":"","kind":"settlement","source":"grid3","ward":"Gwarinpa","lga":"Municipal Area Council","is_primary":0,"in_plate":1},"geometry":{"type":"Point","coordinates":[7.42399,9.02399]}},{"type":"Feature","properties":{"name":"Karsana 2","alt_name":"","kind":"settlement","source":"grid3","ward":"Gwarinpa","lga":"Municipal Area Council","is_primary":0,"in_plate":1},"geometry":{"type":"Point","coordinates":[7.3348,9.10252]}},{"type":"Feature","properties":{"name":"Karu","alt_name":"","kind":"village","source":"osm","ward":"Karu","lga":"Municipal Area Council","is_primary":0,"in_plate":1},"geometry":{"type":"Point","coordinates":[7.57505,9.01135]}},{"type":"Feature","properties":{"name":"Karu St Mary Catholic Church","alt_name":"","kind":"settlement","source":"grid3","ward":"Nyanya","lga":"Municipal Area Council","is_primary":0,"in_plate":1},"geometry":{"type":"Point","coordinates":[7.57357,9.01545]}},{"type":"Feature","properties":{"name":"Karu Village","alt_name":"","kind":"settlement","source":"grid3","ward":"Karu","lga":"Municipal Area Council","is_primary":0,"in_plate":1},"geometry":{"type":"Point","coordinates":[7.57255,9.00611]}},{"type":"Feature","properties":{"name":"Karu Village Extension","alt_name":"Kugbo Masalachi","kind":"settlement","source":"grid3","ward":"Garki","lga":"Municipal Area Council","is_primary":0,"in_plate":1},"geometry":{"type":"Point","coordinates":[7.53503,9.01539]}},{"type":"Feature","properties":{"name":"Katambe","alt_name":"","kind":"village","source":"osm","ward":"Karu","lga":"Municipal Area Council","is_primary":0,"in_plate":1},"geometry":{"type":"Point","coordinates":[7.5859,9.01323]}},{"type":"Feature","properties":{"name":"Katampe 1","alt_name":"","kind":"settlement","source":"grid3","ward":"Dutse","lga":"Bwari","is_primary":0,"in_plate":1},"geometry":{"type":"Point","coordinates":[7.51181,9.12832]}},{"type":"Feature","properties":{"name":"Katampe 2","alt_name":"","kind":"settlement","source":"grid3","ward":"Dutse","lga":"Bwari","is_primary":0,"in_plate":1},"geometry":{"type":"Point","coordinates":[7.51285,9.12115]}},{"type":"Feature","properties":{"name":"Katampe Kubwa","alt_name":"","kind":"settlement","source":"grid3","ward":"Kubwa","lga":"Bwari","is_primary":0,"in_plate":1},"geometry":{"type":"Point","coordinates":[7.32464,9.15316]}},{"type":"Feature","properties":{"name":"Katampe New Extension","alt_name":"","kind":"settlement","source":"grid3","ward":"Dutse","lga":"Bwari","is_primary":0,"in_plate":1},"geometry":{"type":"Point","coordinates":[7.43192,9.12849]}},{"type":"Feature","properties":{"name":"Keti","alt_name":"","kind":"settlement","source":"grid3","ward":"Kabusa","lga":"Municipal Area Council","is_primary":0,"in_plate":1},"geometry":{"type":"Point","coordinates":[7.39397,8.9296]}},{"type":"Feature","properties":{"name":"Kingdom First Christian Assembly Nyanya Market","alt_name":"","kind":"settlement","source":"grid3","ward":"Nyanya","lga":"Municipal Area Council","is_primary":0,"in_plate":1},"geometry":{"type":"Point","coordinates":[7.56976,9.02588]}},{"type":"Feature","properties":{"name":"Kings Gate Favorite Academy","alt_name":"","kind":"settlement","source":"grid3","ward":"Nyanya","lga":"Municipal Area Council","is_primary":0,"in_plate":1},"geometry":{"type":"Point","coordinates":[7.57645,9.0559]}},{"type":"Feature","properties":{"name":"Kobin Madaki","alt_name":"","kind":"settlement","source":"grid3","ward":"Garki","lga":"Municipal Area Council","is_primary":0,"in_plate":1},"geometry":{"type":"Point","coordinates":[7.52673,8.99755]}},{"type":"Feature","properties":{"name":"Kpadana","alt_name":"","kind":"settlement","source":"grid3","ward":"Gwarinpa","lga":"Municipal Area Council","is_primary":0,"in_plate":1},"geometry":{"type":"Point","coordinates":[7.4329,9.07275]}},{"type":"Feature","properties":{"name":"Kubwa","alt_name":"","kind":"town","source":"osm","ward":"Usuma","lga":"Bwari","is_primary":0,"in_plate":1},"geometry":{"type":"Point","coordinates":[7.34108,9.15268]}},{"type":"Feature","properties":{"name":"Kubwa Phase2","alt_name":"","kind":"settlement","source":"grid3","ward":"Kubwa","lga":"Bwari","is_primary":0,"in_plate":1},"geometry":{"type":"Point","coordinates":[7.32265,9.14349]}},{"type":"Feature","properties":{"name":"Kubwa Pw","alt_name":"","kind":"settlement","source":"grid3","ward":"Usuma","lga":"Bwari","is_primary":0,"in_plate":1},"geometry":{"type":"Point","coordinates":[7.33859,9.14931]}},{"type":"Feature","properties":{"name":"Kuchibeda Village Gwarinpa","alt_name":"","kind":"settlement","source":"grid3","ward":"Gwarinpa","lga":"Municipal Area Council","is_primary":0,"in_plate":1},"geometry":{"type":"Point","coordinates":[7.36762,9.09537]}},{"type":"Feature","properties":{"name":"Kuchingoro","alt_name":"","kind":"village","source":"osm","ward":"Gwarinpa","lga":"Municipal Area Council","is_primary":0,"in_plate":1},"geometry":{"type":"Point","coordinates":[7.42038,9.01632]}},{"type":"Feature","properties":{"name":"Kudu","alt_name":"","kind":"settlement","source":"grid3","ward":"Nyanya","lga":"Municipal Area Council","is_primary":0,"in_plate":1},"geometry":{"type":"Point","coordinates":[7.58185,9.05842]}},{"type":"Feature","properties":{"name":"Kugbo","alt_name":"","kind":"village","source":"osm","ward":"Nyanya","lga":"Municipal Area Council","is_primary":0,"in_plate":1},"geometry":{"type":"Point","coordinates":[7.54812,9.02279]}},{"type":"Feature","properties":{"name":"Kugbo 1","alt_name":"","kind":"settlement","source":"grid3","ward":"Nyanya","lga":"Municipal Area Council","is_primary":0,"in_plate":1},"geometry":{"type":"Point","coordinates":[7.54825,9.02672]}},{"type":"Feature","properties":{"name":"Kugbo 1 Kings and Queens Academy","alt_name":"","kind":"settlement","source":"grid3","ward":"Nyanya","lga":"Municipal Area Council","is_primary":0,"in_plate":1},"geometry":{"type":"Point","coordinates":[7.54663,9.02838]}},{"type":"Feature","properties":{"name":"Kugbo 1 Mechanic","alt_name":"","kind":"settlement","source":"grid3","ward":"Nyanya","lga":"Municipal Area Council","is_primary":0,"in_plate":1},"geometry":{"type":"Point","coordinates":[7.55689,9.02393]}},{"type":"Feature","properties":{"name":"Kugbo 1 Rccg","alt_name":"","kind":"settlement","source":"grid3","ward":"City Centre","lga":"Municipal Area Council","is_primary":0,"in_plate":1},"geometry":{"type":"Point","coordinates":[7.55083,9.02899]}},{"type":"Feature","properties":{"name":"Kugbo 1 Rccg","alt_name":"","kind":"settlement","source":"grid3","ward":"Nyanya","lga":"Municipal Area Council","is_primary":0,"in_plate":1},"geometry":{"type":"Point","coordinates":[7.54811,9.02779]}},{"type":"Feature","properties":{"name":"Kugbo 2","alt_name":"","kind":"settlement","source":"grid3","ward":"Nyanya","lga":"Municipal Area Council","is_primary":0,"in_plate":1},"geometry":{"type":"Point","coordinates":[7.54531,9.02098]}},{"type":"Feature","properties":{"name":"Kugbo Extension","alt_name":"","kind":"settlement","source":"grid3","ward":"Nyanya","lga":"Municipal Area Council","is_primary":0,"in_plate":1},"geometry":{"type":"Point","coordinates":[7.54705,9.02324]}},{"type":"Feature","properties":{"name":"Kukwab Kubwa","alt_name":"","kind":"settlement","source":"grid3","ward":"Kubwa","lga":"Bwari","is_primary":0,"in_plate":1},"geometry":{"type":"Point","coordinates":[7.32128,9.14452]}},{"type":"Feature","properties":{"name":"Kuruduma 1","alt_name":"","kind":"settlement","source":"grid3","ward":"Garki","lga":"Municipal Area Council","is_primary":0,"in_plate":1},"geometry":{"type":"Point","coordinates":[7.52773,9.0148]}},{"type":"Feature","properties":{"name":"Kurunduma","alt_name":"","kind":"village","source":"osm","ward":"Garki","lga":"Municipal Area Council","is_primary":0,"in_plate":1},"geometry":{"type":"Point","coordinates":[7.52944,9.01611]}},{"type":"Feature","properties":{"name":"Ladan Plaza","alt_name":"","kind":"settlement","source":"grid3","ward":"Nyanya","lga":"Municipal Area Council","is_primary":0,"in_plate":1},"geometry":{"type":"Point","coordinates":[7.56629,9.02351]}},{"type":"Feature","properties":{"name":"Larris Estate Wumba District","alt_name":"","kind":"settlement","source":"grid3","ward":"Garki","lga":"Municipal Area Council","is_primary":0,"in_plate":1},"geometry":{"type":"Point","coordinates":[7.49169,8.95555]}},{"type":"Feature","properties":{"name":"Lugbe","alt_name":"","kind":"settlement","source":"grid3","ward":"Kabusa","lga":"Municipal Area Council","is_primary":0,"in_plate":1},"geometry":{"type":"Point","coordinates":[7.37106,8.97212]}},{"type":"Feature","properties":{"name":"Mabushi","alt_name":"","kind":"settlement","source":"grid3","ward":"Gwarinpa","lga":"Municipal Area Council","is_primary":0,"in_plate":1},"geometry":{"type":"Point","coordinates":[7.45421,9.08191]}},{"type":"Feature","properties":{"name":"Maitam Micisipi","alt_name":"","kind":"settlement","source":"grid3","ward":"Wuse","lga":"Municipal Area Council","is_primary":0,"in_plate":1},"geometry":{"type":"Point","coordinates":[7.49993,9.08224]}},{"type":"Feature","properties":{"name":"Maitama","alt_name":"","kind":"settlement","source":"grid3","ward":"Kubwa","lga":"Bwari","is_primary":0,"in_plate":1},"geometry":{"type":"Point","coordinates":[7.32526,9.15302]}},{"type":"Feature","properties":{"name":"Malaysian Garden","alt_name":"","kind":"settlement","source":"grid3","ward":"Kabusa","lga":"Municipal Area Council","is_primary":0,"in_plate":1},"geometry":{"type":"Point","coordinates":[7.48971,8.94448]}},{"type":"Feature","properties":{"name":"Mape","alt_name":"","kind":"village","source":"osm","ward":"Dutse","lga":"Bwari","is_primary":0,"in_plate":1},"geometry":{"type":"Point","coordinates":[7.49265,9.14466]}},{"type":"Feature","properties":{"name":"Mararaba Takushira","alt_name":"","kind":"settlement","source":"grid3","ward":"Kabusa","lga":"Municipal Area Council","is_primary":0,"in_plate":1},"geometry":{"type":"Point","coordinates":[7.45628,8.89502]}},{"type":"Feature","properties":{"name":"Mechanic Village Apo","alt_name":"","kind":"settlement","source":"grid3","ward":"Garki","lga":"Municipal Area Council","is_primary":0,"in_plate":1},"geometry":{"type":"Point","coordinates":[7.49821,8.95766]}},{"type":"Feature","properties":{"name":"Mopol Barracck","alt_name":"","kind":"settlement","source":"grid3","ward":"Kubwa","lga":"Bwari","is_primary":0,"in_plate":1},"geometry":{"type":"Point","coordinates":[7.27389,9.13005]}},{"type":"Feature","properties":{"name":"Mpape","alt_name":"","kind":"settlement","source":"grid3","ward":"Dutse","lga":"Bwari","is_primary":0,"in_plate":1},"geometry":{"type":"Point","coordinates":[7.49481,9.13645]}},{"type":"Feature","properties":{"name":"National Assembly Estate","alt_name":"Beggar Life Camp","kind":"settlement","source":"grid3","ward":"Garki","lga":"Municipal Area Council","is_primary":0,"in_plate":1},"geometry":{"type":"Point","coordinates":[7.48699,9.02346]}},{"type":"Feature","properties":{"name":"National Assembly Quarters","alt_name":"","kind":"settlement","source":"grid3","ward":"Gwarinpa","lga":"Municipal Area Council","is_primary":0,"in_plate":1},"geometry":{"type":"Point","coordinates":[7.38873,9.07862]}},{"type":"Feature","properties":{"name":"Nkst Road Area","alt_name":"","kind":"settlement","source":"grid3","ward":"Nyanya","lga":"Municipal Area Council","is_primary":0,"in_plate":1},"geometry":{"type":"Point","coordinates":[7.57434,9.03484]}},{"type":"Feature","properties":{"name":"Nyanya","alt_name":"","kind":"village","source":"osm","ward":"Nyanya","lga":"Municipal Area Council","is_primary":0,"in_plate":1},"geometry":{"type":"Point","coordinates":[7.56991,9.02126]}},{"type":"Feature","properties":{"name":"Nyanya City Collage","alt_name":"","kind":"settlement","source":"grid3","ward":"Nyanya","lga":"Municipal Area Council","is_primary":0,"in_plate":1},"geometry":{"type":"Point","coordinates":[7.57246,9.02373]}},{"type":"Feature","properties":{"name":"Nyanya Extension Back of Nncp","alt_name":"","kind":"settlement","source":"grid3","ward":"Nyanya","lga":"Municipal Area Council","is_primary":0,"in_plate":1},"geometry":{"type":"Point","coordinates":[7.56582,9.02273]}},{"type":"Feature","properties":{"name":"Nyanya Market","alt_name":"","kind":"settlement","source":"grid3","ward":"Nyanya","lga":"Municipal Area Council","is_primary":0,"in_plate":1},"geometry":{"type":"Point","coordinates":[7.56882,9.0243]}},{"type":"Feature","properties":{"name":"Nyanya Market Curtain Line","alt_name":"","kind":"settlement","source":"grid3","ward":"Nyanya","lga":"Municipal Area Council","is_primary":0,"in_plate":1},"geometry":{"type":"Point","coordinates":[7.56857,9.02406]}},{"type":"Feature","properties":{"name":"Nyanya Redeemed Church","alt_name":"","kind":"settlement","source":"grid3","ward":"Nyanya","lga":"Municipal Area Council","is_primary":0,"in_plate":1},"geometry":{"type":"Point","coordinates":[7.56966,9.02712]}},{"type":"Feature","properties":{"name":"Nyanya Village Market Side","alt_name":"","kind":"settlement","source":"grid3","ward":"Nyanya","lga":"Municipal Area Council","is_primary":0,"in_plate":1},"geometry":{"type":"Point","coordinates":[7.56811,9.02394]}},{"type":"Feature","properties":{"name":"Nyikuru Kubwa","alt_name":"","kind":"settlement","source":"grid3","ward":"Kubwa","lga":"Bwari","is_primary":0,"in_plate":1},"geometry":{"type":"Point","coordinates":[7.31845,9.14603]}},{"type":"Feature","properties":{"name":"Old Dei Dei","alt_name":"","kind":"settlement","source":"grid3","ward":"Kubwa","lga":"Bwari","is_primary":0,"in_plate":1},"geometry":{"type":"Point","coordinates":[7.25956,9.1153]}},{"type":"Feature","properties":{"name":"Opposite Ecwa Area","alt_name":"","kind":"settlement","source":"grid3","ward":"Nyanya","lga":"Municipal Area Council","is_primary":0,"in_plate":1},"geometry":{"type":"Point","coordinates":[7.57457,9.03493]}},{"type":"Feature","properties":{"name":"Phase 4","alt_name":"","kind":"settlement","source":"grid3","ward":"Nyanya","lga":"Municipal Area Council","is_primary":0,"in_plate":1},"geometry":{"type":"Point","coordinates":[7.57525,9.04416]}},{"type":"Feature","properties":{"name":"Phase 4 Ramatec","alt_name":"","kind":"settlement","source":"grid3","ward":"Nyanya","lga":"Municipal Area Council","is_primary":0,"in_plate":1},"geometry":{"type":"Point","coordinates":[7.57868,9.04113]}},{"type":"Feature","properties":{"name":"Pigba","alt_name":"","kind":"settlement","source":"grid3","ward":"Garki","lga":"Municipal Area Council","is_primary":0,"in_plate":1},"geometry":{"type":"Point","coordinates":[7.48614,8.95805]}},{"type":"Feature","properties":{"name":"Piwoyi","alt_name":"","kind":"settlement","source":"grid3","ward":"Gwarinpa","lga":"Municipal Area Council","is_primary":0,"in_plate":1},"geometry":{"type":"Point","coordinates":[7.39352,8.99957]}},{"type":"Feature","properties":{"name":"Police Barrack","alt_name":"","kind":"settlement","source":"grid3","ward":"Nyanya","lga":"Municipal Area Council","is_primary":0,"in_plate":1},"geometry":{"type":"Point","coordinates":[7.57342,9.02802]}},{"type":"Feature","properties":{"name":"Police Quaters","alt_name":"","kind":"settlement","source":"grid3","ward":"Nyanya","lga":"Municipal Area Council","is_primary":0,"in_plate":1},"geometry":{"type":"Point","coordinates":[7.57304,9.02821]}},{"type":"Feature","properties":{"name":"Pyaksa","alt_name":"","kind":"settlement","source":"grid3","ward":"Kabusa","lga":"Municipal Area Council","is_primary":0,"in_plate":1},"geometry":{"type":"Point","coordinates":[7.40236,8.96419]}},{"type":"Feature","properties":{"name":"Pyape 2","alt_name":"","kind":"settlement","source":"grid3","ward":"Nyanya","lga":"Municipal Area Council","is_primary":0,"in_plate":1},"geometry":{"type":"Point","coordinates":[7.56925,9.04086]}},{"type":"Feature","properties":{"name":"Pyape 2 Christ Apostolic Church","alt_name":"","kind":"settlement","source":"grid3","ward":"Nyanya","lga":"Municipal Area Council","is_primary":0,"in_plate":1},"geometry":{"type":"Point","coordinates":[7.56963,9.04189]}},{"type":"Feature","properties":{"name":"Pyape 2 Gods Power of Covenant and Mercy Ministry","alt_name":"","kind":"settlement","source":"grid3","ward":"Nyanya","lga":"Municipal Area Council","is_primary":0,"in_plate":1},"geometry":{"type":"Point","coordinates":[7.56963,9.04166]}},{"type":"Feature","properties":{"name":"Pyape 2 Holy Child Academy","alt_name":"","kind":"settlement","source":"grid3","ward":"Nyanya","lga":"Municipal Area Council","is_primary":0,"in_plate":1},"geometry":{"type":"Point","coordinates":[7.57152,9.04235]}},{"type":"Feature","properties":{"name":"Pyape 2 Junction Mini Market","alt_name":"","kind":"settlement","source":"grid3","ward":"Nyanya","lga":"Municipal Area Council","is_primary":0,"in_plate":1},"geometry":{"type":"Point","coordinates":[7.56988,9.0403]}},{"type":"Feature","properties":{"name":"Pyape 2 Rredeemed Christian Church","alt_name":"","kind":"settlement","source":"grid3","ward":"Nyanya","lga":"Municipal Area Council","is_primary":0,"in_plate":1},"geometry":{"type":"Point","coordinates":[7.56869,9.04395]}},{"type":"Feature","properties":{"name":"Pyape 2 the Lords City Church","alt_name":"","kind":"settlement","source":"grid3","ward":"Nyanya","lga":"Municipal Area Council","is_primary":0,"in_plate":1},"geometry":{"type":"Point","coordinates":[7.5693,9.04408]}},{"type":"Feature","properties":{"name":"Pyape Extention","alt_name":"","kind":"settlement","source":"grid3","ward":"Nyanya","lga":"Municipal Area Council","is_primary":0,"in_plate":1},"geometry":{"type":"Point","coordinates":[7.5791,9.02647]}},{"type":"Feature","properties":{"name":"Pyape Village","alt_name":"","kind":"settlement","source":"grid3","ward":"Nyanya","lga":"Municipal Area Council","is_primary":0,"in_plate":1},"geometry":{"type":"Point","coordinates":[7.57672,9.02621]}},{"type":"Feature","properties":{"name":"Redeem Boundary","alt_name":"","kind":"settlement","source":"grid3","ward":"Nyanya","lga":"Municipal Area Council","is_primary":0,"in_plate":1},"geometry":{"type":"Point","coordinates":[7.57958,9.02896]}},{"type":"Feature","properties":{"name":"Redeem J Rohi","alt_name":"","kind":"settlement","source":"grid3","ward":"Nyanya","lga":"Municipal Area Council","is_primary":0,"in_plate":1},"geometry":{"type":"Point","coordinates":[7.57985,9.02897]}},{"type":"Feature","properties":{"name":"Rinjin Dakwa","alt_name":"","kind":"settlement","source":"grid3","ward":"Kubwa","lga":"Bwari","is_primary":0,"in_plate":1},"geometry":{"type":"Point","coordinates":[7.22007,9.09629]}},{"type":"Feature","properties":{"name":"Rugan","alt_name":"","kind":"settlement","source":"grid3","ward":"Gwarinpa","lga":"Municipal Area Council","is_primary":0,"in_plate":1},"geometry":{"type":"Point","coordinates":[7.43754,9.03715]}},{"type":"Feature","properties":{"name":"Sabojibi","alt_name":"","kind":"village","source":"osm","ward":"Kubwa","lga":"Bwari","is_primary":0,"in_plate":1},"geometry":{"type":"Point","coordinates":[7.2602,9.11659]}},{"type":"Feature","properties":{"name":"Sabon Lugbe II","alt_name":"","kind":"settlement","source":"grid3","ward":"Kabusa","lga":"Municipal Area Council","is_primary":0,"in_plate":1},"geometry":{"type":"Point","coordinates":[7.33274,8.94699]}},{"type":"Feature","properties":{"name":"School","alt_name":"","kind":"settlement","source":"grid3","ward":"Nyanya","lga":"Municipal Area Council","is_primary":0,"in_plate":1},"geometry":{"type":"Point","coordinates":[7.57328,9.032]}},{"type":"Feature","properties":{"name":"Secondary School Gate","alt_name":"","kind":"settlement","source":"grid3","ward":"Nyanya","lga":"Municipal Area Council","is_primary":0,"in_plate":1},"geometry":{"type":"Point","coordinates":[7.5736,9.02907]}},{"type":"Feature","properties":{"name":"Sereti","alt_name":"","kind":"settlement","source":"grid3","ward":"Kabusa","lga":"Municipal Area Council","is_primary":0,"in_plate":1},"geometry":{"type":"Point","coordinates":[7.43416,8.93986]}},{"type":"Feature","properties":{"name":"Shagari's Quarters","alt_name":"","kind":"settlement","source":"grid3","ward":"Kubwa","lga":"Bwari","is_primary":0,"in_plate":1},"geometry":{"type":"Point","coordinates":[7.2534,9.11318]}},{"type":"Feature","properties":{"name":"Shape 2","alt_name":"","kind":"settlement","source":"grid3","ward":"Dutse","lga":"Bwari","is_primary":0,"in_plate":1},"geometry":{"type":"Point","coordinates":[7.56782,9.11254]}},{"type":"Feature","properties":{"name":"Shoprite Novare Apo 2 Mall","alt_name":"","kind":"settlement","source":"grid3","ward":"Garki","lga":"Municipal Area Council","is_primary":0,"in_plate":1},"geometry":{"type":"Point","coordinates":[7.49268,8.98488]}},{"type":"Feature","properties":{"name":"Star Prime School","alt_name":"","kind":"settlement","source":"grid3","ward":"Nyanya","lga":"Municipal Area Council","is_primary":0,"in_plate":1},"geometry":{"type":"Point","coordinates":[7.57999,9.05441]}},{"type":"Feature","properties":{"name":"Sumapma","alt_name":"","kind":"settlement","source":"grid3","ward":"Dutse","lga":"Bwari","is_primary":0,"in_plate":1},"geometry":{"type":"Point","coordinates":[7.52752,9.1433]}},{"type":"Feature","properties":{"name":"Supreme Court Quarters","alt_name":"","kind":"settlement","source":"grid3","ward":"Nyanya","lga":"Municipal Area Council","is_primary":0,"in_plate":1},"geometry":{"type":"Point","coordinates":[7.57455,9.02399]}},{"type":"Feature","properties":{"name":"Takalafia Sabo","alt_name":"","kind":"settlement","source":"grid3","ward":"Kabusa","lga":"Municipal Area Council","is_primary":0,"in_plate":1},"geometry":{"type":"Point","coordinates":[7.43623,8.88332]}},{"type":"Feature","properties":{"name":"Takalafia Tsoho","alt_name":"","kind":"settlement","source":"grid3","ward":"Kabusa","lga":"Municipal Area Council","is_primary":0,"in_plate":1},"geometry":{"type":"Point","coordinates":[7.41702,8.8826]}},{"type":"Feature","properties":{"name":"Takushara","alt_name":"","kind":"settlement","source":"grid3","ward":"Kabusa","lga":"Municipal Area Council","is_primary":0,"in_plate":1},"geometry":{"type":"Point","coordinates":[7.45725,8.8813]}},{"type":"Feature","properties":{"name":"Tasha","alt_name":"","kind":"settlement","source":"grid3","ward":"Kabusa","lga":"Municipal Area Council","is_primary":0,"in_plate":1},"geometry":{"type":"Point","coordinates":[7.46105,8.93753]}},{"type":"Feature","properties":{"name":"Tashan Fulani","alt_name":"","kind":"settlement","source":"grid3","ward":"Kabusa","lga":"Municipal Area Council","is_primary":0,"in_plate":1},"geometry":{"type":"Point","coordinates":[7.48191,8.87587]}},{"type":"Feature","properties":{"name":"Tawakaltu Estate","alt_name":"","kind":"settlement","source":"grid3","ward":"Garki","lga":"Municipal Area Council","is_primary":0,"in_plate":1},"geometry":{"type":"Point","coordinates":[7.49505,8.96079]}},{"type":"Feature","properties":{"name":"Tos Douglas Cresent","alt_name":"","kind":"settlement","source":"grid3","ward":"City Centre","lga":"Municipal Area Council","is_primary":0,"in_plate":1},"geometry":{"type":"Point","coordinates":[7.44168,9.01232]}},{"type":"Feature","properties":{"name":"Tudun Wada","alt_name":"","kind":"settlement","source":"grid3","ward":"Kabusa","lga":"Municipal Area Council","is_primary":0,"in_plate":1},"geometry":{"type":"Point","coordinates":[7.36649,8.99818]}},{"type":"Feature","properties":{"name":"Tugan Fulani Mauke","alt_name":"","kind":"settlement","source":"grid3","ward":"Kubwa","lga":"Bwari","is_primary":0,"in_plate":1},"geometry":{"type":"Point","coordinates":[7.22483,9.10692]}},{"type":"Feature","properties":{"name":"Tugan Galadima","alt_name":"","kind":"settlement","source":"grid3","ward":"Kubwa","lga":"Bwari","is_primary":0,"in_plate":1},"geometry":{"type":"Point","coordinates":[7.24616,9.10248]}},{"type":"Feature","properties":{"name":"Tungan Kwaso","alt_name":"","kind":"settlement","source":"grid3","ward":"Kubwa","lga":"Bwari","is_primary":0,"in_plate":1},"geometry":{"type":"Point","coordinates":[7.25008,9.10501]}},{"type":"Feature","properties":{"name":"Twins Academy","alt_name":"","kind":"settlement","source":"grid3","ward":"Nyanya","lga":"Municipal Area Council","is_primary":0,"in_plate":1},"geometry":{"type":"Point","coordinates":[7.58053,9.03592]}},{"type":"Feature","properties":{"name":"Utako","alt_name":"","kind":"settlement","source":"grid3","ward":"Gwarinpa","lga":"Municipal Area Council","is_primary":0,"in_plate":1},"geometry":{"type":"Point","coordinates":[7.44464,9.07144]}},{"type":"Feature","properties":{"name":"Villa Nova Estate","alt_name":"","kind":"settlement","source":"grid3","ward":"Garki","lga":"Municipal Area Council","is_primary":0,"in_plate":1},"geometry":{"type":"Point","coordinates":[7.49017,8.97915]}},{"type":"Feature","properties":{"name":"Waru","alt_name":"","kind":"settlement","source":"grid3","ward":"Garki","lga":"Municipal Area Council","is_primary":0,"in_plate":1},"geometry":{"type":"Point","coordinates":[7.49441,8.93549]}},{"type":"Feature","properties":{"name":"Waru","alt_name":"","kind":"settlement","source":"grid3","ward":"Kabusa","lga":"Municipal Area Council","is_primary":0,"in_plate":1},"geometry":{"type":"Point","coordinates":[7.48532,8.92895]}},{"type":"Feature","properties":{"name":"Wassa","alt_name":"","kind":"settlement","source":"grid3","ward":"Kabusa","lga":"Municipal Area Council","is_primary":0,"in_plate":1},"geometry":{"type":"Point","coordinates":[7.47429,8.88068]}},{"type":"Feature","properties":{"name":"Water Board Quarters","alt_name":"","kind":"settlement","source":"grid3","ward":"City Centre","lga":"Municipal Area Council","is_primary":0,"in_plate":1},"geometry":{"type":"Point","coordinates":[7.50599,9.1022]}},{"type":"Feature","properties":{"name":"White Hoise Apartment and Suite","alt_name":"","kind":"settlement","source":"grid3","ward":"City Centre","lga":"Municipal Area Council","is_primary":0,"in_plate":1},"geometry":{"type":"Point","coordinates":[7.44084,9.01509]}},{"type":"Feature","properties":{"name":"Wilbahi Estate Kuchiogoro","alt_name":"Union Home Estate Kuchigoro","kind":"settlement","source":"grid3","ward":"Gwarinpa","lga":"Municipal Area Council","is_primary":0,"in_plate":1},"geometry":{"type":"Point","coordinates":[7.4224,9.01072]}},{"type":"Feature","properties":{"name":"Woman Boku","alt_name":"Dogodaji","kind":"settlement","source":"grid3","ward":"Kubwa","lga":"Bwari","is_primary":0,"in_plate":1},"geometry":{"type":"Point","coordinates":[7.3226,9.15015]}},{"type":"Feature","properties":{"name":"Wumba","alt_name":"","kind":"settlement","source":"grid3","ward":"Garki","lga":"Municipal Area Council","is_primary":0,"in_plate":1},"geometry":{"type":"Point","coordinates":[7.48394,8.9633]}},{"type":"Feature","properties":{"name":"Wuse II","alt_name":"","kind":"settlement","source":"grid3","ward":"Wuse","lga":"Municipal Area Council","is_primary":0,"in_plate":1},"geometry":{"type":"Point","coordinates":[7.49451,9.07764]}},{"type":"Feature","properties":{"name":"Yemutu","alt_name":"","kind":"settlement","source":"grid3","ward":"Kabusa","lga":"Municipal Area Council","is_primary":0,"in_plate":1},"geometry":{"type":"Point","coordinates":[7.4739,8.92913]}},{"type":"Feature","properties":{"name":"Zango","alt_name":"Shagari Quarters","kind":"settlement","source":"grid3","ward":"Kubwa","lga":"Bwari","is_primary":0,"in_plate":1},"geometry":{"type":"Point","coordinates":[7.25374,9.11668]}},{"type":"Feature","properties":{"name":"Zhabuyi","alt_name":"","kind":"settlement","source":"grid3","ward":"Dutse","lga":"Bwari","is_primary":0,"in_plate":1},"geometry":{"type":"Point","coordinates":[7.37307,9.17168]}},{"type":"Feature","properties":{"name":"Zhidu I","alt_name":"","kind":"settlement","source":"grid3","ward":"Kabusa","lga":"Municipal Area Council","is_primary":0,"in_plate":1},"geometry":{"type":"Point","coordinates":[7.38497,9.0253]}},{"type":"Feature","properties":{"name":"Zhidu II","alt_name":"","kind":"settlement","source":"grid3","ward":"Kabusa","lga":"Municipal Area Council","is_primary":0,"in_plate":1},"geometry":{"type":"Point","coordinates":[7.37451,9.01658]}},{"type":"Feature","properties":{"name":"Zhigakuchi","alt_name":"","kind":"settlement","source":"grid3","ward":"Dutse","lga":"Bwari","is_primary":0,"in_plate":1},"geometry":{"type":"Point","coordinates":[7.55721,9.1096]}},{"type":"Feature","properties":{"name":"Zone E Apo Legislative Quarters","alt_name":"","kind":"settlement","source":"grid3","ward":"Garki","lga":"Municipal Area Council","is_primary":0,"in_plate":1},"geometry":{"type":"Point","coordinates":[7.48514,9.01009]}}]}