{"type":"FeatureCollection","features":[{"type":"Feature","properties":{"name":"Wuse","label":"Wuse","lga":"Municipal Area Council","people":95732,"walk":19.46,"walk_clinic":22.34,"walk_school":16.59,"f15":22.85,"f15_health":15.42,"f15_school":42.57,"beyond":73857,"clinics":20,"schools":38,"off_pct":0.04,"hexes":227,"gini":0.15,"share":5.97,"rank":3.0,"of":7,"reading":"Most people here walk longer than 15 minutes. Clinics are the weaker of the two services."},"geometry":{"type":"Polygon","coordinates":[[[7.479699504028928,9.112043155966944],[7.504759435699441,9.099728360575453],[7.506331000974967,9.097424206661854],[7.508089860858433,9.094888987237026],[7.5091879213854895,9.092820525846662],[7.506654318042366,9.089228904290565],[7.503905473658734,9.082795655295286],[7.503247384858979,9.076014033221098],[7.501392058296916,9.07360919211055],[7.495576434904593,9.06944927726238],[7.491792001399801,9.066965856988759],[7.48945700433734,9.06265832831923],[7.484805636071315,9.060071096603847],[7.481126657968958,9.059007279562364],[7.477728593899544,9.0583739356087],[7.4749180398357,9.057414639574006],[7.471492306324933,9.054670229747328],[7.469941086412065,9.049925989392932],[7.463570252165425,9.04725153513027],[7.4552369200478665,9.046424223599104],[7.453878389775923,9.051209562071676],[7.453771900153129,9.056363995801805],[7.453508947380043,9.059626478079563],[7.4521233637023,9.065832076289327],[7.451682211165178,9.06789704021628],[7.452011181370949,9.07096520777816],[7.45259490073414,9.072741405691374],[7.454030493012908,9.075548241058526],[7.456601232061247,9.077968238443473],[7.46047068657299,9.081292335972591],[7.4628526237496535,9.083364673440999],[7.469626092570138,9.087423687053558],[7.47207518572128,9.08943745797234],[7.474037511821734,9.092175055434495],[7.475883765123684,9.097547034268246],[7.480336855361657,9.109307635938707],[7.479699504028928,9.112043155966944]]]}},{"type":"Feature","properties":{"name":"Garki","label":"Garki","lga":"Municipal Area Council","people":248222,"walk":34.12,"walk_clinic":35.42,"walk_school":32.83,"f15":12.05,"f15_health":8.22,"f15_school":11.11,"beyond":218315,"clinics":23,"schools":25,"off_pct":0.48,"hexes":780,"gini":0.22,"share":15.47,"rank":6.0,"of":7,"reading":"Almost nobody here is within a 15-minute walk of clinics and schools. Clinics and schools are about even. That is 7 points below the city as a whole."},"geometry":{"type":"Polygon","coordinates":[[[7.533597770920437,9.033648583215609],[7.534243994065151,9.033177387926173],[7.534729485877108,9.03251546801448],[7.535973814839736,9.02813257975481],[7.536800933916027,9.026589995132214],[7.536800022003433,9.024587090721697],[7.537416393951447,9.022427699778575],[7.539463312981582,9.018297604650796],[7.5416585149285424,9.017774528371833],[7.538338217035117,9.00747011885096],[7.541199500956225,9.00137186102262],[7.5446631597770315,8.992447396430235],[7.541350095130839,8.97846529213956],[7.537144301368472,8.96901917219708],[7.528262890020415,8.950403041267405],[7.521030134732997,8.93729548270039],[7.507315879124576,8.934284253015903],[7.504262483826609,8.927762684300491],[7.495736108634559,8.92874255412562],[7.490623611190756,8.932544375122859],[7.492060187327809,8.936608701930082],[7.494373506232364,8.94737814638438],[7.473904869014518,8.95045591600774],[7.472418319350027,8.959128618990635],[7.472038808144533,8.960601763360728],[7.470659662713332,8.962613858842584],[7.467143758677594,8.965923202094132],[7.4647601352720585,8.968275408583281],[7.46422833826722,8.969384395873192],[7.463476283803517,8.971420914243824],[7.463223052701778,8.973159819070416],[7.462989285627089,8.979036269008647],[7.457146026967621,8.97993769996492],[7.455239957957759,8.980564307097154],[7.453020780984331,8.981688515412712],[7.452713123811692,8.987543923013675],[7.453320316379518,8.99093772519592],[7.454271034680574,8.99457647662314],[7.455281173887101,8.996630594726241],[7.457955070570108,9.000445355169065],[7.462657782930365,9.006763007107168],[7.460378970113425,9.008697419150625],[7.461960918061948,9.00957874756119],[7.463258160435827,9.011835919092448],[7.465685705830708,9.016749008060344],[7.467305865973002,9.018614986192691],[7.469224338432526,9.018882655010543],[7.471608812596686,9.020245838374763],[7.4739376466051795,9.022118610885226],[7.47462694907449,9.023194548989295],[7.475567221749941,9.024821232813679],[7.481243529365429,9.020620745950739],[7.484761306688994,9.023556984767081],[7.487915789382215,9.026129964026667],[7.490872524647329,9.028099398368566],[7.491461970893282,9.027742600440718],[7.4930972072703526,9.026484415623313],[7.494523285621199,9.025432796086701],[7.49677411333471,9.024411688748499],[7.49923895361485,9.028025801449644],[7.50027893772284,9.02985258263061],[7.502752709170238,9.028977151074683],[7.503670155253531,9.031444104761645],[7.504498709647805,9.034439350795424],[7.505674655960661,9.037133221421072],[7.507402266201667,9.03978642290514],[7.508647588915153,9.041223661842594],[7.513469187153305,9.04629198188951],[7.514648801800832,9.047322983568904],[7.515544739698044,9.047059628798879],[7.516199458738072,9.046626080928945],[7.5163233268601175,9.045950217028917],[7.516398245782455,9.045583226184986],[7.516614583096556,9.045219812844152],[7.516711000312455,9.044649897175079],[7.516929959150333,9.044307704237212],[7.517061905882316,9.044189450582733],[7.5172453918613655,9.044175486809308],[7.517584432675449,9.044316471727821],[7.517967683262042,9.044205280449376],[7.518237603082981,9.043974094428961],[7.518274274738019,9.043736534913194],[7.518122829804782,9.04335861820573],[7.518204647426614,9.042702568169034],[7.518865512433479,9.041332212711493],[7.519182625078144,9.039574160419193],[7.5197982029247905,9.038941338971656],[7.520266305445716,9.038598948182939],[7.523112497843556,9.037705989739662],[7.5242750019897935,9.03758485285874],[7.524808136286481,9.037512297354679],[7.525187369601498,9.037285252712309],[7.5258358509437935,9.036611536393368],[7.526746376743915,9.036046604767023],[7.52775983085155,9.035592213310053],[7.528833178008824,9.035696941160952],[7.529844300174375,9.03565301017835],[7.530943030696335,9.034899407981356],[7.532008283955179,9.034103568225134],[7.533597770920437,9.033648583215609]]]}},{"type":"Feature","properties":{"name":"Nyanya","label":"Nyanya","lga":"Municipal Area Council","people":113624,"walk":18.48,"walk_clinic":23.15,"walk_school":13.82,"f15":34.43,"f15_health":21.77,"f15_school":63.93,"beyond":74503,"clinics":10,"schools":33,"off_pct":0.43,"hexes":201,"gini":0.2,"share":7.08,"rank":2.0,"of":7,"reading":"Most people here walk longer than 15 minutes. Clinics are the weaker of the two services. That is 16 points above the city as a whole."},"geometry":{"type":"Polygon","coordinates":[[[7.5416585149285424,9.017774528371833],[7.539463312981582,9.018297604650796],[7.537416393951447,9.022427699778575],[7.536800022003433,9.024587090721697],[7.536800933916027,9.026589995132214],[7.535973814839736,9.02813257975481],[7.534729485877108,9.03251546801448],[7.534243994065151,9.033177387926173],[7.533597770920437,9.033648583215609],[7.533916737967104,9.034366417576164],[7.534965414921999,9.03537997240784],[7.5356979801777015,9.036698678900963],[7.536027922550659,9.037882462805438],[7.536571766873579,9.040743993140834],[7.53912695484513,9.043693882766545],[7.540018156013161,9.043083923884014],[7.542585098123823,9.042164047832614],[7.543529781074597,9.04092458330291],[7.543877867269827,9.039768973359458],[7.543942253332375,9.034164940659537],[7.54424645710833,9.032932295688965],[7.544723559144985,9.031866533413847],[7.5468919855767345,9.029628791735378],[7.5482452979821915,9.028683764344294],[7.549121544323839,9.028136611415503],[7.550115845569849,9.02777824507001],[7.550725368281179,9.027674724109259],[7.5541008557699465,9.027490649973572],[7.554708067223545,9.027422386034344],[7.555347299038659,9.027279696900564],[7.556137475763933,9.0269694406872],[7.558350212692233,9.02557238255946],[7.559403301721033,9.027063139252508],[7.558899958366454,9.028822604379737],[7.558140949445318,9.03060594830589],[7.5580584690231944,9.031895541945744],[7.558329003081098,9.035685550347921],[7.559070563355873,9.040699354391734],[7.5597469173863505,9.049823847092908],[7.560822566808043,9.05661717834016],[7.572238665182283,9.058391168417758],[7.576108206928267,9.06471124043145],[7.5897952580447745,9.065462245386357],[7.589917022652514,9.058522179854776],[7.590187225759906,9.030439072804997],[7.5907077893330674,9.013442997696245],[7.58963974188066,9.013400526313264],[7.58871873268339,9.013224466935638],[7.5876491743699725,9.013165779876887],[7.586668745166491,9.01348855555244],[7.5859557059910685,9.01348855555244],[7.584945566784541,9.01337118233425],[7.582925289270747,9.012813662920278],[7.5810270209802875,9.01219041385656],[7.578620513426019,9.011926326139074],[7.577788634238119,9.012571874792233],[7.5772538550813815,9.012835964308353],[7.5766893659215375,9.012513188632797],[7.576154585865481,9.0129533357279],[7.575292996674477,9.013745599779668],[7.574669088407745,9.01383362901879],[7.574104598348584,9.013862972098533],[7.572678519997737,9.01403903057684],[7.572381419966632,9.014860635909656],[7.571816930806733,9.015036694387959],[7.571430701665577,9.01500735130827],[7.57092563161268,9.01562355238508],[7.570509693367683,9.015682237645194],[7.569707524182944,9.016063694983586],[7.569707524182944,9.016562523741527],[7.569291584139364,9.016738581320508],[7.568459704951465,9.016855951840741],[7.56807347491099,9.017384121879786],[7.567716955772938,9.018264405278105],[7.567360435735567,9.018645859918534],[7.567093046606884,9.0189979723786],[7.5670633366037245,9.019702193701335],[7.566498847443882,9.020347730663275],[7.56587493827783,9.020611812984836],[7.565399578227982,9.021110636346858],[7.565151360846699,9.021698399961224],[7.56410794762371,9.021939441651968],[7.562744627562552,9.022694721983896],[7.560790412447602,9.023989450752595],[7.559507890177031,9.022446965954769],[7.558920819040623,9.022903897097192],[7.5580247732247585,9.021644668166967],[7.5576026548387185,9.020788672759066],[7.5565792236523075,9.020018193884598],[7.555313352329392,9.018823270077917],[7.55321175811622,9.019215107391348],[7.551928287960152,9.019320740859541],[7.550395253238378,9.018193982066693],[7.549539605868176,9.01801792628629],[7.5484700475547015,9.018299616434208],[7.547364837417376,9.018264405278103],[7.545793021231021,9.018399317074852],[7.544332765045112,9.018995960595133],[7.543514425150647,9.018686939150994],[7.5416585149285424,9.017774528371833]]]}},{"type":"Feature","properties":{"name":"City Centre","label":"City Centre","lga":"Municipal Area Council","people":141266,"walk":29.49,"walk_clinic":32.32,"walk_school":26.66,"f15":18.28,"f15_health":17.42,"f15_school":27.86,"beyond":115445,"clinics":31,"schools":42,"off_pct":1.02,"hexes":899,"gini":0.28,"share":8.8,"rank":4.0,"of":7,"reading":"Most people here walk longer than 15 minutes. Clinics are the weaker of the two services."},"geometry":{"type":"Polygon","coordinates":[[[7.453020780984331,8.981688515412712],[7.439009372284773,8.993069382845816],[7.431925302810498,8.997544346394536],[7.424760986830109,9.00219579829752],[7.42797771969606,9.00677629189238],[7.430494956277244,9.009463063269777],[7.433418384251071,9.0120262030469],[7.442710744405361,9.018244450221232],[7.447145761867489,9.022025722609042],[7.451964143230669,9.026673182421462],[7.455550240251455,9.028789690991518],[7.464179548247615,9.032738089791053],[7.461074199115047,9.036600495416565],[7.456983506883375,9.04244561027673],[7.4552369200478665,9.046424223599104],[7.463570252165425,9.04725153513027],[7.469941086412065,9.049925989392932],[7.471492306324933,9.054670229747328],[7.4749180398357,9.057414639574006],[7.477728593899544,9.0583739356087],[7.481126657968958,9.059007279562364],[7.484805636071315,9.060071096603847],[7.48945700433734,9.06265832831923],[7.491792001399801,9.066965856988759],[7.495576434904593,9.06944927726238],[7.501392058296916,9.07360919211055],[7.503247384858979,9.076014033221098],[7.503905473658734,9.082795655295286],[7.506654318042366,9.089228904290565],[7.5091879213854895,9.092820525846662],[7.508089860858433,9.094888987237026],[7.506331000974967,9.097424206661854],[7.504759435699441,9.099728360575453],[7.504558326605547,9.102420194236625],[7.504075933857336,9.108876891255589],[7.504862301054402,9.112138216105846],[7.548148290811013,9.10447648510177],[7.589172641204471,9.100944410356304],[7.5897952580447745,9.065462245386357],[7.576108206928267,9.06471124043145],[7.572238665182283,9.058391168417758],[7.560822566808043,9.05661717834016],[7.5597469173863505,9.049823847092908],[7.559070563355873,9.040699354391734],[7.558329003081098,9.035685550347921],[7.5580584690231944,9.031895541945744],[7.558140949445318,9.03060594830589],[7.558899958366454,9.028822604379737],[7.559403301721033,9.027063139252508],[7.558350212692233,9.02557238255946],[7.556137475763933,9.0269694406872],[7.555347299038659,9.027279696900564],[7.554708067223545,9.027422386034344],[7.5541008557699465,9.027490649973572],[7.550725368281179,9.027674724109259],[7.550115845569849,9.02777824507001],[7.549121544323839,9.028136611415503],[7.5482452979821915,9.028683764344294],[7.5468919855767345,9.029628791735378],[7.544723559144985,9.031866533413847],[7.54424645710833,9.032932295688965],[7.543942253332375,9.034164940659537],[7.543877867269827,9.039768973359458],[7.543529781074597,9.04092458330291],[7.542585098123823,9.042164047832614],[7.540018156013161,9.043083923884014],[7.53912695484513,9.043693882766545],[7.536571766873579,9.040743993140834],[7.536027922550659,9.037882462805438],[7.5356979801777015,9.036698678900963],[7.534965414921999,9.03537997240784],[7.533916737967104,9.034366417576164],[7.533597770920437,9.033648583215609],[7.532008283955179,9.034103568225134],[7.530943030696335,9.034899407981356],[7.529844300174375,9.03565301017835],[7.528833178008824,9.035696941160952],[7.52775983085155,9.035592213310053],[7.526746376743915,9.036046604767023],[7.5258358509437935,9.036611536393368],[7.525187369601498,9.037285252712309],[7.524808136286481,9.037512297354679],[7.5242750019897935,9.03758485285874],[7.523112497843556,9.037705989739662],[7.520266305445716,9.038598948182939],[7.5197982029247905,9.038941338971656],[7.519182625078144,9.039574160419193],[7.518865512433479,9.041332212711493],[7.518204647426614,9.042702568169034],[7.518122829804782,9.04335861820573],[7.518274274738019,9.043736534913194],[7.518237603082981,9.043974094428961],[7.517967683262042,9.044205280449376],[7.517584432675449,9.044316471727821],[7.5172453918613655,9.044175486809308],[7.517061905882316,9.044189450582733],[7.516929959150333,9.044307704237212],[7.516711000312455,9.044649897175079],[7.516614583096556,9.045219812844152],[7.516398245782455,9.045583226184986],[7.5163233268601175,9.045950217028917],[7.516199458738072,9.046626080928945],[7.515544739698044,9.047059628798879],[7.514648801800832,9.047322983568904],[7.513469187153305,9.04629198188951],[7.508647588915153,9.041223661842594],[7.507402266201667,9.03978642290514],[7.505674655960661,9.037133221421072],[7.504498709647805,9.034439350795424],[7.503670155253531,9.031444104761645],[7.502752709170238,9.028977151074683],[7.50027893772284,9.02985258263061],[7.49923895361485,9.028025801449644],[7.49677411333471,9.024411688748499],[7.494523285621199,9.025432796086701],[7.4930972072703526,9.026484415623313],[7.491461970893282,9.027742600440718],[7.490872524647329,9.028099398368566],[7.487915789382215,9.026129964026667],[7.484761306688994,9.023556984767081],[7.481243529365429,9.020620745950739],[7.475567221749941,9.024821232813679],[7.47462694907449,9.023194548989295],[7.4739376466051795,9.022118610885226],[7.471608812596686,9.020245838374763],[7.469224338432526,9.018882655010543],[7.467305865973002,9.018614986192691],[7.465685705830708,9.016749008060344],[7.463258160435827,9.011835919092448],[7.461960918061948,9.00957874756119],[7.460378970113425,9.008697419150625],[7.462657782930365,9.006763007107168],[7.457955070570108,9.000445355169065],[7.455281173887101,8.996630594726241],[7.454271034680574,8.99457647662314],[7.453320316379518,8.99093772519592],[7.452713123811692,8.987543923013675],[7.453020780984331,8.981688515412712]]]}},{"type":"Feature","properties":{"name":"Karu","label":"Karu","lga":"Municipal Area Council","people":121468,"walk":15.68,"walk_clinic":16.14,"walk_school":15.21,"f15":59.83,"f15_health":60.35,"f15_school":63.66,"beyond":48790,"clinics":25,"schools":28,"off_pct":0.23,"hexes":314,"gini":0.27,"share":7.57,"rank":1.0,"of":7,"reading":"About half the people here can walk to clinics and schools in 15 minutes. Clinics and schools are about even. That is 41 points above the city as a whole."},"geometry":{"type":"Polygon","coordinates":[[[7.5907077893330674,9.013442997696245],[7.591591556705056,8.963050138852848],[7.580309415047509,8.960973756233896],[7.573416703318231,8.960504198609954],[7.552060872311472,8.965685416848544],[7.547579570340929,8.965720904096486],[7.537144301368472,8.96901917219708],[7.541350095130839,8.97846529213956],[7.5446631597770315,8.992447396430235],[7.541199500956225,9.00137186102262],[7.538338217035117,9.00747011885096],[7.5416585149285424,9.017774528371833],[7.543514425150647,9.018686939150994],[7.544332765045112,9.018995960595133],[7.545793021231021,9.018399317074852],[7.547364837417376,9.018264405278103],[7.5484700475547015,9.018299616434208],[7.549539605868176,9.01801792628629],[7.550395253238378,9.018193982066693],[7.551928287960152,9.019320740859541],[7.55321175811622,9.019215107391348],[7.555313352329392,9.018823270077917],[7.5565792236523075,9.020018193884598],[7.5576026548387185,9.020788672759066],[7.5580247732247585,9.021644668166967],[7.558920819040623,9.022903897097192],[7.559507890177031,9.022446965954769],[7.560790412447602,9.023989450752595],[7.562744627562552,9.022694721983896],[7.56410794762371,9.021939441651968],[7.565151360846699,9.021698399961224],[7.565399578227982,9.021110636346858],[7.56587493827783,9.020611812984836],[7.566498847443882,9.020347730663275],[7.5670633366037245,9.019702193701335],[7.567093046606884,9.0189979723786],[7.567360435735567,9.018645859918534],[7.567716955772938,9.018264405278105],[7.56807347491099,9.017384121879786],[7.568459704951465,9.016855951840741],[7.569291584139364,9.016738581320508],[7.569707524182944,9.016562523741527],[7.569707524182944,9.016063694983586],[7.570509693367683,9.015682237645194],[7.57092563161268,9.01562355238508],[7.571430701665577,9.01500735130827],[7.571816930806733,9.015036694387959],[7.572381419966632,9.014860635909656],[7.572678519997737,9.01403903057684],[7.574104598348584,9.013862972098533],[7.574669088407745,9.01383362901879],[7.575292996674477,9.013745599779668],[7.576154585865481,9.0129533357279],[7.5766893659215375,9.012513188632797],[7.5772538550813815,9.012835964308353],[7.577788634238119,9.012571874792233],[7.578620513426019,9.011926326139074],[7.5810270209802875,9.01219041385656],[7.582925289270747,9.012813662920278],[7.584945566784541,9.01337118233425],[7.5859557059910685,9.01348855555244],[7.586668745166491,9.01348855555244],[7.5876491743699725,9.013165779876887],[7.58871873268339,9.013224466935638],[7.58963974188066,9.013400526313264],[7.5907077893330674,9.013442997696245]]]}},{"type":"Feature","properties":{"name":"Gwarinpa","label":"Gwarinpa","lga":"Municipal Area Council","people":432095,"walk":28.82,"walk_clinic":32.26,"walk_school":25.38,"f15":11.53,"f15_health":11.5,"f15_school":19.27,"beyond":382290,"clinics":51,"schools":68,"off_pct":0.91,"hexes":1413,"gini":0.23,"share":26.93,"rank":7.0,"of":7,"reading":"Almost nobody here is within a 15-minute walk of clinics and schools. Clinics and schools are about even. That is 7 points below the city as a whole."},"geometry":{"type":"Polygon","coordinates":[[[7.318056242601586,9.08624157319008],[7.319182363775099,9.086617881010454],[7.3200340811080205,9.086537975347312],[7.320636306720246,9.087341926988419],[7.32079182198504,9.089109301653027],[7.31889679664988,9.091020378088047],[7.318509618723966,9.0917396189883],[7.318694335874966,9.092893626339844],[7.318092815331226,9.093923032621886],[7.318039336246442,9.094691068937719],[7.320290681070105,9.097894196859723],[7.321114064362632,9.098383244591105],[7.320915518336562,9.09919569212752],[7.317942257129516,9.10176782332644],[7.316446201630924,9.103013630774512],[7.314906615348093,9.103705084422131],[7.314515742107857,9.104242997716197],[7.314741973763149,9.105502998264798],[7.315402338746992,9.10683819202899],[7.315353107160207,9.108544741047012],[7.315177671012748,9.110811003824836],[7.315594052623454,9.114711652221049],[7.315839806761745,9.117402317662881],[7.315595308976356,9.118196457700435],[7.313961162577641,9.118363881787786],[7.313565650634303,9.118886683773498],[7.314148739572716,9.120872787049507],[7.315237602733248,9.121432290367977],[7.31570467912769,9.12222138880611],[7.315347552947287,9.123099452677652],[7.3145649853858,9.123624803342068],[7.314240789680753,9.124517749194808],[7.314737883646445,9.125119776956183],[7.318211838805383,9.124613764413768],[7.318741981057656,9.125288552724555],[7.319203086853008,9.127436869416046],[7.320084518685633,9.128583103927157],[7.31987301342889,9.130764428435667],[7.320896119960026,9.131683136267782],[7.322064029031766,9.134261559123729],[7.322448846237308,9.13553784459589],[7.3241834244255415,9.136586746381283],[7.324989901362926,9.137334736808722],[7.325841355194427,9.137024348395014],[7.326688357381841,9.135872071339064],[7.327434414266861,9.135699995958078],[7.3285360630889045,9.136667143973566],[7.329889782887222,9.137612319752806],[7.330091045765187,9.139079541187925],[7.3316829923762725,9.142314087824955],[7.343518237776493,9.143679754217318],[7.351494745885873,9.140081125143864],[7.363181613940355,9.131926279674133],[7.375049377926473,9.123645020101662],[7.379470221173791,9.122659392816784],[7.4145517489640715,9.118576053442153],[7.436798570697533,9.117872024574295],[7.465795497764078,9.117449606714047],[7.471499812066724,9.116041542683092],[7.479699504028928,9.112043155966944],[7.480336855361657,9.109307635938707],[7.475883765123684,9.097547034268246],[7.474037511821734,9.092175055434495],[7.47207518572128,9.08943745797234],[7.469626092570138,9.087423687053558],[7.4628526237496535,9.083364673440999],[7.46047068657299,9.081292335972591],[7.456601232061247,9.077968238443473],[7.454030493012908,9.075548241058526],[7.45259490073414,9.072741405691374],[7.452011181370949,9.07096520777816],[7.451682211165178,9.06789704021628],[7.4521233637023,9.065832076289327],[7.453508947380043,9.059626478079563],[7.453771900153129,9.056363995801805],[7.453878389775923,9.051209562071676],[7.4552369200478665,9.046424223599104],[7.456983506883375,9.04244561027673],[7.461074199115047,9.036600495416565],[7.464179548247615,9.032738089791053],[7.455550240251455,9.028789690991518],[7.451964143230669,9.026673182421462],[7.447145761867489,9.022025722609042],[7.442710744405361,9.018244450221232],[7.433418384251071,9.0120262030469],[7.430494956277244,9.009463063269777],[7.42797771969606,9.00677629189238],[7.424760986830109,9.00219579829752],[7.420170989199846,9.005715017234309],[7.417693878569708,9.008629103050735],[7.410072798720705,9.000330355261724],[7.406232392311097,8.996492848266369],[7.401966870974377,8.993174430855332],[7.391638517004026,8.986838557753288],[7.386326486078532,8.99560453931809],[7.38623340894469,8.998409188433355],[7.383320684701914,9.001982739012249],[7.395652667036987,9.008893187170884],[7.397724633984695,9.012308028992377],[7.401230981824426,9.017370230052107],[7.4048360077756,9.019956019254948],[7.407226083816738,9.022640176303124],[7.407764329859958,9.024622508721848],[7.410878643434671,9.025889802772213],[7.412045286260991,9.036249057448115],[7.402535316251886,9.038521888874131],[7.398313933641191,9.04026525164011],[7.39219854282851,9.042173383694774],[7.388291850988195,9.043054959418898],[7.389095362860758,9.045411514130135],[7.389578047888619,9.049642040148056],[7.390203094697085,9.054368731132056],[7.391721547811243,9.058443222976392],[7.3881758015720616,9.059143928849267],[7.387161597429839,9.057600932337209],[7.385732991984014,9.05695693321593],[7.384793631221157,9.060836532979636],[7.38414111911743,9.06212583613848],[7.382089002005898,9.063516507281006],[7.380659526016359,9.064137135720273],[7.37983956914087,9.065192048574204],[7.3788817363031285,9.065575011377746],[7.377558297577424,9.065014312860283],[7.3745523648997855,9.065681995627642],[7.371592508987135,9.065994960599026],[7.370075671954737,9.065948433273604],[7.368675422133095,9.065987459353835],[7.367666588742111,9.066278789334717],[7.36651016221424,9.066707130129998],[7.366005611969456,9.067036325166328],[7.365329633855596,9.067649328253935],[7.364107722293625,9.068674485239342],[7.363473102201965,9.069178732412638],[7.362419107555809,9.069652610379704],[7.360517211400235,9.07029637477791],[7.35995322406211,9.070442323054806],[7.359069759761667,9.070463127971037],[7.355629515689657,9.070041062644972],[7.354558933947715,9.069929231948548],[7.349909053160332,9.071169274742262],[7.345285146592289,9.073176199122315],[7.341703385203118,9.074535696165468],[7.339505265855394,9.075549083723276],[7.333687726907102,9.077488680358387],[7.329311176169881,9.079001749231393],[7.32765031900709,9.079991366808201],[7.325899135736564,9.081248587552295],[7.323503786070945,9.08358201979445],[7.321820186852165,9.084512606771455],[7.318741540389852,9.085719035605052],[7.318056242601586,9.08624157319008]]]}},{"type":"Feature","properties":{"name":"Kabusa","label":"Kabusa","lga":"Municipal Area Council","people":452129,"walk":32.37,"walk_clinic":34.29,"walk_school":30.45,"f15":13.67,"f15_health":6.92,"f15_school":24.24,"beyond":390320,"clinics":30,"schools":55,"off_pct":0.92,"hexes":2040,"gini":0.27,"share":28.18,"rank":5.0,"of":7,"reading":"Almost nobody here is within a 15-minute walk of clinics and schools. Clinics are the weaker of the two services. That is 5 points below the city as a whole."},"geometry":{"type":"Polygon","coordinates":[[[7.334711401809783,8.921356232404266],[7.336922822130589,8.933638259198347],[7.337635861306012,8.93687843559138],[7.335746307446185,8.939185282075128],[7.332822846197417,8.943200217216315],[7.331147204180183,8.945137230998455],[7.329828082200264,8.945771162209441],[7.328268680255462,8.947916934718819],[7.322094330788787,8.95669373782579],[7.3124254496748335,8.972757561312449],[7.314955092403636,8.97847119708814],[7.317843436925101,8.98369338394258],[7.320575123143441,8.993032891954442],[7.321155928703206,8.994030979346288],[7.322758062834396,8.994034811357492],[7.323149847987168,8.994653732883537],[7.322619694043682,8.995904905686867],[7.321613012730382,8.997396087759286],[7.320860435760552,8.999781927993638],[7.323352315956641,9.003224647899232],[7.330719415568638,9.009610347039938],[7.337325502569913,9.011950216629257],[7.345203691397274,9.018791803698832],[7.353147122441784,9.02365143876295],[7.375881561984556,9.030558310317817],[7.382384884354963,9.027656214262946],[7.3934880348450065,9.024587033165117],[7.407764329859958,9.024622508721848],[7.407226083816738,9.022640176303124],[7.4048360077756,9.019956019254948],[7.401230981824426,9.017370230052107],[7.397724633984695,9.012308028992377],[7.395652667036987,9.008893187170884],[7.383320684701914,9.001982739012249],[7.38623340894469,8.998409188433355],[7.386326486078532,8.99560453931809],[7.391638517004026,8.986838557753288],[7.401966870974377,8.993174430855332],[7.406232392311097,8.996492848266369],[7.410072798720705,9.000330355261724],[7.417693878569708,9.008629103050735],[7.420170989199846,9.005715017234309],[7.424760986830109,9.00219579829752],[7.431925302810498,8.997544346394536],[7.439009372284773,8.993069382845816],[7.453020780984331,8.981688515412712],[7.455239957957759,8.980564307097154],[7.457146026967621,8.97993769996492],[7.462989285627089,8.979036269008647],[7.463223052701778,8.973159819070416],[7.463476283803517,8.971420914243824],[7.46422833826722,8.969384395873192],[7.4647601352720585,8.968275408583281],[7.467143758677594,8.965923202094132],[7.470659662713332,8.962613858842584],[7.472038808144533,8.960601763360728],[7.472418319350027,8.959128618990635],[7.473904869014518,8.95045591600774],[7.494373506232364,8.94737814638438],[7.492060187327809,8.936608701930082],[7.490623611190756,8.932544375122859],[7.495736108634559,8.92874255412562],[7.504262483826609,8.927762684300491],[7.485455506866175,8.888602925284827],[7.481913776099931,8.867957083852387],[7.463435592178882,8.869630564798797],[7.4096494500621475,8.876676365421986],[7.412323346745097,8.908670961295853],[7.334711401809783,8.921356232404266]]]}}]}